{
"type": "FeatureCollection",
"name": "VOIRIE_SIPA",
"crs": { "type": "name", "properties": { "name": "urn:ogc:def:crs:EPSG::2154" } },
"features": [
{ "type": "Feature", "properties": { "ID": "TRONROUT0000000047489914", "NATURE": "Route à 1 chaussée", "NOM_COLL_G": null, "NOM_COLL_D": null, "IMPORTANCE": "5", "FICTIF": "Non", "POS_SOL": "0", "ETAT": "En service", "DATE_CREAT": "2006-12-18 13:00:39", "DATE_MAJ": "2023-08-26 14:40:02", "DATE_APP": null, "DATE_CONF": null, "SOURCE": null, "ID_SOURCE": null, "ACQU_PLANI": "BDTopo", "PREC_PLANI": 2.5, "ACQU_ALTI": "BDTopo", "PREC_ALTI": 1.5, "NB_VOIES": 2, "LARGEUR": 4.0, "IT_VERT": "Non", "PRIVE": "Non", "SENS": "Double sens", "BUS": null, "URBAIN": "Oui", "VIT_MOY_VL": 20, "ACCES_VL": "Libre", "ACCES_PED": null, "FERMETURE": null, "NAT_RESTR": null, "RESTR_H": null, "RESTR_P": null, "RESTR_PPE": null, "RESTR_LAR": null, "RESTR_LON": null, "RESTR_MAT": "Non", "BORNEDEB_G": null, "BORNEDEB_D": null, "BORNEFIN_G": null, "BORNEFIN_D": null, "INSEECOM_G": "35238", "INSEECOM_D": "35238", "ALIAS_G": null, "ALIAS_D": null, "DATE_SERV": null, "ID_RN": null, "ID_ITI": null, "NUMERO": null, "NUM_EUROP": null, "CL_ADMIN": null, "GESTION": null, "TOPONYME": null, "ITI_CYCL": null, "VOIE_VERTE": null, "NATURE_ITI": null, "NOM_ITI": null, "DELESTAGE": null, "SRC_BAN_G": null, "SRC_BAN_D": null, "NOM_BAN_G": null, "NOM_BAN_D": null, "LD_BAN_G": null, "LD_BAN_D": null, "ID_BAN_G": null, "ID_BAN_D": null, "SENS_CYC_G": null, "SENS_CYC_D": null, "CYCLABLE_G": null, "CYCLABLE_D": null, "RETOURDFCI": null, "GAB_DFCI": null, "IMPAS_DFCI": null, "NDET_DFCI": null, "OALIM_DFCI": null, "PTMAX_DFCI": null, "PISTE_DFCI": null, "DFCI_DEBRO": null, "DFCI_FOSSE": null, "SENS_DFCI": null, "TERR_DFCI": null, "VIT_DFCI": null, "CROIS_DFCI": null, "CAT_DFCI": null, "VITESSE_CO": null, "ID_BAN_O_D": null, "ID_BAN_O_G": null }, "geometry": { "type": "MultiLineString", "coordinates": [ [ [ 355595.400000000023283, 6787256.700000000186265, 50.0 ], [ 355610.900000000023283, 6787234.900000000372529, 50.2 ], [ 355673.099999999976717, 6787149.799999999813735, 52.2 ] ] ] } },
{ "type": "Feature", "properties": { "ID": "TRONROUT0000000047489924", "NATURE": "Route à 1 chaussée", "NOM_COLL_G": null, "NOM_COLL_D": null, "IMPORTANCE": "5", "FICTIF": "Non", "POS_SOL": "0", "ETAT": "En service", "DATE_CREAT": "2006-12-18 13:00:39", "DATE_MAJ": "2023-08-26 14:40:02", "DATE_APP": null, "DATE_CONF": null, "SOURCE": null, "ID_SOURCE": null, "ACQU_PLANI": "BDTopo", "PREC_PLANI": 2.5, "ACQU_ALTI": "BDTopo", "PREC_ALTI": 1.5, "NB_VOIES": 2, "LARGEUR": 4.0, "IT_VERT": "Non", "PRIVE": "Non", "SENS": "Double sens", "BUS": null, "URBAIN": "Oui", "VIT_MOY_VL": 20, "ACCES_VL": "Libre", "ACCES_PED": null, "FERMETURE": null, "NAT_RESTR": null, "RESTR_H": null, "RESTR_P": null, "RESTR_PPE": null, "RESTR_LAR": null, "RESTR_LON": null, "RESTR_MAT": "Non", "BORNEDEB_G": null, "BORNEDEB_D": null, "BORNEFIN_G": null, "BORNEFIN_D": null, "INSEECOM_G": "35238", "INSEECOM_D": "35238", "ALIAS_G": null, "ALIAS_D": null, "DATE_SERV": null, "ID_RN": null, "ID_ITI": null, "NUMERO": null, "NUM_EUROP": null, "CL_ADMIN": null, "GESTION": null, "TOPONYME": null, "ITI_CYCL": null, "VOIE_VERTE": null, "NATURE_ITI": null, "NOM_ITI": null, "DELESTAGE": null, "SRC_BAN_G": null, "SRC_BAN_D": null, "NOM_BAN_G": null, "NOM_BAN_D": null, "LD_BAN_G": null, "LD_BAN_D": null, "ID_BAN_G": null, "ID_BAN_D": null, "SENS_CYC_G": null, "SENS_CYC_D": null, "CYCLABLE_G": null, "CYCLABLE_D": null, "RETOURDFCI": null, "GAB_DFCI": null, "IMPAS_DFCI": null, "NDET_DFCI": null, "OALIM_DFCI": null, "PTMAX_DFCI": null, "PISTE_DFCI": null, "DFCI_DEBRO": null, "DFCI_FOSSE": null, "SENS_DFCI": null, "TERR_DFCI": null, "VIT_DFCI": null, "CROIS_DFCI": null, "CAT_DFCI": null, "VITESSE_CO": null, "ID_BAN_O_D": null, "ID_BAN_O_G": null }, "geometry": { "type": "MultiLineString", "coordinates": [ [ [ 355681.200000000011642, 6787310.5, 50.5 ], [ 355691.900000000023283, 6787300.200000000186265, 51.0 ], [ 355702.299999999988358, 6787293.5, 51.5 ], [ 355717.099999999976717, 6787287.599999999627471, 52.5 ], [ 355751.200000000011642, 6787279.0, 53.3 ], [ 355780.900000000023283, 6787269.099999999627471, 53.6 ], [ 355796.099999999976717, 6787268.799999999813735, 54.1 ], [ 355805.099999999976717, 6787271.299999999813735, 54.1 ], [ 355810.900000000023283, 6787276.700000000186265, 54.1 ] ] ] } },
{ "type": "Feature", "properties": { "ID": "TRONROUT0000000047489938", "NATURE": "Route à 1 chaussée", "NOM_COLL_G": null, "NOM_COLL_D": null, "IMPORTANCE": "5", "FICTIF": "Non", "POS_SOL": "0", "ETAT": "En service", "DATE_CREAT": "2006-12-18 13:00:39", "DATE_MAJ": "2023-08-26 14:40:02", "DATE_APP": null, "DATE_CONF": null, "SOURCE": null, "ID_SOURCE": null, "ACQU_PLANI": "BDTopo", "PREC_PLANI": 2.5, "ACQU_ALTI": "BDTopo", "PREC_ALTI": 1.5, "NB_VOIES": 2, "LARGEUR": 8.0, "IT_VERT": "Non", "PRIVE": "Non", "SENS": "Double sens", "BUS": null, "URBAIN": "Oui", "VIT_MOY_VL": 0, "ACCES_VL": "Restreint aux ayants droit", "ACCES_PED": "Libre", "FERMETURE": null, "NAT_RESTR": null, "RESTR_H": null, "RESTR_P": null, "RESTR_PPE": null, "RESTR_LAR": null, "RESTR_LON": null, "RESTR_MAT": "Non", "BORNEDEB_G": null, "BORNEDEB_D": null, "BORNEFIN_G": null, "BORNEFIN_D": null, "INSEECOM_G": "35238", "INSEECOM_D": "35238", "ALIAS_G": null, "ALIAS_D": null, "DATE_SERV": null, "ID_RN": null, "ID_ITI": null, "NUMERO": null, "NUM_EUROP": null, "CL_ADMIN": null, "GESTION": null, "TOPONYME": null, "ITI_CYCL": null, "VOIE_VERTE": null, "NATURE_ITI": null, "NOM_ITI": null, "DELESTAGE": null, "SRC_BAN_G": null, "SRC_BAN_D": null, "NOM_BAN_G": null, "NOM_BAN_D": null, "LD_BAN_G": null, "LD_BAN_D": null, "ID_BAN_G": null, "ID_BAN_D": null, "SENS_CYC_G": null, "SENS_CYC_D": null, "CYCLABLE_G": null, "CYCLABLE_D": null, "RETOURDFCI": null, "GAB_DFCI": null, "IMPAS_DFCI": null, "NDET_DFCI": null, "OALIM_DFCI": null, "PTMAX_DFCI": null, "PISTE_DFCI": null, "DFCI_DEBRO": null, "DFCI_FOSSE": null, "SENS_DFCI": null, "TERR_DFCI": null, "VIT_DFCI": null, "CROIS_DFCI": null, "CAT_DFCI": null, "VITESSE_CO": null, "ID_BAN_O_D": null, "ID_BAN_O_G": null }, "geometry": { "type": "MultiLineString", "coordinates": [ [ [ 355572.200000000011642, 6787264.700000000186265, 49.8 ], [ 355579.099999999976717, 6787255.900000000372529, 49.6 ] ] ] } },
{ "type": "Feature", "properties": { "ID": "TRONROUT0000002269561860", "NATURE": "Route à 1 chaussée", "NOM_COLL_G": null, "NOM_COLL_D": null, "IMPORTANCE": "5", "FICTIF": "Non", "POS_SOL": "0", "ETAT": "En service", "DATE_CREAT": "2021-10-07 16:48:49", "DATE_MAJ": "2023-08-26 14:40:02", "DATE_APP": null, "DATE_CONF": null, "SOURCE": null, "ID_SOURCE": null, "ACQU_PLANI": "BDTopo", "PREC_PLANI": 2.5, "ACQU_ALTI": "BDTopo", "PREC_ALTI": 1.5, "NB_VOIES": 2, "LARGEUR": 8.0, "IT_VERT": "Non", "PRIVE": "Non", "SENS": "Double sens", "BUS": null, "URBAIN": "Oui", "VIT_MOY_VL": 20, "ACCES_VL": "Libre", "ACCES_PED": null, "FERMETURE": null, "NAT_RESTR": null, "RESTR_H": null, "RESTR_P": null, "RESTR_PPE": null, "RESTR_LAR": null, "RESTR_LON": null, "RESTR_MAT": "Non", "BORNEDEB_G": null, "BORNEDEB_D": null, "BORNEFIN_G": null, "BORNEFIN_D": null, "INSEECOM_G": "35238", "INSEECOM_D": "35238", "ALIAS_G": null, "ALIAS_D": null, "DATE_SERV": null, "ID_RN": null, "ID_ITI": null, "NUMERO": null, "NUM_EUROP": null, "CL_ADMIN": null, "GESTION": null, "TOPONYME": null, "ITI_CYCL": null, "VOIE_VERTE": null, "NATURE_ITI": null, "NOM_ITI": null, "DELESTAGE": null, "SRC_BAN_G": null, "SRC_BAN_D": null, "NOM_BAN_G": null, "NOM_BAN_D": null, "LD_BAN_G": null, "LD_BAN_D": null, "ID_BAN_G": null, "ID_BAN_D": null, "SENS_CYC_G": null, "SENS_CYC_D": null, "CYCLABLE_G": null, "CYCLABLE_D": null, "RETOURDFCI": null, "GAB_DFCI": null, "IMPAS_DFCI": null, "NDET_DFCI": null, "OALIM_DFCI": null, "PTMAX_DFCI": null, "PISTE_DFCI": null, "DFCI_DEBRO": null, "DFCI_FOSSE": null, "SENS_DFCI": null, "TERR_DFCI": null, "VIT_DFCI": null, "CROIS_DFCI": null, "CAT_DFCI": null, "VITESSE_CO": null, "ID_BAN_O_D": null, "ID_BAN_O_G": null }, "geometry": { "type": "MultiLineString", "coordinates": [ [ [ 355549.299999999988358, 6787301.0, 48.5 ], [ 355565.0, 6787276.0, 49.2 ], [ 355567.0, 6787273.299999999813735, 49.4 ], [ 355572.200000000011642, 6787264.700000000186265, 49.8 ] ] ] } },
{ "type": "Feature", "properties": { "ID": "TRONROUT0000002275265712", "NATURE": "Route à 1 chaussée", "NOM_COLL_G": null, "NOM_COLL_D": null, "IMPORTANCE": "5", "FICTIF": "Non", "POS_SOL": "0", "ETAT": "En service", "DATE_CREAT": "2021-12-02 17:26:11", "DATE_MAJ": "2025-09-19 11:36:09", "DATE_APP": null, "DATE_CONF": "2020-09-14", "SOURCE": null, "ID_SOURCE": null, "ACQU_PLANI": "Photogrammétrie", "PREC_PLANI": 2.5, "ACQU_ALTI": "Photogrammétrie", "PREC_ALTI": 1.5, "NB_VOIES": 2, "LARGEUR": 4.0, "IT_VERT": "Non", "PRIVE": null, "SENS": "Double sens", "BUS": null, "URBAIN": "Oui", "VIT_MOY_VL": 30, "ACCES_VL": "Libre", "ACCES_PED": null, "FERMETURE": null, "NAT_RESTR": null, "RESTR_H": null, "RESTR_P": null, "RESTR_PPE": null, "RESTR_LAR": null, "RESTR_LON": null, "RESTR_MAT": null, "BORNEDEB_G": null, "BORNEDEB_D": null, "BORNEFIN_G": null, "BORNEFIN_D": null, "INSEECOM_G": "35238", "INSEECOM_D": "35238", "ALIAS_G": null, "ALIAS_D": null, "DATE_SERV": null, "ID_RN": null, "ID_ITI": null, "NUMERO": null, "NUM_EUROP": null, "CL_ADMIN": null, "GESTION": null, "TOPONYME": null, "ITI_CYCL": null, "VOIE_VERTE": null, "NATURE_ITI": null, "NOM_ITI": null, "DELESTAGE": null, "SRC_BAN_G": null, "SRC_BAN_D": null, "NOM_BAN_G": null, "NOM_BAN_D": null, "LD_BAN_G": null, "LD_BAN_D": null, "ID_BAN_G": null, "ID_BAN_D": null, "SENS_CYC_G": null, "SENS_CYC_D": null, "CYCLABLE_G": null, "CYCLABLE_D": null, "RETOURDFCI": null, "GAB_DFCI": null, "IMPAS_DFCI": null, "NDET_DFCI": null, "OALIM_DFCI": null, "PTMAX_DFCI": null, "PISTE_DFCI": null, "DFCI_DEBRO": null, "DFCI_FOSSE": null, "SENS_DFCI": null, "TERR_DFCI": null, "VIT_DFCI": null, "CROIS_DFCI": null, "CAT_DFCI": null, "VITESSE_CO": null, "ID_BAN_O_D": null, "ID_BAN_O_G": null }, "geometry": { "type": "MultiLineString", "coordinates": [ [ [ 355687.299999999988358, 6787247.5, 51.3 ], [ 355700.400000000023283, 6787242.599999999627471, 51.4 ], [ 355717.700000000011642, 6787236.700000000186265, 51.4 ] ] ] } },
{ "type": "Feature", "properties": { "ID": "TRONROUT0000002275265713", "NATURE": "Route à 1 chaussée", "NOM_COLL_G": null, "NOM_COLL_D": null, "IMPORTANCE": "5", "FICTIF": "Non", "POS_SOL": "0", "ETAT": "En service", "DATE_CREAT": "2021-12-02 17:26:11", "DATE_MAJ": "2025-09-19 11:36:09", "DATE_APP": null, "DATE_CONF": "2020-09-14", "SOURCE": null, "ID_SOURCE": null, "ACQU_PLANI": "Photogrammétrie", "PREC_PLANI": 2.5, "ACQU_ALTI": "Photogrammétrie", "PREC_ALTI": 1.5, "NB_VOIES": 2, "LARGEUR": 4.0, "IT_VERT": "Non", "PRIVE": null, "SENS": "Double sens", "BUS": null, "URBAIN": "Oui", "VIT_MOY_VL": 30, "ACCES_VL": "Libre", "ACCES_PED": null, "FERMETURE": null, "NAT_RESTR": null, "RESTR_H": null, "RESTR_P": null, "RESTR_PPE": null, "RESTR_LAR": null, "RESTR_LON": null, "RESTR_MAT": null, "BORNEDEB_G": null, "BORNEDEB_D": null, "BORNEFIN_G": null, "BORNEFIN_D": null, "INSEECOM_G": "35238", "INSEECOM_D": "35238", "ALIAS_G": null, "ALIAS_D": null, "DATE_SERV": null, "ID_RN": null, "ID_ITI": null, "NUMERO": null, "NUM_EUROP": null, "CL_ADMIN": null, "GESTION": null, "TOPONYME": null, "ITI_CYCL": null, "VOIE_VERTE": null, "NATURE_ITI": null, "NOM_ITI": null, "DELESTAGE": null, "SRC_BAN_G": null, "SRC_BAN_D": null, "NOM_BAN_G": null, "NOM_BAN_D": null, "LD_BAN_G": null, "LD_BAN_D": null, "ID_BAN_G": null, "ID_BAN_D": null, "SENS_CYC_G": null, "SENS_CYC_D": null, "CYCLABLE_G": null, "CYCLABLE_D": null, "RETOURDFCI": null, "GAB_DFCI": null, "IMPAS_DFCI": null, "NDET_DFCI": null, "OALIM_DFCI": null, "PTMAX_DFCI": null, "PISTE_DFCI": null, "DFCI_DEBRO": null, "DFCI_FOSSE": null, "SENS_DFCI": null, "TERR_DFCI": null, "VIT_DFCI": null, "CROIS_DFCI": null, "CAT_DFCI": null, "VITESSE_CO": null, "ID_BAN_O_D": null, "ID_BAN_O_G": null }, "geometry": { "type": "MultiLineString", "coordinates": [ [ [ 355689.799999999988358, 6787259.599999999627471, 51.0 ], [ 355687.299999999988358, 6787247.5, 51.3 ] ] ] } },
{ "type": "Feature", "properties": { "ID": "TRONROUT0000002275265714", "NATURE": "Route à 1 chaussée", "NOM_COLL_G": null, "NOM_COLL_D": null, "IMPORTANCE": "5", "FICTIF": "Non", "POS_SOL": "0", "ETAT": "En service", "DATE_CREAT": "2021-12-02 17:26:11", "DATE_MAJ": "2023-08-26 14:40:02", "DATE_APP": null, "DATE_CONF": "2020-09-14", "SOURCE": null, "ID_SOURCE": null, "ACQU_PLANI": "Photogrammétrie", "PREC_PLANI": 2.5, "ACQU_ALTI": "Photogrammétrie", "PREC_ALTI": 1.5, "NB_VOIES": 2, "LARGEUR": 6.0, "IT_VERT": "Non", "PRIVE": null, "SENS": "Double sens", "BUS": null, "URBAIN": "Oui", "VIT_MOY_VL": 30, "ACCES_VL": "Libre", "ACCES_PED": null, "FERMETURE": null, "NAT_RESTR": null, "RESTR_H": null, "RESTR_P": null, "RESTR_PPE": null, "RESTR_LAR": null, "RESTR_LON": null, "RESTR_MAT": null, "BORNEDEB_G": null, "BORNEDEB_D": null, "BORNEFIN_G": null, "BORNEFIN_D": null, "INSEECOM_G": "35238", "INSEECOM_D": "35238", "ALIAS_G": null, "ALIAS_D": null, "DATE_SERV": null, "ID_RN": null, "ID_ITI": null, "NUMERO": null, "NUM_EUROP": null, "CL_ADMIN": null, "GESTION": null, "TOPONYME": null, "ITI_CYCL": null, "VOIE_VERTE": null, "NATURE_ITI": null, "NOM_ITI": null, "DELESTAGE": null, "SRC_BAN_G": null, "SRC_BAN_D": null, "NOM_BAN_G": null, "NOM_BAN_D": null, "LD_BAN_G": null, "LD_BAN_D": null, "ID_BAN_G": null, "ID_BAN_D": null, "SENS_CYC_G": null, "SENS_CYC_D": null, "CYCLABLE_G": null, "CYCLABLE_D": null, "RETOURDFCI": null, "GAB_DFCI": null, "IMPAS_DFCI": null, "NDET_DFCI": null, "OALIM_DFCI": null, "PTMAX_DFCI": null, "PISTE_DFCI": null, "DFCI_DEBRO": null, "DFCI_FOSSE": null, "SENS_DFCI": null, "TERR_DFCI": null, "VIT_DFCI": null, "CROIS_DFCI": null, "CAT_DFCI": null, "VITESSE_CO": null, "ID_BAN_O_D": null, "ID_BAN_O_G": null }, "geometry": { "type": "MultiLineString", "coordinates": [ [ [ 355660.0, 6787305.0, 50.2 ], [ 355666.299999999988358, 6787291.599999999627471, 51.0 ], [ 355676.5, 6787277.099999999627471, 51.1 ], [ 355682.5, 6787269.0, 51.1 ], [ 355689.799999999988358, 6787259.599999999627471, 51.1 ] ] ] } },
{ "type": "Feature", "properties": { "ID": "TRONROUT0000002275265715", "NATURE": "Route à 1 chaussée", "NOM_COLL_G": null, "NOM_COLL_D": null, "IMPORTANCE": "5", "FICTIF": "Non", "POS_SOL": "0", "ETAT": "En service", "DATE_CREAT": "2021-12-02 17:26:11", "DATE_MAJ": "2025-09-19 11:36:09", "DATE_APP": null, "DATE_CONF": "2020-09-14", "SOURCE": null, "ID_SOURCE": null, "ACQU_PLANI": "Photogrammétrie", "PREC_PLANI": 2.5, "ACQU_ALTI": "Photogrammétrie", "PREC_ALTI": 1.5, "NB_VOIES": 1, "LARGEUR": 3.5, "IT_VERT": "Non", "PRIVE": null, "SENS": "Sens direct", "BUS": null, "URBAIN": "Oui", "VIT_MOY_VL": 30, "ACCES_VL": "Libre", "ACCES_PED": null, "FERMETURE": null, "NAT_RESTR": null, "RESTR_H": null, "RESTR_P": null, "RESTR_PPE": null, "RESTR_LAR": null, "RESTR_LON": null, "RESTR_MAT": null, "BORNEDEB_G": null, "BORNEDEB_D": null, "BORNEFIN_G": null, "BORNEFIN_D": null, "INSEECOM_G": "35238", "INSEECOM_D": "35238", "ALIAS_G": null, "ALIAS_D": null, "DATE_SERV": null, "ID_RN": null, "ID_ITI": null, "NUMERO": null, "NUM_EUROP": null, "CL_ADMIN": null, "GESTION": null, "TOPONYME": null, "ITI_CYCL": null, "VOIE_VERTE": null, "NATURE_ITI": null, "NOM_ITI": null, "DELESTAGE": null, "SRC_BAN_G": null, "SRC_BAN_D": null, "NOM_BAN_G": null, "NOM_BAN_D": null, "LD_BAN_G": null, "LD_BAN_D": null, "ID_BAN_G": null, "ID_BAN_D": null, "SENS_CYC_G": null, "SENS_CYC_D": null, "CYCLABLE_G": null, "CYCLABLE_D": null, "RETOURDFCI": null, "GAB_DFCI": null, "IMPAS_DFCI": null, "NDET_DFCI": null, "OALIM_DFCI": null, "PTMAX_DFCI": null, "PISTE_DFCI": null, "DFCI_DEBRO": null, "DFCI_FOSSE": null, "SENS_DFCI": null, "TERR_DFCI": null, "VIT_DFCI": null, "CROIS_DFCI": null, "CAT_DFCI": null, "VITESSE_CO": null, "ID_BAN_O_D": null, "ID_BAN_O_G": null }, "geometry": { "type": "MultiLineString", "coordinates": [ [ [ 355689.799999999988358, 6787259.599999999627471, 51.0 ], [ 355692.700000000011642, 6787256.700000000186265, 51.1 ], [ 355705.700000000011642, 6787247.700000000186265, 51.4 ], [ 355713.700000000011642, 6787242.099999999627471, 51.4 ], [ 355717.700000000011642, 6787236.700000000186265, 51.4 ] ] ] } },
{ "type": "Feature", "properties": { "ID": "TRONROUT0000002275265716", "NATURE": "Route à 1 chaussée", "NOM_COLL_G": null, "NOM_COLL_D": null, "IMPORTANCE": "5", "FICTIF": "Non", "POS_SOL": "0", "ETAT": "En service", "DATE_CREAT": "2021-12-02 17:26:11", "DATE_MAJ": "2025-09-19 11:36:09", "DATE_APP": null, "DATE_CONF": "2020-09-14", "SOURCE": null, "ID_SOURCE": null, "ACQU_PLANI": "Photogrammétrie", "PREC_PLANI": 2.5, "ACQU_ALTI": "Photogrammétrie", "PREC_ALTI": 1.5, "NB_VOIES": 2, "LARGEUR": 6.0, "IT_VERT": "Non", "PRIVE": null, "SENS": "Double sens", "BUS": null, "URBAIN": "Oui", "VIT_MOY_VL": 30, "ACCES_VL": "Libre", "ACCES_PED": null, "FERMETURE": null, "NAT_RESTR": null, "RESTR_H": null, "RESTR_P": null, "RESTR_PPE": null, "RESTR_LAR": null, "RESTR_LON": null, "RESTR_MAT": null, "BORNEDEB_G": null, "BORNEDEB_D": null, "BORNEFIN_G": null, "BORNEFIN_D": null, "INSEECOM_G": null, "INSEECOM_D": null, "ALIAS_G": null, "ALIAS_D": null, "DATE_SERV": null, "ID_RN": null, "ID_ITI": null, "NUMERO": null, "NUM_EUROP": null, "CL_ADMIN": null, "GESTION": null, "TOPONYME": null, "ITI_CYCL": null, "VOIE_VERTE": null, "NATURE_ITI": null, "NOM_ITI": null, "DELESTAGE": null, "SRC_BAN_G": null, "SRC_BAN_D": null, "NOM_BAN_G": null, "NOM_BAN_D": null, "LD_BAN_G": null, "LD_BAN_D": null, "ID_BAN_G": null, "ID_BAN_D": null, "SENS_CYC_G": null, "SENS_CYC_D": null, "CYCLABLE_G": null, "CYCLABLE_D": null, "RETOURDFCI": null, "GAB_DFCI": null, "IMPAS_DFCI": null, "NDET_DFCI": null, "OALIM_DFCI": null, "PTMAX_DFCI": null, "PISTE_DFCI": null, "DFCI_DEBRO": null, "DFCI_FOSSE": null, "SENS_DFCI": null, "TERR_DFCI": null, "VIT_DFCI": null, "CROIS_DFCI": null, "CAT_DFCI": null, "VITESSE_CO": null, "ID_BAN_O_D": null, "ID_BAN_O_G": null }, "geometry": { "type": "MultiLineString", "coordinates": [ [ [ 355717.700000000011642, 6787236.700000000186265, 51.4 ], [ 355722.599999999976717, 6787230.200000000186265, 51.4 ], [ 355779.299999999988358, 6787154.099999999627471, 51.6 ], [ 355801.099999999976717, 6787125.200000000186265, 51.6 ], [ 355806.599999999976717, 6787118.0, 51.6 ], [ 355810.400000000023283, 6787110.900000000372529, 51.8 ], [ 355812.299999999988358, 6787103.099999999627471, 52.6 ], [ 355811.599999999976717, 6787094.599999999627471, 53.3 ], [ 355807.400000000023283, 6787084.0, 53.7 ], [ 355800.200000000011642, 6787067.700000000186265, 54.2 ], [ 355792.599999999976717, 6787056.0, 54.6 ], [ 355785.299999999988358, 6787051.0, 54.7 ], [ 355773.099999999976717, 6787045.700000000186265, 55.3 ], [ 355757.900000000023283, 6787041.400000000372529, 55.2 ], [ 355735.400000000023283, 6787034.099999999627471, 54.7 ], [ 355726.400000000023283, 6787032.799999999813735, 54.5 ], [ 355718.900000000023283, 6787031.799999999813735, 54.3 ], [ 355710.400000000023283, 6787029.0, 53.8 ], [ 355700.299999999988358, 6787023.799999999813735, 52.8 ], [ 355687.5, 6787017.900000000372529, 52.9 ] ] ] } },
{ "type": "Feature", "properties": { "ID": "TRONROUT0000002275265717", "NATURE": "Route à 1 chaussée", "NOM_COLL_G": null, "NOM_COLL_D": null, "IMPORTANCE": "5", "FICTIF": "Non", "POS_SOL": "0", "ETAT": "En service", "DATE_CREAT": "2021-12-02 17:26:11", "DATE_MAJ": "2023-08-26 14:40:02", "DATE_APP": null, "DATE_CONF": "2020-09-14", "SOURCE": null, "ID_SOURCE": null, "ACQU_PLANI": "Photogrammétrie", "PREC_PLANI": 2.5, "ACQU_ALTI": "Photogrammétrie", "PREC_ALTI": 1.5, "NB_VOIES": 2, "LARGEUR": 6.0, "IT_VERT": "Non", "PRIVE": null, "SENS": "Double sens", "BUS": null, "URBAIN": "Oui", "VIT_MOY_VL": 20, "ACCES_VL": "Libre", "ACCES_PED": null, "FERMETURE": null, "NAT_RESTR": null, "RESTR_H": null, "RESTR_P": null, "RESTR_PPE": null, "RESTR_LAR": null, "RESTR_LON": null, "RESTR_MAT": null, "BORNEDEB_G": null, "BORNEDEB_D": null, "BORNEFIN_G": null, "BORNEFIN_D": null, "INSEECOM_G": "35238", "INSEECOM_D": "35238", "ALIAS_G": null, "ALIAS_D": null, "DATE_SERV": null, "ID_RN": null, "ID_ITI": null, "NUMERO": null, "NUM_EUROP": null, "CL_ADMIN": null, "GESTION": null, "TOPONYME": null, "ITI_CYCL": null, "VOIE_VERTE": null, "NATURE_ITI": null, "NOM_ITI": null, "DELESTAGE": null, "SRC_BAN_G": null, "SRC_BAN_D": null, "NOM_BAN_G": null, "NOM_BAN_D": null, "LD_BAN_G": null, "LD_BAN_D": null, "ID_BAN_G": null, "ID_BAN_D": null, "SENS_CYC_G": null, "SENS_CYC_D": null, "CYCLABLE_G": null, "CYCLABLE_D": null, "RETOURDFCI": null, "GAB_DFCI": null, "IMPAS_DFCI": null, "NDET_DFCI": null, "OALIM_DFCI": null, "PTMAX_DFCI": null, "PISTE_DFCI": null, "DFCI_DEBRO": null, "DFCI_FOSSE": null, "SENS_DFCI": null, "TERR_DFCI": null, "VIT_DFCI": null, "CROIS_DFCI": null, "CAT_DFCI": null, "VITESSE_CO": null, "ID_BAN_O_D": null, "ID_BAN_O_G": null }, "geometry": { "type": "MultiLineString", "coordinates": [ [ [ 355579.099999999976717, 6787255.900000000372529, 49.5 ], [ 355586.700000000011642, 6787247.0, 50.3 ] ] ] } },
{ "type": "Feature", "properties": { "ID": "TRONROUT0000002275265718", "NATURE": "Route à 1 chaussée", "NOM_COLL_G": null, "NOM_COLL_D": null, "IMPORTANCE": "5", "FICTIF": "Non", "POS_SOL": "0", "ETAT": "En service", "DATE_CREAT": "2021-12-02 17:26:11", "DATE_MAJ": "2025-09-19 11:36:09", "DATE_APP": null, "DATE_CONF": "2020-09-14", "SOURCE": null, "ID_SOURCE": null, "ACQU_PLANI": "Photogrammétrie", "PREC_PLANI": 2.5, "ACQU_ALTI": "Photogrammétrie", "PREC_ALTI": 1.5, "NB_VOIES": 2, "LARGEUR": 5.0, "IT_VERT": "Non", "PRIVE": null, "SENS": "Double sens", "BUS": null, "URBAIN": "Oui", "VIT_MOY_VL": 30, "ACCES_VL": "Libre", "ACCES_PED": null, "FERMETURE": null, "NAT_RESTR": null, "RESTR_H": null, "RESTR_P": null, "RESTR_PPE": null, "RESTR_LAR": null, "RESTR_LON": null, "RESTR_MAT": null, "BORNEDEB_G": null, "BORNEDEB_D": null, "BORNEFIN_G": null, "BORNEFIN_D": null, "INSEECOM_G": "35238", "INSEECOM_D": "35238", "ALIAS_G": null, "ALIAS_D": null, "DATE_SERV": null, "ID_RN": null, "ID_ITI": null, "NUMERO": null, "NUM_EUROP": null, "CL_ADMIN": null, "GESTION": null, "TOPONYME": null, "ITI_CYCL": null, "VOIE_VERTE": null, "NATURE_ITI": null, "NOM_ITI": null, "DELESTAGE": null, "SRC_BAN_G": null, "SRC_BAN_D": null, "NOM_BAN_G": null, "NOM_BAN_D": null, "LD_BAN_G": null, "LD_BAN_D": null, "ID_BAN_G": null, "ID_BAN_D": null, "SENS_CYC_G": null, "SENS_CYC_D": null, "CYCLABLE_G": null, "CYCLABLE_D": null, "RETOURDFCI": null, "GAB_DFCI": null, "IMPAS_DFCI": null, "NDET_DFCI": null, "OALIM_DFCI": null, "PTMAX_DFCI": null, "PISTE_DFCI": null, "DFCI_DEBRO": null, "DFCI_FOSSE": null, "SENS_DFCI": null, "TERR_DFCI": null, "VIT_DFCI": null, "CROIS_DFCI": null, "CAT_DFCI": null, "VITESSE_CO": null, "ID_BAN_O_D": null, "ID_BAN_O_G": null }, "geometry": { "type": "MultiLineString", "coordinates": [ [ [ 355484.799999999988358, 6787095.700000000186265, 51.8 ], [ 355514.200000000011642, 6787181.099999999627471, 52.6 ], [ 355518.299999999988358, 6787190.5, 52.3 ], [ 355525.5, 6787197.099999999627471, 52.2 ], [ 355582.799999999988358, 6787241.099999999627471, 50.6 ], [ 355586.700000000011642, 6787247.0, 50.3 ] ] ] } },
{ "type": "Feature", "properties": { "ID": "TRONROUT0000002275265719", "NATURE": "Route à 1 chaussée", "NOM_COLL_G": null, "NOM_COLL_D": null, "IMPORTANCE": "5", "FICTIF": "Non", "POS_SOL": "0", "ETAT": "En service", "DATE_CREAT": "2021-12-02 17:26:11", "DATE_MAJ": "2023-08-26 14:40:02", "DATE_APP": null, "DATE_CONF": "2020-09-14", "SOURCE": null, "ID_SOURCE": null, "ACQU_PLANI": "Photogrammétrie", "PREC_PLANI": 2.5, "ACQU_ALTI": "Photogrammétrie", "PREC_ALTI": 1.5, "NB_VOIES": 2, "LARGEUR": 6.0, "IT_VERT": "Non", "PRIVE": null, "SENS": "Double sens", "BUS": null, "URBAIN": "Oui", "VIT_MOY_VL": 30, "ACCES_VL": "Libre", "ACCES_PED": null, "FERMETURE": null, "NAT_RESTR": null, "RESTR_H": null, "RESTR_P": null, "RESTR_PPE": null, "RESTR_LAR": null, "RESTR_LON": null, "RESTR_MAT": null, "BORNEDEB_G": null, "BORNEDEB_D": null, "BORNEFIN_G": null, "BORNEFIN_D": null, "INSEECOM_G": "35238", "INSEECOM_D": "35238", "ALIAS_G": null, "ALIAS_D": null, "DATE_SERV": null, "ID_RN": null, "ID_ITI": null, "NUMERO": null, "NUM_EUROP": null, "CL_ADMIN": null, "GESTION": null, "TOPONYME": null, "ITI_CYCL": null, "VOIE_VERTE": null, "NATURE_ITI": null, "NOM_ITI": null, "DELESTAGE": null, "SRC_BAN_G": null, "SRC_BAN_D": null, "NOM_BAN_G": null, "NOM_BAN_D": null, "LD_BAN_G": null, "LD_BAN_D": null, "ID_BAN_G": null, "ID_BAN_D": null, "SENS_CYC_G": null, "SENS_CYC_D": null, "CYCLABLE_G": null, "CYCLABLE_D": null, "RETOURDFCI": null, "GAB_DFCI": null, "IMPAS_DFCI": null, "NDET_DFCI": null, "OALIM_DFCI": null, "PTMAX_DFCI": null, "PISTE_DFCI": null, "DFCI_DEBRO": null, "DFCI_FOSSE": null, "SENS_DFCI": null, "TERR_DFCI": null, "VIT_DFCI": null, "CROIS_DFCI": null, "CAT_DFCI": null, "VITESSE_CO": null, "ID_BAN_O_D": null, "ID_BAN_O_G": null }, "geometry": { "type": "MultiLineString", "coordinates": [ [ [ 355595.400000000023283, 6787256.700000000186265, 50.0 ], [ 355595.900000000023283, 6787257.200000000186265, 50.1 ], [ 355618.299999999988358, 6787270.299999999813735, 50.1 ], [ 355633.200000000011642, 6787278.700000000186265, 50.2 ], [ 355638.200000000011642, 6787281.299999999813735, 50.3 ], [ 355643.900000000023283, 6787282.5, 50.3 ], [ 355648.0, 6787282.099999999627471, 50.3 ], [ 355651.799999999988358, 6787280.900000000372529, 50.3 ], [ 355655.200000000011642, 6787279.400000000372529, 50.3 ], [ 355662.900000000023283, 6787270.5, 50.7 ], [ 355679.200000000011642, 6787253.099999999627471, 51.2 ], [ 355687.299999999988358, 6787247.5, 51.3 ] ] ] } },
{ "type": "Feature", "properties": { "ID": "TRONROUT0000002275265720", "NATURE": "Route à 1 chaussée", "NOM_COLL_G": null, "NOM_COLL_D": null, "IMPORTANCE": "5", "FICTIF": "Non", "POS_SOL": "0", "ETAT": "En service", "DATE_CREAT": "2021-12-02 17:26:11", "DATE_MAJ": "2023-08-26 14:40:02", "DATE_APP": null, "DATE_CONF": "2020-09-14", "SOURCE": null, "ID_SOURCE": null, "ACQU_PLANI": "Photogrammétrie", "PREC_PLANI": 2.5, "ACQU_ALTI": "Photogrammétrie", "PREC_ALTI": 1.5, "NB_VOIES": 2, "LARGEUR": 6.0, "IT_VERT": "Non", "PRIVE": null, "SENS": "Double sens", "BUS": null, "URBAIN": "Oui", "VIT_MOY_VL": 30, "ACCES_VL": "Libre", "ACCES_PED": null, "FERMETURE": null, "NAT_RESTR": null, "RESTR_H": null, "RESTR_P": null, "RESTR_PPE": null, "RESTR_LAR": null, "RESTR_LON": null, "RESTR_MAT": null, "BORNEDEB_G": null, "BORNEDEB_D": null, "BORNEFIN_G": null, "BORNEFIN_D": null, "INSEECOM_G": "35238", "INSEECOM_D": "35238", "ALIAS_G": null, "ALIAS_D": null, "DATE_SERV": null, "ID_RN": null, "ID_ITI": null, "NUMERO": null, "NUM_EUROP": null, "CL_ADMIN": null, "GESTION": null, "TOPONYME": null, "ITI_CYCL": null, "VOIE_VERTE": null, "NATURE_ITI": null, "NOM_ITI": null, "DELESTAGE": null, "SRC_BAN_G": null, "SRC_BAN_D": null, "NOM_BAN_G": null, "NOM_BAN_D": null, "LD_BAN_G": null, "LD_BAN_D": null, "ID_BAN_G": null, "ID_BAN_D": null, "SENS_CYC_G": null, "SENS_CYC_D": null, "CYCLABLE_G": null, "CYCLABLE_D": null, "RETOURDFCI": null, "GAB_DFCI": null, "IMPAS_DFCI": null, "NDET_DFCI": null, "OALIM_DFCI": null, "PTMAX_DFCI": null, "PISTE_DFCI": null, "DFCI_DEBRO": null, "DFCI_FOSSE": null, "SENS_DFCI": null, "TERR_DFCI": null, "VIT_DFCI": null, "CROIS_DFCI": null, "CAT_DFCI": null, "VITESSE_CO": null, "ID_BAN_O_D": null, "ID_BAN_O_G": null }, "geometry": { "type": "MultiLineString", "coordinates": [ [ [ 355586.700000000011642, 6787247.0, 50.3 ], [ 355589.200000000011642, 6787250.700000000186265, 50.1 ], [ 355595.400000000023283, 6787256.700000000186265, 50.0 ] ] ] } },
{ "type": "Feature", "properties": { "ID": "TRONROUT0000002275265721", "NATURE": "Route à 1 chaussée", "NOM_COLL_G": null, "NOM_COLL_D": null, "IMPORTANCE": "5", "FICTIF": "Non", "POS_SOL": "0", "ETAT": "En service", "DATE_CREAT": "2021-12-02 17:26:11", "DATE_MAJ": "2025-09-19 11:36:09", "DATE_APP": null, "DATE_CONF": "2020-09-14", "SOURCE": null, "ID_SOURCE": null, "ACQU_PLANI": "Photogrammétrie", "PREC_PLANI": 2.5, "ACQU_ALTI": "Photogrammétrie", "PREC_ALTI": 1.5, "NB_VOIES": 2, "LARGEUR": 5.0, "IT_VERT": "Non", "PRIVE": null, "SENS": "Double sens", "BUS": null, "URBAIN": "Oui", "VIT_MOY_VL": 30, "ACCES_VL": "Libre", "ACCES_PED": null, "FERMETURE": null, "NAT_RESTR": null, "RESTR_H": null, "RESTR_P": null, "RESTR_PPE": null, "RESTR_LAR": null, "RESTR_LON": null, "RESTR_MAT": null, "BORNEDEB_G": null, "BORNEDEB_D": null, "BORNEFIN_G": null, "BORNEFIN_D": null, "INSEECOM_G": "35238", "INSEECOM_D": "35238", "ALIAS_G": null, "ALIAS_D": null, "DATE_SERV": null, "ID_RN": null, "ID_ITI": null, "NUMERO": null, "NUM_EUROP": null, "CL_ADMIN": null, "GESTION": null, "TOPONYME": null, "ITI_CYCL": null, "VOIE_VERTE": null, "NATURE_ITI": null, "NOM_ITI": null, "DELESTAGE": null, "SRC_BAN_G": null, "SRC_BAN_D": null, "NOM_BAN_G": null, "NOM_BAN_D": null, "LD_BAN_G": null, "LD_BAN_D": null, "ID_BAN_G": null, "ID_BAN_D": null, "SENS_CYC_G": null, "SENS_CYC_D": null, "CYCLABLE_G": null, "CYCLABLE_D": null, "RETOURDFCI": null, "GAB_DFCI": null, "IMPAS_DFCI": null, "NDET_DFCI": null, "OALIM_DFCI": null, "PTMAX_DFCI": null, "PISTE_DFCI": null, "DFCI_DEBRO": null, "DFCI_FOSSE": null, "SENS_DFCI": null, "TERR_DFCI": null, "VIT_DFCI": null, "CROIS_DFCI": null, "CAT_DFCI": null, "VITESSE_CO": null, "ID_BAN_O_D": null, "ID_BAN_O_G": null }, "geometry": { "type": "MultiLineString", "coordinates": [ [ [ 355632.700000000011642, 6787004.5, 52.0 ], [ 355627.900000000023283, 6787004.200000000186265, 52.3 ], [ 355624.5, 6787005.5, 52.3 ], [ 355561.299999999988358, 6787045.400000000372529, 52.2 ] ] ] } },
{ "type": "Feature", "properties": { "ID": "TRONROUT0000002275265722", "NATURE": "Route à 1 chaussée", "NOM_COLL_G": null, "NOM_COLL_D": null, "IMPORTANCE": "5", "FICTIF": "Non", "POS_SOL": "0", "ETAT": "En service", "DATE_CREAT": "2021-12-02 17:26:11", "DATE_MAJ": "2025-09-19 11:36:09", "DATE_APP": null, "DATE_CONF": "2020-09-14", "SOURCE": null, "ID_SOURCE": null, "ACQU_PLANI": "Photogrammétrie", "PREC_PLANI": 2.5, "ACQU_ALTI": "Photogrammétrie", "PREC_ALTI": 1.5, "NB_VOIES": 1, "LARGEUR": 4.0, "IT_VERT": "Non", "PRIVE": null, "SENS": "Sens inverse", "BUS": null, "URBAIN": "Oui", "VIT_MOY_VL": 30, "ACCES_VL": "Libre", "ACCES_PED": null, "FERMETURE": null, "NAT_RESTR": null, "RESTR_H": null, "RESTR_P": null, "RESTR_PPE": null, "RESTR_LAR": null, "RESTR_LON": null, "RESTR_MAT": null, "BORNEDEB_G": null, "BORNEDEB_D": null, "BORNEFIN_G": null, "BORNEFIN_D": null, "INSEECOM_G": "35238", "INSEECOM_D": "35238", "ALIAS_G": null, "ALIAS_D": null, "DATE_SERV": null, "ID_RN": null, "ID_ITI": null, "NUMERO": null, "NUM_EUROP": null, "CL_ADMIN": null, "GESTION": null, "TOPONYME": null, "ITI_CYCL": null, "VOIE_VERTE": null, "NATURE_ITI": null, "NOM_ITI": null, "DELESTAGE": null, "SRC_BAN_G": null, "SRC_BAN_D": null, "NOM_BAN_G": null, "NOM_BAN_D": null, "LD_BAN_G": null, "LD_BAN_D": null, "ID_BAN_G": null, "ID_BAN_D": null, "SENS_CYC_G": null, "SENS_CYC_D": null, "CYCLABLE_G": null, "CYCLABLE_D": null, "RETOURDFCI": null, "GAB_DFCI": null, "IMPAS_DFCI": null, "NDET_DFCI": null, "OALIM_DFCI": null, "PTMAX_DFCI": null, "PISTE_DFCI": null, "DFCI_DEBRO": null, "DFCI_FOSSE": null, "SENS_DFCI": null, "TERR_DFCI": null, "VIT_DFCI": null, "CROIS_DFCI": null, "CAT_DFCI": null, "VITESSE_CO": null, "ID_BAN_O_D": null, "ID_BAN_O_G": null }, "geometry": { "type": "MultiLineString", "coordinates": [ [ [ 355632.700000000011642, 6787004.5, 52.0 ], [ 355634.200000000011642, 6787007.200000000186265, 52.0 ], [ 355637.900000000023283, 6787012.0, 52.0 ], [ 355650.0, 6787025.400000000372529, 52.2 ], [ 355655.5, 6787031.700000000186265, 52.5 ] ] ] } },
{ "type": "Feature", "properties": { "ID": "TRONROUT0000002275265723", "NATURE": "Route à 1 chaussée", "NOM_COLL_G": null, "NOM_COLL_D": null, "IMPORTANCE": "5", "FICTIF": "Non", "POS_SOL": "0", "ETAT": "En service", "DATE_CREAT": "2021-12-02 17:26:11", "DATE_MAJ": "2025-09-19 11:36:09", "DATE_APP": null, "DATE_CONF": "2020-09-14", "SOURCE": null, "ID_SOURCE": null, "ACQU_PLANI": "Photogrammétrie", "PREC_PLANI": 2.5, "ACQU_ALTI": "Photogrammétrie", "PREC_ALTI": 1.5, "NB_VOIES": 2, "LARGEUR": 5.0, "IT_VERT": "Non", "PRIVE": null, "SENS": "Double sens", "BUS": null, "URBAIN": "Oui", "VIT_MOY_VL": 25, "ACCES_VL": "Libre", "ACCES_PED": null, "FERMETURE": null, "NAT_RESTR": null, "RESTR_H": null, "RESTR_P": null, "RESTR_PPE": null, "RESTR_LAR": null, "RESTR_LON": null, "RESTR_MAT": null, "BORNEDEB_G": null, "BORNEDEB_D": null, "BORNEFIN_G": null, "BORNEFIN_D": null, "INSEECOM_G": "35238", "INSEECOM_D": "35238", "ALIAS_G": null, "ALIAS_D": null, "DATE_SERV": null, "ID_RN": null, "ID_ITI": null, "NUMERO": null, "NUM_EUROP": null, "CL_ADMIN": null, "GESTION": null, "TOPONYME": null, "ITI_CYCL": null, "VOIE_VERTE": null, "NATURE_ITI": null, "NOM_ITI": null, "DELESTAGE": null, "SRC_BAN_G": null, "SRC_BAN_D": null, "NOM_BAN_G": null, "NOM_BAN_D": null, "LD_BAN_G": null, "LD_BAN_D": null, "ID_BAN_G": null, "ID_BAN_D": null, "SENS_CYC_G": null, "SENS_CYC_D": null, "CYCLABLE_G": null, "CYCLABLE_D": null, "RETOURDFCI": null, "GAB_DFCI": null, "IMPAS_DFCI": null, "NDET_DFCI": null, "OALIM_DFCI": null, "PTMAX_DFCI": null, "PISTE_DFCI": null, "DFCI_DEBRO": null, "DFCI_FOSSE": null, "SENS_DFCI": null, "TERR_DFCI": null, "VIT_DFCI": null, "CROIS_DFCI": null, "CAT_DFCI": null, "VITESSE_CO": null, "ID_BAN_O_D": null, "ID_BAN_O_G": null }, "geometry": { "type": "MultiLineString", "coordinates": [ [ [ 355655.5, 6787031.700000000186265, 52.5 ], [ 355651.5, 6787035.599999999627471, 52.5 ], [ 355642.799999999988358, 6787045.099999999627471, 51.9 ], [ 355632.099999999976717, 6787060.099999999627471, 51.4 ], [ 355601.0, 6787105.5, 51.6 ], [ 355600.200000000011642, 6787106.200000000186265, 51.6 ], [ 355598.400000000023283, 6787106.5, 51.7 ], [ 355596.099999999976717, 6787104.900000000372529, 51.7 ], [ 355586.200000000011642, 6787088.0, 52.2 ], [ 355562.599999999976717, 6787046.599999999627471, 52.2 ], [ 355562.200000000011642, 6787045.900000000372529, 52.2 ], [ 355561.299999999988358, 6787045.400000000372529, 52.2 ] ] ] } },
{ "type": "Feature", "properties": { "ID": "TRONROUT0000002275265724", "NATURE": "Route à 1 chaussée", "NOM_COLL_G": null, "NOM_COLL_D": null, "IMPORTANCE": "5", "FICTIF": "Non", "POS_SOL": "0", "ETAT": "En service", "DATE_CREAT": "2021-12-02 17:26:11", "DATE_MAJ": "2025-09-19 11:36:09", "DATE_APP": null, "DATE_CONF": "2020-09-14", "SOURCE": null, "ID_SOURCE": null, "ACQU_PLANI": "Photogrammétrie", "PREC_PLANI": 2.5, "ACQU_ALTI": "Photogrammétrie", "PREC_ALTI": 1.5, "NB_VOIES": 2, "LARGEUR": 5.0, "IT_VERT": "Non", "PRIVE": null, "SENS": "Double sens", "BUS": null, "URBAIN": "Oui", "VIT_MOY_VL": 30, "ACCES_VL": "Libre", "ACCES_PED": null, "FERMETURE": null, "NAT_RESTR": null, "RESTR_H": null, "RESTR_P": null, "RESTR_PPE": null, "RESTR_LAR": null, "RESTR_LON": null, "RESTR_MAT": null, "BORNEDEB_G": null, "BORNEDEB_D": null, "BORNEFIN_G": null, "BORNEFIN_D": null, "INSEECOM_G": "35238", "INSEECOM_D": "35238", "ALIAS_G": null, "ALIAS_D": null, "DATE_SERV": null, "ID_RN": null, "ID_ITI": null, "NUMERO": null, "NUM_EUROP": null, "CL_ADMIN": null, "GESTION": null, "TOPONYME": null, "ITI_CYCL": null, "VOIE_VERTE": null, "NATURE_ITI": null, "NOM_ITI": null, "DELESTAGE": null, "SRC_BAN_G": null, "SRC_BAN_D": null, "NOM_BAN_G": null, "NOM_BAN_D": null, "LD_BAN_G": null, "LD_BAN_D": null, "ID_BAN_G": null, "ID_BAN_D": null, "SENS_CYC_G": null, "SENS_CYC_D": null, "CYCLABLE_G": null, "CYCLABLE_D": null, "RETOURDFCI": null, "GAB_DFCI": null, "IMPAS_DFCI": null, "NDET_DFCI": null, "OALIM_DFCI": null, "PTMAX_DFCI": null, "PISTE_DFCI": null, "DFCI_DEBRO": null, "DFCI_FOSSE": null, "SENS_DFCI": null, "TERR_DFCI": null, "VIT_DFCI": null, "CROIS_DFCI": null, "CAT_DFCI": null, "VITESSE_CO": null, "ID_BAN_O_D": null, "ID_BAN_O_G": null }, "geometry": { "type": "MultiLineString", "coordinates": [ [ [ 355561.299999999988358, 6787045.400000000372529, 52.2 ], [ 355559.599999999976717, 6787046.0, 52.2 ], [ 355527.299999999988358, 6787065.599999999627471, 52.0 ], [ 355525.700000000011642, 6787067.900000000372529, 52.0 ], [ 355524.400000000023283, 6787070.700000000186265, 52.0 ], [ 355522.0, 6787073.599999999627471, 52.0 ], [ 355515.599999999976717, 6787077.900000000372529, 51.8 ], [ 355488.599999999976717, 6787093.900000000372529, 51.8 ], [ 355484.799999999988358, 6787095.700000000186265, 51.8 ] ] ] } },
{ "type": "Feature", "properties": { "ID": "TRONROUT0000002275265725", "NATURE": "Route à 1 chaussée", "NOM_COLL_G": null, "NOM_COLL_D": null, "IMPORTANCE": "5", "FICTIF": "Non", "POS_SOL": "0", "ETAT": "En service", "DATE_CREAT": "2021-12-02 17:26:11", "DATE_MAJ": "2023-08-26 14:40:02", "DATE_APP": null, "DATE_CONF": "2020-09-14", "SOURCE": null, "ID_SOURCE": null, "ACQU_PLANI": "Photogrammétrie", "PREC_PLANI": 2.5, "ACQU_ALTI": "Photogrammétrie", "PREC_ALTI": 1.5, "NB_VOIES": 2, "LARGEUR": 5.0, "IT_VERT": "Non", "PRIVE": null, "SENS": "Double sens", "BUS": null, "URBAIN": "Oui", "VIT_MOY_VL": 20, "ACCES_VL": "Libre", "ACCES_PED": null, "FERMETURE": null, "NAT_RESTR": null, "RESTR_H": null, "RESTR_P": null, "RESTR_PPE": null, "RESTR_LAR": null, "RESTR_LON": null, "RESTR_MAT": null, "BORNEDEB_G": null, "BORNEDEB_D": null, "BORNEFIN_G": null, "BORNEFIN_D": null, "INSEECOM_G": "35238", "INSEECOM_D": "35238", "ALIAS_G": null, "ALIAS_D": null, "DATE_SERV": null, "ID_RN": null, "ID_ITI": null, "NUMERO": null, "NUM_EUROP": null, "CL_ADMIN": null, "GESTION": null, "TOPONYME": null, "ITI_CYCL": null, "VOIE_VERTE": null, "NATURE_ITI": null, "NOM_ITI": null, "DELESTAGE": null, "SRC_BAN_G": null, "SRC_BAN_D": null, "NOM_BAN_G": null, "NOM_BAN_D": null, "LD_BAN_G": null, "LD_BAN_D": null, "ID_BAN_G": null, "ID_BAN_D": null, "SENS_CYC_G": null, "SENS_CYC_D": null, "CYCLABLE_G": null, "CYCLABLE_D": null, "RETOURDFCI": null, "GAB_DFCI": null, "IMPAS_DFCI": null, "NDET_DFCI": null, "OALIM_DFCI": null, "PTMAX_DFCI": null, "PISTE_DFCI": null, "DFCI_DEBRO": null, "DFCI_FOSSE": null, "SENS_DFCI": null, "TERR_DFCI": null, "VIT_DFCI": null, "CROIS_DFCI": null, "CAT_DFCI": null, "VITESSE_CO": null, "ID_BAN_O_D": null, "ID_BAN_O_G": null }, "geometry": { "type": "MultiLineString", "coordinates": [ [ [ 355484.799999999988358, 6787095.700000000186265, 51.8 ], [ 355477.299999999988358, 6787099.400000000372529, 51.9 ], [ 355449.700000000011642, 6787112.400000000372529, 51.9 ], [ 355446.0, 6787114.700000000186265, 51.8 ], [ 355444.099999999976717, 6787116.5, 51.8 ], [ 355442.700000000011642, 6787119.900000000372529, 51.8 ], [ 355416.599999999976717, 6787237.200000000186265, 51.4 ] ] ] } },
{ "type": "Feature", "properties": { "ID": "TRONROUT0000002275265726", "NATURE": "Route à 1 chaussée", "NOM_COLL_G": null, "NOM_COLL_D": null, "IMPORTANCE": "5", "FICTIF": "Non", "POS_SOL": "0", "ETAT": "En service", "DATE_CREAT": "2021-12-02 17:26:11", "DATE_MAJ": "2025-09-19 11:36:09", "DATE_APP": null, "DATE_CONF": "2020-09-14", "SOURCE": null, "ID_SOURCE": null, "ACQU_PLANI": "Photogrammétrie", "PREC_PLANI": 2.5, "ACQU_ALTI": "Photogrammétrie", "PREC_ALTI": 1.5, "NB_VOIES": 2, "LARGEUR": 5.0, "IT_VERT": "Non", "PRIVE": null, "SENS": "Double sens", "BUS": null, "URBAIN": "Oui", "VIT_MOY_VL": 30, "ACCES_VL": "Libre", "ACCES_PED": null, "FERMETURE": null, "NAT_RESTR": null, "RESTR_H": null, "RESTR_P": null, "RESTR_PPE": null, "RESTR_LAR": null, "RESTR_LON": null, "RESTR_MAT": null, "BORNEDEB_G": null, "BORNEDEB_D": null, "BORNEFIN_G": null, "BORNEFIN_D": null, "INSEECOM_G": "35238", "INSEECOM_D": "35238", "ALIAS_G": null, "ALIAS_D": null, "DATE_SERV": null, "ID_RN": null, "ID_ITI": null, "NUMERO": null, "NUM_EUROP": null, "CL_ADMIN": null, "GESTION": null, "TOPONYME": null, "ITI_CYCL": null, "VOIE_VERTE": null, "NATURE_ITI": null, "NOM_ITI": null, "DELESTAGE": null, "SRC_BAN_G": null, "SRC_BAN_D": null, "NOM_BAN_G": null, "NOM_BAN_D": null, "LD_BAN_G": null, "LD_BAN_D": null, "ID_BAN_G": null, "ID_BAN_D": null, "SENS_CYC_G": null, "SENS_CYC_D": null, "CYCLABLE_G": null, "CYCLABLE_D": null, "RETOURDFCI": null, "GAB_DFCI": null, "IMPAS_DFCI": null, "NDET_DFCI": null, "OALIM_DFCI": null, "PTMAX_DFCI": null, "PISTE_DFCI": null, "DFCI_DEBRO": null, "DFCI_FOSSE": null, "SENS_DFCI": null, "TERR_DFCI": null, "VIT_DFCI": null, "CROIS_DFCI": null, "CAT_DFCI": null, "VITESSE_CO": null, "ID_BAN_O_D": null, "ID_BAN_O_G": null }, "geometry": { "type": "MultiLineString", "coordinates": [ [ [ 355687.5, 6787017.900000000372529, 52.9 ], [ 355673.700000000011642, 6787017.0, 53.0 ], [ 355667.700000000011642, 6787018.0, 53.0 ], [ 355663.900000000023283, 6787020.400000000372529, 52.9 ], [ 355660.5, 6787025.0, 52.8 ], [ 355655.5, 6787031.700000000186265, 52.5 ] ] ] } },
{ "type": "Feature", "properties": { "ID": "TRONROUT0000002275265727", "NATURE": "Route à 1 chaussée", "NOM_COLL_G": null, "NOM_COLL_D": null, "IMPORTANCE": "5", "FICTIF": "Non", "POS_SOL": "0", "ETAT": "En service", "DATE_CREAT": "2021-12-02 17:26:11", "DATE_MAJ": "2025-09-19 11:36:09", "DATE_APP": null, "DATE_CONF": "2020-09-14", "SOURCE": null, "ID_SOURCE": null, "ACQU_PLANI": "Photogrammétrie", "PREC_PLANI": 2.5, "ACQU_ALTI": "Photogrammétrie", "PREC_ALTI": 1.5, "NB_VOIES": 1, "LARGEUR": 4.0, "IT_VERT": "Non", "PRIVE": null, "SENS": "Sens inverse", "BUS": null, "URBAIN": "Oui", "VIT_MOY_VL": 25, "ACCES_VL": "Libre", "ACCES_PED": null, "FERMETURE": null, "NAT_RESTR": null, "RESTR_H": null, "RESTR_P": null, "RESTR_PPE": null, "RESTR_LAR": null, "RESTR_LON": null, "RESTR_MAT": null, "BORNEDEB_G": null, "BORNEDEB_D": null, "BORNEFIN_G": null, "BORNEFIN_D": null, "INSEECOM_G": "35238", "INSEECOM_D": "35238", "ALIAS_G": null, "ALIAS_D": null, "DATE_SERV": null, "ID_RN": null, "ID_ITI": null, "NUMERO": null, "NUM_EUROP": null, "CL_ADMIN": null, "GESTION": null, "TOPONYME": null, "ITI_CYCL": null, "VOIE_VERTE": null, "NATURE_ITI": null, "NOM_ITI": null, "DELESTAGE": null, "SRC_BAN_G": null, "SRC_BAN_D": null, "NOM_BAN_G": null, "NOM_BAN_D": null, "LD_BAN_G": null, "LD_BAN_D": null, "ID_BAN_G": null, "ID_BAN_D": null, "SENS_CYC_G": null, "SENS_CYC_D": null, "CYCLABLE_G": null, "CYCLABLE_D": null, "RETOURDFCI": null, "GAB_DFCI": null, "IMPAS_DFCI": null, "NDET_DFCI": null, "OALIM_DFCI": null, "PTMAX_DFCI": null, "PISTE_DFCI": null, "DFCI_DEBRO": null, "DFCI_FOSSE": null, "SENS_DFCI": null, "TERR_DFCI": null, "VIT_DFCI": null, "CROIS_DFCI": null, "CAT_DFCI": null, "VITESSE_CO": null, "ID_BAN_O_D": null, "ID_BAN_O_G": null }, "geometry": { "type": "MultiLineString", "coordinates": [ [ [ 355687.5, 6787017.900000000372529, 52.9 ], [ 355663.900000000023283, 6787002.400000000372529, 52.5 ], [ 355654.299999999988358, 6786994.799999999813735, 52.4 ], [ 355649.0, 6786991.900000000372529, 52.2 ], [ 355646.5, 6786990.700000000186265, 52.2 ], [ 355643.900000000023283, 6786990.700000000186265, 52.2 ], [ 355641.200000000011642, 6786991.5, 52.1 ], [ 355637.599999999976717, 6786992.700000000186265, 52.1 ], [ 355635.5, 6786994.599999999627471, 52.1 ], [ 355633.700000000011642, 6786997.099999999627471, 52.1 ], [ 355632.700000000011642, 6787000.700000000186265, 52.1 ], [ 355632.700000000011642, 6787004.5, 52.1 ] ] ] } }
]
}
