{
"type": "FeatureCollection",
"name": "BDTOPO_BATI_SIPA",
"crs": { "type": "name", "properties": { "name": "urn:ogc:def:crs:OGC:1.3:CRS84" } },
"features": [
{ "type": "Feature", "properties": { "ID": "BATIMENT0000000297086093", "NB_ETAGES": null, "BATIMENT": "Autre", "HAUTEUR": 3 }, "geometry": { "type": "MultiPolygon", "coordinates": [ [ [ [ -1.627313998792443, 48.092525017709839, 55.0 ], [ -1.627398292899899, 48.092627168863586, 55.0 ], [ -1.627090652874093, 48.092740217494608, 55.0 ], [ -1.627060688417697, 48.092705339000801, 55.0 ], [ -1.627015015748275, 48.092721556484477, 55.0 ], [ -1.626959424322296, 48.092655234602994, 55.0 ], [ -1.627313998792443, 48.092525017709839, 55.0 ] ] ] ] } },
{ "type": "Feature", "properties": { "ID": "BATIMENT0000000297100498", "NB_ETAGES": null, "BATIMENT": "5 - Restaurant d'entreprise", "HAUTEUR": 3 }, "geometry": { "type": "MultiPolygon", "coordinates": [ [ [ [ -1.626748202573131, 48.094591637283173, 57.8 ], [ -1.626848612211453, 48.094601212391588, 57.8 ], [ -1.626863280247572, 48.094615058399192, 57.8 ], [ -1.626742599124269, 48.094604477124598, 57.8 ], [ -1.626748202573131, 48.094591637283173, 57.8 ] ] ] ] } },
{ "type": "Feature", "properties": { "ID": "BATIMENT0000000297100499", "NB_ETAGES": null, "BATIMENT": "5 - Restaurant d'entreprise", "HAUTEUR": 3 }, "geometry": { "type": "MultiPolygon", "coordinates": [ [ [ [ -1.626658382301264, 48.094825926056082, 56.4 ], [ -1.626587315802051, 48.094813394891254, 56.4 ], [ -1.626575082464149, 48.094842720494668, 56.4 ], [ -1.626498730827199, 48.094831298364902, 56.4 ], [ -1.626487759727443, 48.094859672954051, 56.4 ], [ -1.626444062793274, 48.094852376015268, 56.4 ], [ -1.626459689794071, 48.094815705854707, 56.4 ], [ -1.626505517991585, 48.094816609220537, 56.4 ], [ -1.626518223309645, 48.094792673492847, 56.4 ], [ -1.626566497406201, 48.094790776513264, 56.4 ], [ -1.62672911474206, 48.094588781782946, 56.4 ], [ -1.626748202573131, 48.094591637283173, 56.4 ], [ -1.626742599124269, 48.094604477124598, 56.4 ], [ -1.626703292536654, 48.094708781682726, 56.4 ], [ -1.626665165701112, 48.094826560891271, 56.4 ], [ -1.626658382301264, 48.094825926056082, 56.4 ] ] ] ] } },
{ "type": "Feature", "properties": { "ID": "BATIMENT0000000297100500", "NB_ETAGES": 1, "BATIMENT": "5 - Restaurant d'entreprise", "HAUTEUR": 3 }, "geometry": { "type": "MultiPolygon", "coordinates": [ [ [ [ -1.626742599124269, 48.094604477124598, 58.8 ], [ -1.626863280247572, 48.094615058399192, 58.8 ], [ -1.627115248442639, 48.094818788540586, 58.8 ], [ -1.62709868147455, 48.094829355066416, 58.8 ], [ -1.627149390734743, 48.094870629480042, 58.8 ], [ -1.6268684665168, 48.095027696994968, 58.8 ], [ -1.626809082309065, 48.094979552157021, 58.8 ], [ -1.62677318757628, 48.094999892199823, 58.8 ], [ -1.626676106968068, 48.094920778192176, 58.8 ], [ -1.626645261385981, 48.09493731416989, 58.8 ], [ -1.626616865440867, 48.0949357258284, 58.8 ], [ -1.626553290143579, 48.094931914283663, 58.8 ], [ -1.62655392316541, 48.094923776787098, 58.8 ], [ -1.626388754070052, 48.094912239111942, 58.8 ], [ -1.626410067136187, 48.094848303460218, 58.8 ], [ -1.626444062793274, 48.094852376015268, 58.8 ], [ -1.626487759727443, 48.094859672954051, 58.8 ], [ -1.626498730827199, 48.094831298364902, 58.8 ], [ -1.626575082464149, 48.094842720494668, 58.8 ], [ -1.626587315802051, 48.094813394891254, 58.8 ], [ -1.626658382301264, 48.094825926056082, 58.8 ], [ -1.626665165701112, 48.094826560891271, 58.8 ], [ -1.626703292536654, 48.094708781682726, 58.8 ], [ -1.626742599124269, 48.094604477124598, 58.8 ] ] ] ] } },
{ "type": "Feature", "properties": { "ID": "BATIMENT0000000297100540", "NB_ETAGES": null, "BATIMENT": "6 - CSE Centre de formation", "HAUTEUR": 3 }, "geometry": { "type": "MultiPolygon", "coordinates": [ [ [ [ -1.626513477118719, 48.095168744761544, 60.9 ], [ -1.626545364214436, 48.095087266938762, 60.9 ], [ -1.626770790810653, 48.095126182728158, 60.9 ], [ -1.626740244996179, 48.095207607913721, 60.9 ], [ -1.626513477118719, 48.095168744761544, 60.9 ] ] ] ] } },
{ "type": "Feature", "properties": { "ID": "BATIMENT0000000297100541", "NB_ETAGES": null, "BATIMENT": "6 - CSE Centre de formation", "HAUTEUR": 3 }, "geometry": { "type": "MultiPolygon", "coordinates": [ [ [ [ -1.626513477118719, 48.095168744761544, 61.4 ], [ -1.626505274061823, 48.095167264299903, 61.4 ], [ -1.626488856637553, 48.095210275330153, 61.4 ], [ -1.626245682833264, 48.095168450735599, 61.4 ], [ -1.626241262850981, 48.095179441234926, 61.4 ], [ -1.626207188346078, 48.095174470310774, 61.4 ], [ -1.626211608335025, 48.095163479812697, 61.4 ], [ -1.626129656531242, 48.095149573272096, 61.4 ], [ -1.626159019602082, 48.09506999755429, 61.4 ], [ -1.626376085484468, 48.095105636989523, 61.4 ], [ -1.626418441663078, 48.095112986644743, 61.4 ], [ -1.62643612141173, 48.09506902461753, 61.4 ], [ -1.626545364214436, 48.095087266938762, 61.4 ], [ -1.626513477118719, 48.095168744761544, 61.4 ] ] ] ] } },
{ "type": "Feature", "properties": { "ID": "BATIMENT0000000297100542", "NB_ETAGES": null, "BATIMENT": "6 - CSE Centre de formation", "HAUTEUR": 3 }, "geometry": { "type": "MultiPolygon", "coordinates": [ [ [ [ -1.62643612141173, 48.09506902461753, 60.0 ], [ -1.626418441663078, 48.095112986644743, 60.0 ], [ -1.626376085484468, 48.095105636989523, 60.0 ], [ -1.626393765265863, 48.09506167496842, 60.0 ], [ -1.62643612141173, 48.09506902461753, 60.0 ] ] ] ] } },
{ "type": "Feature", "properties": { "ID": "BATIMENT0000000297100564", "NB_ETAGES": null, "BATIMENT": " 1 - Entrée", "HAUTEUR": 3 }, "geometry": { "type": "MultiPolygon", "coordinates": [ [ [ [ -1.629167881798171, 48.094933704970963, 50.1 ], [ -1.629215596058605, 48.094971490701774, 50.1 ], [ -1.629184751240818, 48.09498802734349, 50.1 ], [ -1.629137115690158, 48.094951139910279, 50.1 ], [ -1.629167881798171, 48.094933704970963, 50.1 ] ] ] ] } },
{ "type": "Feature", "properties": { "ID": "BATIMENT0000000297100573", "NB_ETAGES": null, "BATIMENT": "7 - Sortie", "HAUTEUR": 3 }, "geometry": { "type": "MultiPolygon", "coordinates": [ [ [ [ -1.627458588584927, 48.094898138981627, 54.6 ], [ -1.62764242155088, 48.095045954844259, 54.6 ], [ -1.627591301099313, 48.09507680902729, 54.6 ], [ -1.627404628923086, 48.094927301873696, 54.6 ], [ -1.627458588584927, 48.094898138981627, 54.6 ] ] ] ] } },
{ "type": "Feature", "properties": { "ID": "BATIMENT0000000297100582", "NB_ETAGES": null, "BATIMENT": " 1 - Entrée", "HAUTEUR": 3 }, "geometry": { "type": "MultiPolygon", "coordinates": [ [ [ [ -1.629012949246164, 48.095008303249344, 51.1 ], [ -1.628956465826426, 48.095039368913014, 51.1 ], [ -1.628933279224896, 48.095020449638014, 51.1 ], [ -1.628988342988165, 48.094988538397047, 51.1 ], [ -1.629012949246164, 48.095008303249344, 51.1 ] ] ] ] } },
{ "type": "Feature", "properties": { "ID": "BATIMENT0000000297100583", "NB_ETAGES": null, "BATIMENT": " 1 - Entrée", "HAUTEUR": 3 }, "geometry": { "type": "MultiPolygon", "coordinates": [ [ [ [ -1.628913322364381, 48.095023037071861, 51.6 ], [ -1.628978387143792, 48.095074563200868, 51.6 ], [ -1.628943834133108, 48.095094851181798, 51.6 ], [ -1.628876087460042, 48.095043430475286, 51.6 ], [ -1.628913322364381, 48.095023037071861, 51.6 ] ] ] ] } },
{ "type": "Feature", "properties": { "ID": "BATIMENT0000000297100584", "NB_ETAGES": null, "BATIMENT": "3 - La Galette", "HAUTEUR": 3 }, "geometry": { "type": "MultiPolygon", "coordinates": [ [ [ [ -1.628334105941749, 48.093963170313081, 50.9 ], [ -1.628276282314127, 48.093994288386533, 50.9 ], [ -1.62823265800322, 48.094018538411682, 50.9 ], [ -1.628030844192738, 48.093865120434373, 50.9 ], [ -1.628130715076024, 48.093807110282846, 50.9 ], [ -1.628334105941749, 48.093963170313081, 50.9 ] ] ] ] } },
{ "type": "Feature", "properties": { "ID": "BATIMENT0000000297100589", "NB_ETAGES": null, "BATIMENT": "2 - La Tour", "HAUTEUR": 3 }, "geometry": { "type": "MultiPolygon", "coordinates": [ [ [ [ -1.629385524528011, 48.094235766432348, 59.4 ], [ -1.629425982712901, 48.094267527557143, 59.4 ], [ -1.629434975696105, 48.094262666920521, 59.4 ], [ -1.629479771556032, 48.094297863085181, 59.4 ], [ -1.629364282260235, 48.09436189693308, 59.4 ], [ -1.629322325697803, 48.094328391894805, 59.4 ], [ -1.629328715540891, 48.094324535027425, 59.4 ], [ -1.629289519598278, 48.094291822835373, 59.4 ], [ -1.629385524528011, 48.094235766432348, 59.4 ] ] ] ] } },
{ "type": "Feature", "properties": { "ID": "BATIMENT0000000297100590", "NB_ETAGES": null, "BATIMENT": "3 - La Galette", "HAUTEUR": 3 }, "geometry": { "type": "MultiPolygon", "coordinates": [ [ [ [ -1.627984864035616, 48.093824613721722, 53.2 ], [ -1.627914260575762, 48.093863445211511, 53.2 ], [ -1.627889576580994, 48.093842781803751, 53.2 ], [ -1.627960180031387, 48.09380395032823, 53.2 ], [ -1.627984864035616, 48.093824613721722, 53.2 ] ] ] ] } },
{ "type": "Feature", "properties": { "ID": "BATIMENT0000000297100591", "NB_ETAGES": null, "BATIMENT": "4 - L'imprimerie", "HAUTEUR": 12 }, "geometry": { "type": "MultiPolygon", "coordinates": [ [ [ [ -1.6271196005736, 48.094422901611445, 56.2 ], [ -1.627186339892424, 48.094386025338338, 56.2 ], [ -1.627235550519657, 48.094425555805621, 56.2 ], [ -1.627168889853772, 48.094463330416914, 56.2 ], [ -1.6271196005736, 48.094422901611445, 56.2 ] ] ] ] } },
{ "type": "Feature", "properties": { "ID": "BATIMENT0000000297100592", "NB_ETAGES": null, "BATIMENT": "3 - La Galette", "HAUTEUR": 3 }, "geometry": { "type": "MultiPolygon", "coordinates": [ [ [ [ -1.628405559814946, 48.093988356663644, 51.9 ], [ -1.628209211046771, 48.094097032706927, 51.9 ], [ -1.628161419609211, 48.094058348236068, 51.9 ], [ -1.628217823762679, 48.094026384622452, 51.9 ], [ -1.628261448086857, 48.094002134602924, 51.9 ], [ -1.628319271731782, 48.093971016536926, 51.9 ], [ -1.628357847019915, 48.093950570580425, 51.9 ], [ -1.628405559814946, 48.093988356663644, 51.9 ] ] ] ] } },
{ "type": "Feature", "properties": { "ID": "BATIMENT0000000297100593", "NB_ETAGES": null, "BATIMENT": "3 - La Galette", "HAUTEUR": 3 }, "geometry": { "type": "MultiPolygon", "coordinates": [ [ [ [ -1.628209211046771, 48.094097032706927, 51.3 ], [ -1.628177104181073, 48.094114520118147, 51.3 ], [ -1.628130653678591, 48.094075782922765, 51.3 ], [ -1.628161419609211, 48.094058348236068, 51.3 ], [ -1.628209211046771, 48.094097032706927, 51.3 ] ] ] ] } },
{ "type": "Feature", "properties": { "ID": "BATIMENT0000000298097023", "NB_ETAGES": null, "BATIMENT": "Autre", "HAUTEUR": 3 }, "geometry": { "type": "MultiPolygon", "coordinates": [ [ [ [ -1.625893830352126, 48.093224429694288, 54.2 ], [ -1.625786148588028, 48.093285449023632, 54.2 ], [ -1.625742775594342, 48.093251097059841, 54.2 ], [ -1.625687633040182, 48.093282108508262, 54.2 ], [ -1.625579200828372, 48.093196228476607, 54.2 ], [ -1.625742025051038, 48.093104197881637, 54.2 ], [ -1.625893830352126, 48.093224429694288, 54.2 ] ] ] ] } },
{ "type": "Feature", "properties": { "ID": "BATIMENT0000002220722463", "NB_ETAGES": null, "BATIMENT": "Autre", "HAUTEUR": 3 }, "geometry": { "type": "MultiPolygon", "coordinates": [ [ [ [ -1.631032793046497, 48.09356684774054, 55.7 ], [ -1.630896411207927, 48.0935920431996, 55.7 ], [ -1.630843663317381, 48.093466118310822, 55.7 ], [ -1.630889965297347, 48.093457085826536, 55.7 ], [ -1.630883184519948, 48.093441127231095, 55.7 ], [ -1.630973185322354, 48.093424066010954, 55.7 ], [ -1.631032793046497, 48.09356684774054, 55.7 ] ] ] ] } },
{ "type": "Feature", "properties": { "ID": "BATIMENT0000002220722464", "NB_ETAGES": null, "BATIMENT": "Autre", "HAUTEUR": 3 }, "geometry": { "type": "MultiPolygon", "coordinates": [ [ [ [ -1.630889965297347, 48.093457085826536, 55.7 ], [ -1.630843663317381, 48.093466118310822, 55.7 ], [ -1.630843505858532, 48.093464321692032, 55.7 ], [ -1.630842954752646, 48.093458033526225, 55.7 ], [ -1.630850212911536, 48.093448733974853, 55.7 ], [ -1.630859363083996, 48.093445669845764, 55.7 ], [ -1.630883184519948, 48.093441127231095, 55.7 ], [ -1.630889965297347, 48.093457085826536, 55.7 ] ] ] ] } },
{ "type": "Feature", "properties": { "ID": "BATIMENT0000002275191120", "NB_ETAGES": null, "BATIMENT": "Additi", "HAUTEUR": 9 }, "geometry": { "type": "MultiPolygon", "coordinates": [ [ [ [ -1.630332128337792, 48.093586293767636, 59.8 ], [ -1.630718557474588, 48.093512503790251, 60.3 ], [ -1.631165071309992, 48.094554092455652, 60.3 ], [ -1.631037758612408, 48.094575325602051, 61.4 ], [ -1.631068191828033, 48.094661564865341, 63.6 ], [ -1.631109746353846, 48.094751873691941, 63.6 ], [ -1.631201290384966, 48.094967314320684, 60.5 ], [ -1.630812169395409, 48.095041211294699, 60.5 ], [ -1.630645958399061, 48.094649327536523, 60.5 ], [ -1.630839294862758, 48.094613779681175, 62.2 ], [ -1.630797977097826, 48.094526165677394, 60.3 ], [ -1.630735819116603, 48.094538525945843, 59.8 ], [ -1.630332128337792, 48.093586293767636, 59.8 ] ] ] ] } },
{ "type": "Feature", "properties": { "ID": "BATIMENT0000002275191163", "NB_ETAGES": null, "BATIMENT": "4 - L'imprimerie", "HAUTEUR": 12 }, "geometry": { "type": "MultiPolygon", "coordinates": [ [ [ [ -1.626582513762578, 48.094128517572308, 57.7 ], [ -1.626636473062839, 48.094099355041209, 57.7 ], [ -1.626726296823317, 48.094172444422512, 57.7 ], [ -1.626675098021821, 48.094202399914295, 57.7 ], [ -1.626582513762578, 48.094128517572308, 57.7 ] ] ] ] } },
{ "type": "Feature", "properties": { "ID": "BATIMENT0000000047197271", "NB_ETAGES": 1, "BATIMENT": "4 - L'imprimerie", "HAUTEUR": 12 }, "geometry": { "type": "MultiPolygon", "coordinates": [ [ [ [ -1.628097264325598, 48.093593403455372, 59.7 ], [ -1.62798410646613, 48.093652461609594, 61.385614087479141 ], [ -1.627944129170477, 48.093620694847139, 61.5 ], [ -1.62749999763049, 48.093865306036889, 63.5 ], [ -1.627711100627277, 48.094094077644705, 63.5 ], [ -1.627186339892424, 48.094386025338338, 57.0 ], [ -1.6271196005736, 48.094422901611445, 56.2 ], [ -1.627068244418854, 48.094451060646449, 55.7 ], [ -1.62644665324995, 48.093944561792334, 57.0 ], [ -1.626081448574033, 48.093646125506353, 57.7 ], [ -1.626612126045936, 48.09334493599281, 61.0 ], [ -1.626619778220592, 48.093340128262753, 61.1 ], [ -1.627029911231994, 48.093106771930124, 63.6 ], [ -1.627126073736808, 48.09305251394796, 64.3 ], [ -1.627661784755158, 48.09276283954852, 64.3 ], [ -1.628094817545271, 48.093098266679014, 64.9 ], [ -1.627832045438118, 48.093262736224382, 61.5 ], [ -1.628126831534019, 48.093509851397968, 59.7 ], [ -1.628052913995581, 48.093556925915109, 59.7 ], [ -1.628097264325598, 48.093593403455372, 59.7 ] ] ] ] } },
{ "type": "Feature", "properties": { "ID": "BATIMENT0000000047197280", "NB_ETAGES": null, "BATIMENT": "2 - La Tour", "HAUTEUR": 24 }, "geometry": { "type": "MultiPolygon", "coordinates": [ [ [ [ -1.629317518981078, 48.094092219459633, 59.2 ], [ -1.629357586429003, 48.094104165064735, 75.7 ], [ -1.629520013333861, 48.094007637755702, 76.0 ], [ -1.629633263483754, 48.094102339027096, 76.8 ], [ -1.629573942123124, 48.094131713843701, 79.7 ], [ -1.629321270247131, 48.094273254297029, 79.7 ], [ -1.629048637364558, 48.094432705646128, 76.5 ], [ -1.628952474322732, 48.094486965147361, 72.7 ], [ -1.628835595247558, 48.094396912956846, 72.5 ], [ -1.628902333337321, 48.094360035711496, 72.8 ], [ -1.628871019674921, 48.094355858423377, 59.2 ], [ -1.629317518981078, 48.094092219459633, 59.2 ] ] ] ] } },
{ "type": "Feature", "properties": { "ID": "BATIMENT0000000200504990", "NB_ETAGES": 1, "BATIMENT": "4 - L'imprimerie", "HAUTEUR": 12 }, "geometry": { "type": "MultiPolygon", "coordinates": [ [ [ [ -1.626612126045936, 48.09334493599281, 61.0 ], [ -1.626438002834762, 48.09320034275845, 61.5 ], [ -1.626853420505592, 48.092965877934652, 61.5 ], [ -1.627029911231994, 48.093106771930124, 63.6 ], [ -1.626619778220592, 48.093340128262753, 61.1 ], [ -1.626612126045936, 48.09334493599281, 61.0 ] ] ] ] } },
{ "type": "Feature", "properties": { "ID": "BATIMENT0000000047197271", "NB_ETAGES": 1, "BATIMENT": "3 - La Galette", "HAUTEUR": 12 }, "geometry": { "type": "MultiPolygon", "coordinates": [ [ [ [ -1.62798410646613, 48.093652461609594, 61.385614087479141 ], [ -1.628097264325598, 48.093593403455372, 59.7 ], [ -1.628153382984785, 48.093639560188237, 59.7 ], [ -1.628494408558053, 48.093451232366114, 59.7 ], [ -1.629317518981078, 48.094092219459633, 59.2 ], [ -1.628871019674921, 48.094355858423377, 59.2 ], [ -1.628860924864824, 48.094348142673923, 59.2 ], [ -1.628405559814946, 48.093988356663644, 60.2 ], [ -1.628357847019915, 48.093950570580425, 60.4 ], [ -1.628153826658694, 48.093787324101825, 60.9 ], [ -1.62798410646613, 48.093652461609594, 61.385614087479141 ] ] ] ] } }
]
}
