{
"type": "FeatureCollection",
"name": "RDC_SIPA",
"crs": { "type": "name", "properties": { "name": "urn:ogc:def:crs:OGC:1.3:CRS84" } },
"features": [
{ "type": "Feature", "properties": { "ID": "BATIMENT0000000047197280", "NB_ETAGES": null, "BATIMENT": "2 - La Tour", "HAUTEUR": 0, "SERVICE": null }, "geometry": { "type": "MultiPolygon", "coordinates": [ [ [ [ -1.628883793144864, 48.09437028040427, 53.711844345075939 ], [ -1.628998122047033, 48.094461208653954, 74.503825555499702 ], [ -1.628952474322732, 48.094486965147361, 72.7 ], [ -1.628898975381473, 48.094445745648976, 36.304227100806351 ], [ -1.628835595247558, 48.094396912956846, 72.5 ], [ -1.628866900919729, 48.094379614485199, 36.320362379899649 ], [ -1.628883793144864, 48.09437028040427, 53.711844345075939 ] ] ] ] } },
{ "type": "Feature", "properties": { "ID": "BATIMENT0000000047197280", "NB_ETAGES": null, "BATIMENT": "2 - La Tour", "HAUTEUR": 0, "SERVICE": "DSN" }, "geometry": { "type": "MultiPolygon", "coordinates": [ [ [ [ -1.629072726023459, 48.094264268130324, 9.962258717969981 ], [ -1.629129735409655, 48.094314325152354, 55.747549406918452 ], [ -1.629151261269768, 48.094300626877732, 79.7 ], [ -1.629199494815049, 48.09434447555526, 42.615550224679936 ], [ -1.62918784216226, 48.094351290695059, 39.066950890960811 ], [ -1.629131162141832, 48.094384440422409, 27.154283144662351 ], [ -1.629074871594547, 48.094417362363522, 30.406616911050058 ], [ -1.629048637364558, 48.094432705646128, 76.5 ], [ -1.628998122047033, 48.094461208653954, 74.503825555499702 ], [ -1.628883793144864, 48.09437028040427, 53.711844345075939 ], [ -1.628902333337321, 48.094360035711496, 72.8 ], [ -1.62890233333614, 48.09436003571134, 36.399999743559881 ], [ -1.629048166889474, 48.094278071356804, 5.117203437167496 ], [ -1.629072726023459, 48.094264268130324, 9.962258717969981 ] ] ] ] } },
{ "type": "Feature", "properties": { "ID": "BATIMENT0000000047197280", "NB_ETAGES": null, "BATIMENT": "2 - La Tour", "HAUTEUR": 0, "SERVICE": null }, "geometry": { "type": "MultiPolygon", "coordinates": [ [ [ [ -1.629420057686219, 48.094067039550609, 52.660085288436498 ], [ -1.629519548572535, 48.094162183747713, 47.850682805645143 ], [ -1.629321270247131, 48.094273254297029, 79.7 ], [ -1.629255382887451, 48.094311789004543, 59.635226350181767 ], [ -1.62920955788711, 48.094265627055677, 41.029201146806592 ], [ -1.6291514004828, 48.094301952500629, 41.029201146806592 ], [ -1.629151261269768, 48.094300626877732, 79.7 ], [ -1.629129735409655, 48.094314325152354, 55.747549406918452 ], [ -1.629072726023459, 48.094264268130324, 9.962258717969981 ], [ -1.629100970173194, 48.09424839377597, 15.534298306591269 ], [ -1.629357586426469, 48.094104165063982, 37.849999478377327 ], [ -1.629357586429003, 48.094104165064735, 75.7 ], [ -1.629420057686219, 48.094067039550609, 52.660085288436498 ] ] ] ] } },
{ "type": "Feature", "properties": { "ID": "BATIMENT0000000047197280", "NB_ETAGES": null, "BATIMENT": "2 - La Tour", "HAUTEUR": 0, "SERVICE": "Accueil" }, "geometry": { "type": "MultiPolygon", "coordinates": [ [ [ [ -1.6291514004828, 48.094301952500629, 41.029201146806592 ], [ -1.62920955788711, 48.094265627055677, 41.029201146806592 ], [ -1.629255382887451, 48.094311789004543, 59.635226350181767 ], [ -1.629199494815049, 48.09434447555526, 42.615550224679936 ], [ -1.6291514004828, 48.094301952500629, 41.029201146806592 ] ] ] ] } },
{ "type": "Feature", "properties": { "ID": "BATIMENT0000000047197280", "NB_ETAGES": null, "BATIMENT": "2 - La Tour", "HAUTEUR": 0, "SERVICE": "Salle de conférence" }, "geometry": { "type": "MultiPolygon", "coordinates": [ [ [ [ -1.629519548572535, 48.094162183747713, 47.850682805645143 ], [ -1.629420057686219, 48.094067039550609, 52.660085288436498 ], [ -1.629459957949272, 48.094043327561359, 37.944539313259682 ], [ -1.629520013333861, 48.094007637755702, 76.0 ], [ -1.629633263483754, 48.094102339027096, 76.8 ], [ -1.629573942123124, 48.094131713843701, 79.7 ], [ -1.629569356924129, 48.094134282357281, 39.85 ], [ -1.629519548572535, 48.094162183747713, 47.850682805645143 ] ] ] ] } }
]
}
