{
"type": "FeatureCollection",
"name": "PARCELLE_SIPA",
"crs": { "type": "name", "properties": { "name": "urn:ogc:def:crs:OGC:1.3:CRS84" } },
"features": [
{ "type": "Feature", "properties": { "OBJECTID": 3290, "geo_point_2d": { "lon": -1.628735058650802, "lat": 48.093833996618443 }, "gml_id": "parcelle.fid-42330d6d_19bdfb7d0b7_-3724", "ogc_fid": 162126, "lot": "2025-06", "inspireid": "FR350238000KR0300", "parcelle": "350238000KR0300", "commune": "350238", "section": "350238000KR", "section_txt": "KR", "parcelle_txt": "300", "section_parcelle_txt": "KR 300", "supf": 83025, "ssurf": 83025.14, "ssurfb": 19487.86, "scos": 23.5, "Shape_Length": 0.017909245454733443, "Shape_Area": 1.0025615848833489e-05 }, "geometry": { "type": "MultiPolygon", "coordinates": [ [ [ [ -1.625324608999961, 48.093247971000039 ], [ -1.625416891999976, 48.093198664000056 ], [ -1.625645890999976, 48.093112590000032 ], [ -1.625880637999956, 48.093027636000045 ], [ -1.626181285999962, 48.092914169000039 ], [ -1.626553520999948, 48.092777096000077 ], [ -1.626838160999966, 48.092671119000045 ], [ -1.626951512999938, 48.092633308000075 ], [ -1.627338081999937, 48.092491149000068 ], [ -1.627634589999957, 48.092384062000065 ], [ -1.627850633999969, 48.092309588000035 ], [ -1.628048708999927, 48.092246198000055 ], [ -1.628153143999953, 48.092221450000068 ], [ -1.628316325999947, 48.092191902000081 ], [ -1.628869319999978, 48.092383181000059 ], [ -1.628856865999978, 48.092404767000062 ], [ -1.628817254999944, 48.092472949000069 ], [ -1.628786506999973, 48.092525998000042 ], [ -1.629017279999971, 48.092567703000043 ], [ -1.629032594999956, 48.09257051000003 ], [ -1.629267090999974, 48.09261323700008 ], [ -1.629297778999955, 48.092619479000064 ], [ -1.629311477999977, 48.092622261000031 ], [ -1.629363001999934, 48.092628386000058 ], [ -1.629392155999938, 48.092632528000081 ], [ -1.629447048999964, 48.09264022800005 ], [ -1.629488889999948, 48.092649356000038 ], [ -1.629505373999962, 48.092620219000025 ], [ -1.629515469999944, 48.09260233200007 ], [ -1.629730606999942, 48.09267512100007 ], [ -1.629883043999939, 48.092726648000053 ], [ -1.629927433999967, 48.092741709000052 ], [ -1.629918351999947, 48.092773882000074 ], [ -1.629852641999946, 48.093006836000029 ], [ -1.629817938999963, 48.093129694000027 ], [ -1.629904891999956, 48.093139437000048 ], [ -1.629964671999971, 48.093146130000036 ], [ -1.630101643999978, 48.093161697000028 ], [ -1.630240239999978, 48.093177379000053 ], [ -1.630324480999946, 48.092996569000036 ], [ -1.630371296999954, 48.092896289000066 ], [ -1.630497299999945, 48.092939509000075 ], [ -1.630620534999935, 48.092981850000058 ], [ -1.630627208999954, 48.092984284000067 ], [ -1.630682949999937, 48.09304637300005 ], [ -1.630739170999959, 48.093091323000067 ], [ -1.630771420999963, 48.093110477000039 ], [ -1.630875057999958, 48.093165230000068 ], [ -1.630911701999935, 48.093185379000033 ], [ -1.631000947999951, 48.093250623000074 ], [ -1.63132496299994, 48.093972821000079 ], [ -1.631502908999948, 48.094372834000069 ], [ -1.631688162999978, 48.094786788000079 ], [ -1.631746532999955, 48.094917070000065 ], [ -1.631767240999977, 48.09496345000008 ], [ -1.631986283999936, 48.095454073000042 ], [ -1.631397984999978, 48.09533298000008 ], [ -1.631095, 48.095273644000031 ], [ -1.630808201999969, 48.09522230500005 ], [ -1.630800157999943, 48.095221098000081 ], [ -1.630586450999942, 48.095188349000068 ], [ -1.630348086999959, 48.095158125000069 ], [ -1.630085520999955, 48.095132479000029 ], [ -1.629934466999941, 48.095118921000051 ], [ -1.629753881999932, 48.095110516000034 ], [ -1.629566702999966, 48.095105080000053 ], [ -1.629488354999978, 48.095102829000041 ], [ -1.62931830399998, 48.095099406000031 ], [ -1.629153379999934, 48.095100642000034 ], [ -1.62895167299996, 48.095108674000073 ], [ -1.628734637999969, 48.09512426200007 ], [ -1.628573322999955, 48.095137245000046 ], [ -1.628430674999947, 48.095152901000063 ], [ -1.62825477399997, 48.095174220000047 ], [ -1.628129537999939, 48.095192057000077 ], [ -1.628072834999955, 48.095200197000054 ], [ -1.62791169299993, 48.095225606000042 ], [ -1.62777172899996, 48.095251695000059 ], [ -1.62739394099998, 48.094952170000056 ], [ -1.627121767999938, 48.095107293000069 ], [ -1.627407086999938, 48.095334133000051 ], [ -1.62724170599995, 48.095378274000041 ], [ -1.626960986999961, 48.095459134000066 ], [ -1.626583915999959, 48.095566488000031 ], [ -1.626422608999974, 48.095437104000041 ], [ -1.626050817999953, 48.095141388000059 ], [ -1.62595753599993, 48.095002597000075 ], [ -1.625984538999944, 48.095011242000055 ], [ -1.626110142999948, 48.094949511000038 ], [ -1.626262413999939, 48.094859676000056 ], [ -1.626309450999941, 48.094830752000064 ], [ -1.62634879899997, 48.094804570000065 ], [ -1.626380488999928, 48.094785994000063 ], [ -1.62639072199994, 48.094751613000028 ], [ -1.62640430099998, 48.094706555000073 ], [ -1.626398348999942, 48.094698685000026 ], [ -1.626380989999973, 48.094691094000041 ], [ -1.626780149999945, 48.094459680000057 ], [ -1.626706016999947, 48.09440094200005 ], [ -1.626625353999941, 48.094336881000061 ], [ -1.626469175999944, 48.094212156000026 ], [ -1.625971043999925, 48.093783846000065 ], [ -1.625324608999961, 48.093247971000039 ] ] ] ] } }
]
}
