{"hasZ":true,"type":"FeatureCollection","features":[{"type":"Feature","id":1,"geometry":{"type":"Polygon","coordinates":[[[-1.6294024769999282,48.094084572000042,0],[-1.6295132359999798,48.094173437000052,0],[-1.6296379489999708,48.094103942000061,0],[-1.6295558009999809,48.094037565000065,50.83520000000135],[-1.6295257109999284,48.094013251000035,0],[-1.6294024769999282,48.094084572000042,0]]]},"properties":{"OBJECTID":1,"FID_TOUR_GALETTE_RDC":1,"Salle":"Salle de conférence","Etage":0,"Hauteur":1,"Typologie":"Réunion","Shape_Length":0.00057145400457576955,"Shape_Area":1.8980448005561637e-08}},{"type":"Feature","id":2,"geometry":{"type":"Polygon","coordinates":[[[-1.6291801569999507,48.094287699000063,0],[-1.6292290759999446,48.094260638000037,0],[-1.6292375879999668,48.094267137000031,0],[-1.6292493049999734,48.094260224000038,0],[-1.6292951359999392,48.094296155000052,23.759999999994761],[-1.6293925949999561,48.094241317000069,29.69999999999709],[-1.6295132359999798,48.094173437000052,0],[-1.6294024769999282,48.094084572000042,0],[-1.6293238449999308,48.094128428000033,0],[-1.6293342429999598,48.094136791000039,0],[-1.6293829689999484,48.094175968000059,0],[-1.629349809999951,48.094194579000032,0],[-1.6293057799999247,48.094219294000027,0],[-1.6292964979999738,48.094211963000078,0],[-1.6292463209999255,48.094172357000048,0],[-1.6291838629999802,48.094207580000045,0],[-1.6292185889999473,48.094237259000067,0],[-1.6291873509999277,48.094255016000034,0],[-1.6291411429999698,48.094219599000041,0],[-1.6291441309999755,48.094217884000045,0],[-1.6291471199999705,48.094219987000031,0],[-1.629149942999959,48.094218461000025,0],[-1.6291302149999751,48.094202814000028,39.466700000004494],[-1.6291285589999802,48.094201500000054,0],[-1.629087325999933,48.094224746000066,0],[-1.629089712999928,48.094226728000081,39.466700000004494],[-1.6291067499999485,48.094240887000069,0],[-1.6291149399999654,48.094236400000057,0],[-1.6291577189999771,48.094270417000075,0],[-1.6291797399999268,48.094287927000039,0],[-1.6291801569999507,48.094287699000063,0]]]},"properties":{"OBJECTID":2,"FID_TOUR_GALETTE_RDC":2,"Salle":"Hall d'entrée","Etage":0,"Hauteur":1,"Typologie":"Autre","Shape_Length":0.0012752166966029568,"Shape_Area":3.1582153104246089e-08}},{"type":"Feature","id":3,"geometry":{"type":"Polygon","coordinates":[[[-1.6292951359999392,48.094296155000052,23.759999999994761],[-1.6293614809999326,48.094346347000055,29.69999999999709],[-1.6294540199999688,48.094293926000034,29.69999999999709],[-1.6293916389999481,48.094241888000056,29.69999999999709],[-1.6292951359999392,48.094296155000052,23.759999999994761]]]},"properties":{"OBJECTID":3,"FID_TOUR_GALETTE_RDC":3,"Salle":"Entrée","Etage":0,"Hauteur":1,"Typologie":"Autre","Shape_Length":0.00038149811785991847,"Shape_Area":8.2648207881988382e-09}},{"type":"Feature","id":4,"geometry":{"type":"Polygon","coordinates":[[[-1.6291801569999507,48.094287699000063,0],[-1.6292296749999764,48.094326823000074,26.208299999998417],[-1.6292338029999769,48.094330082000056,0],[-1.6292948799999749,48.094296296000039,29.69999999999709],[-1.6292951359999392,48.094296155000052,23.759999999994761],[-1.6292493049999734,48.094260224000038,0],[-1.6292375879999668,48.094267137000031,0],[-1.6292290759999446,48.094260638000037,0],[-1.6291801569999507,48.094287699000063,0]]]},"properties":{"OBJECTID":4,"FID_TOUR_GALETTE_RDC":4,"Salle":"Accueil","Etage":0,"Hauteur":1,"Typologie":"Autre","Shape_Length":0.00027691485417642101,"Shape_Area":4.2777737562977373e-09}},{"type":"Feature","id":5,"geometry":{"type":"Polygon","coordinates":[[[-1.6289844339999604,48.094468932000041,36.981400000004214],[-1.6289855699999407,48.094469833000062,0],[-1.6292338029999769,48.094330082000056,0],[-1.6292296749999764,48.094326823000074,26.208299999998417],[-1.6291801569999507,48.094287699000063,0],[-1.6291797399999268,48.094287927000039,0],[-1.6291576969999255,48.09427043900007,0],[-1.6290954329999749,48.094306590000031,0],[-1.6290566069999386,48.094273846000078,0],[-1.6288993749999463,48.094362646000036,0],[-1.6289030499999626,48.094365370000048,0],[-1.6288743199999658,48.094381553000062,0],[-1.6289315089999263,48.094426941000052,0],[-1.6289844339999604,48.094468932000041,36.981400000004214]]]},"properties":{"OBJECTID":5,"FID_TOUR_GALETTE_RDC":5,"Salle":"DSN","Etage":0,"Hauteur":1,"Typologie":"Secteur","Shape_Length":0.00086478196480708699,"Shape_Area":3.5134193094375293e-08}},{"type":"Feature","id":6,"geometry":{"type":"Polygon","coordinates":[[[-1.6292964979999738,48.094211963000078,0],[-1.6293246749999639,48.094196302000057,0],[-1.629303039999968,48.094178614000043,0],[-1.6292972979999263,48.094181721000041,0],[-1.6292800479999414,48.094167619000075,0],[-1.629257028999973,48.094180793000078,0],[-1.6292964979999738,48.094211963000078,0]]]},"properties":{"OBJECTID":6,"FID_TOUR_GALETTE_RDC":6,"Salle":"Ascenseurs","Etage":0,"Hauteur":1,"Typologie":"Se déplacer","Shape_Length":0.00016580653370697022,"Shape_Area":1.3894037059137089e-09}},{"type":"Feature","id":7,"geometry":{"type":"Polygon","coordinates":[[[-1.6293342429999598,48.094136791000039,0],[-1.629299944999957,48.094156672000054,0],[-1.629349809999951,48.094194579000032,0],[-1.6293829689999484,48.094175968000059,0],[-1.6293342429999598,48.094136791000039,0]]]},"properties":{"OBJECTID":7,"FID_TOUR_GALETTE_RDC":7,"Salle":"Escaliers","Etage":0,"Hauteur":1,"Typologie":"Se déplacer","Shape_Length":0.00020282833917676106,"Shape_Area":2.2487050394788113e-09}},{"type":"Feature","id":8,"geometry":{"type":"Polygon","coordinates":[[[-1.6288743199999658,48.094381553000062,0],[-1.6288423289999514,48.094398554000065,0],[-1.6288998839999635,48.094445558000075,0],[-1.6289315089999263,48.094426941000052,0],[-1.6288743199999658,48.094381553000062,0]]]},"properties":{"OBJECTID":8,"FID_TOUR_GALETTE_RDC":9,"Salle":"Escaliers","Etage":0,"Hauteur":1,"Typologie":"Se déplacer","Shape_Length":0.00022024689614169867,"Shape_Area":2.4911403159817517e-09}},{"type":"Feature","id":9,"geometry":{"type":"Polygon","coordinates":[[[-1.629082336999943,48.09425850100007,0],[-1.6290847249999274,48.094260772000041,0],[-1.6290587429999732,48.09427557500004,0],[-1.6290954329999749,48.094306590000031,0],[-1.6291576969999255,48.09427043900007,0],[-1.6291577189999771,48.094270417000075,0],[-1.6291174299999511,48.094238525000037,0],[-1.629082336999943,48.09425850100007,0]]]},"properties":{"OBJECTID":9,"FID_TOUR_GALETTE_RDC":10,"Salle":"Sanitaires hommes","Etage":0,"Hauteur":1,"Typologie":"Toilettes","Shape_Length":0.00024503415534228145,"Shape_Area":3.3287124251700776e-09}},{"type":"Feature","id":10,"geometry":{"type":"Polygon","coordinates":[[[-1.6290566069999386,48.094273846000078,0],[-1.6290587049999772,48.094275577000076,0],[-1.6290846639999472,48.094260778000034,0],[-1.629082336999943,48.09425850100007,0],[-1.6291174519999458,48.09423842700005,0],[-1.6291149399999654,48.094236400000057,0],[-1.6291067499999485,48.094240887000069,0],[-1.629089381999961,48.094226924000054,39.466700000004494],[-1.6290546769999423,48.094198997000035,0],[-1.6289994029999662,48.09423029800007,0],[-1.6290362109999705,48.094258319000062,39.466700000004494],[-1.6290566069999386,48.094273846000078,0]]]},"properties":{"OBJECTID":10,"FID_TOUR_GALETTE_RDC":11,"Salle":"Sanitaires femmes","Etage":0,"Hauteur":1,"Typologie":"Toilettes","Shape_Length":0.00029111715103206958,"Shape_Area":4.209558863183833e-09}},{"type":"Feature","id":11,"geometry":{"type":"Polygon","coordinates":[[[-1.6291309889999752,48.094202357000029,39.466700000004494],[-1.629149942999959,48.094218461000025,0],[-1.6291895979999254,48.094196003000036,0],[-1.6291692749999243,48.09417975100007,39.466700000004494],[-1.6291622809999353,48.094174159000033,0],[-1.6291235989999677,48.094196079000028,0],[-1.6291309889999752,48.094202357000029,39.466700000004494]]]},"properties":{"OBJECTID":11,"FID_TOUR_GALETTE_RDC":12,"Salle":"Atelier brique","Etage":0,"Hauteur":1,"Typologie":"Atelier","Shape_Length":0.00015957887121531732,"Shape_Area":1.4614774651768502e-09}},{"type":"Feature","id":12,"geometry":{"type":"Polygon","coordinates":[[[-1.6291622809999353,48.094174159000033,0],[-1.6291353909999771,48.094152469000051,0],[-1.6290962789999526,48.094174489000068,0],[-1.6291235989999677,48.094196079000028,0],[-1.6291622809999353,48.094174159000033,0]]]},"properties":{"OBJECTID":12,"FID_TOUR_GALETTE_RDC":13,"Salle":"Atelier indigo","Etage":0,"Hauteur":1,"Typologie":"Atelier","Shape_Length":0.00015871425077700898,"Shape_Area":1.4372279286746508e-09}},{"type":"Feature","id":13,"geometry":{"type":"Polygon","coordinates":[[[-1.6290767709999727,48.094080561000055,0],[-1.6291033609999772,48.094101187000035,0],[-1.6291430339999806,48.094078538000076,0],[-1.6291171519999352,48.09405765300005,0],[-1.6290767709999727,48.094080561000055,0]]]},"properties":{"OBJECTID":13,"FID_TOUR_GALETTE_RDC":14,"Salle":"Atelier grey","Etage":0,"Hauteur":1,"Typologie":"Atelier","Shape_Length":0.0001590187081932506,"Shape_Area":1.4283971243733138e-09}},{"type":"Feature","id":14,"geometry":{"type":"Polygon","coordinates":[[[-1.6290539239999475,48.094057947000067,0],[-1.629054698999937,48.094058812000071,0],[-1.6290530209999474,48.094060127000034,0],[-1.6290767709999727,48.094080561000055,0],[-1.6291171519999352,48.09405765300005,0],[-1.6290910509999321,48.094036863000042,0],[-1.6290539239999475,48.094057947000067,0]]]},"properties":{"OBJECTID":14,"FID_TOUR_GALETTE_RDC":15,"Salle":"Espace repro","Etage":0,"Hauteur":1,"Typologie":"Autre","Shape_Length":0.00015711520311036706,"Shape_Area":1.413247565200664e-09}},{"type":"Feature","id":15,"geometry":{"type":"Polygon","coordinates":[[[-1.6290646609999726,48.094016185000044,0],[-1.6290245439999467,48.094039166000073,0],[-1.6290490589999536,48.094058646000065,0],[-1.6290521849999777,48.094056321000039,0],[-1.6290539239999475,48.094057947000067,0],[-1.6290910509999321,48.094036863000042,0],[-1.6290646609999726,48.094016185000044,0]]]},"properties":{"OBJECTID":15,"FID_TOUR_GALETTE_RDC":16,"Salle":"Atelier moutarde","Etage":0,"Hauteur":1,"Typologie":"Atelier","Shape_Length":0.00016004421440374986,"Shape_Area":1.4277590786253456e-09}},{"type":"Feature","id":16,"geometry":{"type":"Polygon","coordinates":[[[-1.6290646609999726,48.094016185000044,0],[-1.6290385839999431,48.093995410000048,0],[-1.6289994829999728,48.094017479000058,0],[-1.6290245249999771,48.094039137000038,0],[-1.6290646609999726,48.094016185000044,0]]]},"properties":{"OBJECTID":16,"FID_TOUR_GALETTE_RDC":17,"Salle":"Atelier saphyr","Etage":0,"Hauteur":1,"Typologie":"Atelier","Shape_Length":0.00015758358087118152,"Shape_Area":1.4159230296109104e-09}},{"type":"Feature","id":17,"geometry":{"type":"Polygon","coordinates":[[[-1.6289409649999698,48.094143820000056,0],[-1.6289757819999409,48.094175599000039,0],[-1.6290661209999371,48.094124719000035,0],[-1.6290292919999274,48.094094429000052,0],[-1.6289409649999698,48.094143820000056,0]]]},"properties":{"OBJECTID":17,"FID_TOUR_GALETTE_RDC":18,"Salle":"Cuisine","Etage":0,"Hauteur":1,"Typologie":"Repos","Shape_Length":0.00029970469423710484,"Shape_Area":4.5684090024448725e-09}},{"type":"Feature","id":18,"geometry":{"type":"Polygon","coordinates":[[[-1.6289032839999322,48.094249227000034,0],[-1.6289290839999353,48.094270112000061,0],[-1.628969652999956,48.094246787000031,0],[-1.6289433889999714,48.094226352000078,0],[-1.6289032839999322,48.094249227000034,0]]]},"properties":{"OBJECTID":18,"FID_TOUR_GALETTE_RDC":19,"Salle":"Olivier Porte","Etage":0,"Hauteur":1,"Typologie":"Bureau","Shape_Length":0.00015943759103991984,"Shape_Area":1.4347016198823027e-09}},{"type":"Feature","id":19,"geometry":{"type":"Polygon","coordinates":[[[-1.6288770039999463,48.094228117000057,0],[-1.6289032839999322,48.094249227000034,0],[-1.6289433659999304,48.094226341000081,0],[-1.628917089999959,48.094205142000078,0],[-1.6288770039999463,48.094228117000057,0]]]},"properties":{"OBJECTID":19,"FID_TOUR_GALETTE_RDC":20,"Salle":"Atelier prune","Etage":0,"Hauteur":1,"Typologie":"Atelier","Shape_Length":0.00015982870273802669,"Shape_Area":1.450524655340092e-09}},{"type":"Feature","id":20,"geometry":{"type":"Polygon","coordinates":[[[-1.6288770039999463,48.094228117000057,0],[-1.6289169809999748,48.094205098000032,0],[-1.628878585999928,48.094169627000042,0],[-1.6288345389999677,48.09419444200006,0],[-1.6288770039999463,48.094228117000057,0]]]},"properties":{"OBJECTID":20,"FID_TOUR_GALETTE_RDC":21,"Salle":"Espace réunion","Etage":0,"Hauteur":1,"Typologie":"Réunion","Shape_Length":0.00020315551227908024,"Shape_Area":2.4194451867044407e-09}},{"type":"Feature","id":21,"geometry":{"type":"Polygon","coordinates":[[[-1.6287983739999277,48.094166174000065,0],[-1.6288242399999717,48.094186800000045,0],[-1.6288650419999726,48.09416402100004,0],[-1.6288385919999655,48.094143253000027,0],[-1.6287983739999277,48.094166174000065,0]]]},"properties":{"OBJECTID":21,"FID_TOUR_GALETTE_RDC":22,"Salle":"Bibliothèque geluck","Etage":0,"Hauteur":1,"Typologie":"Bibliothèque","Shape_Length":0.0001597329537441068,"Shape_Area":1.4361457714170415e-09}},{"type":"Feature","id":22,"geometry":{"type":"Polygon","coordinates":[[[-1.6288385919999655,48.094143253000027,0],[-1.6288125009999703,48.094122132000052,0],[-1.6287720039999272,48.094145324000067,0],[-1.6287983739999277,48.094166174000065,0],[-1.6288385919999655,48.094143253000027,0]]]},"properties":{"OBJECTID":22,"FID_TOUR_GALETTE_RDC":23,"Salle":"Atelier Ocre","Etage":0,"Hauteur":1,"Typologie":"Atelier","Shape_Length":0.00016014409385386761,"Shape_Area":1.4517058404569176e-09}},{"type":"Feature","id":23,"geometry":{"type":"Polygon","coordinates":[[[-1.6289345249999769,48.094053970000061,0],[-1.6289864999999395,48.094095568000057,0],[-1.6290310529999488,48.094070337000062,0],[-1.6289788729999373,48.094028971000057,0],[-1.6289345249999769,48.094053970000061,0]]]},"properties":{"OBJECTID":23,"FID_TOUR_GALETTE_RDC":24,"Salle":"Petit labo","Etage":0,"Hauteur":1,"Typologie":"Réunion","Shape_Length":0.00023526924070025018,"Shape_Area":3.1518220525417587e-09}},{"type":"Feature","id":24,"geometry":{"type":"Polygon","coordinates":[[[-1.6289345249999769,48.094053970000061,0],[-1.6288319239999396,48.094111794000071,0],[-1.6288834909999537,48.094153215000063,0],[-1.6289864999999395,48.094095568000057,0],[-1.6289345249999769,48.094053970000061,0]]]},"properties":{"OBJECTID":24,"FID_TOUR_GALETTE_RDC":25,"Salle":"Grand labo","Etage":0,"Hauteur":1,"Typologie":"Réunion","Shape_Length":0.00036853032964137024,"Shape_Area":7.2564087175500621e-09}},{"type":"Feature","id":25,"geometry":{"type":"Polygon","coordinates":[[[-1.6288927739999508,48.09393521100003,0],[-1.6289454699999624,48.093977021000057,0],[-1.6289861469999778,48.093953955000075,0],[-1.6289337939999768,48.093912713000066,0],[-1.6288927739999508,48.09393521100003,0]]]},"properties":{"OBJECTID":25,"FID_TOUR_GALETTE_RDC":26,"Salle":"Bibliothèque chaunu","Etage":0,"Hauteur":1,"Typologie":"Bibliothèque","Shape_Length":0.00022746042151701942,"Shape_Area":2.8928879703603949e-09}},{"type":"Feature","id":26,"geometry":{"type":"Polygon","coordinates":[[[-1.6289337939999768,48.093912713000066,0],[-1.6289083969999751,48.093891717000076,0],[-1.6288685799999598,48.09391521200007,0],[-1.6288927739999508,48.09393521100003,0],[-1.6289337939999768,48.093912713000066,0]]]},"properties":{"OBJECTID":26,"FID_TOUR_GALETTE_RDC":27,"Salle":"Espace repro","Etage":0,"Hauteur":1,"Typologie":"Autre","Shape_Length":0.00015735845569433485,"Shape_Area":1.398687918294334e-09}},{"type":"Feature","id":27,"geometry":{"type":"Polygon","coordinates":[[[-1.6284248149999598,48.093982284000049,0],[-1.6285566089999293,48.094087233000039,0],[-1.6286798769999677,48.094017711000049,0],[-1.6285465259999796,48.093912186000068,0],[-1.6284248149999598,48.093982284000049,0]]]},"properties":{"OBJECTID":27,"FID_TOUR_GALETTE_RDC":28,"Salle":"Support informatique","Etage":0,"Hauteur":1,"Typologie":"Secteur","Shape_Length":0.00062050365133477854,"Shape_Area":2.2145313734335973e-08}},{"type":"Feature","id":28,"geometry":{"type":"Polygon","coordinates":[[[-1.6287594939999508,48.093829546000052,0],[-1.6287857019999592,48.09385052500005,0],[-1.6288263009999469,48.093827489000034,0],[-1.6287997689999543,48.093806469000072,0],[-1.6287594939999508,48.093829546000052,0]]]},"properties":{"OBJECTID":28,"FID_TOUR_GALETTE_RDC":29,"Salle":"Atelier pervanche","Etage":0,"Hauteur":1,"Typologie":"Atelier","Shape_Length":0.00016051696880311318,"Shape_Area":1.4571566855878609e-09}},{"type":"Feature","id":29,"geometry":{"type":"Polygon","coordinates":[[[-1.6287451219999411,48.093796305000069,0],[-1.6287296839999499,48.09380541400003,0],[-1.6287594939999508,48.093829546000052,0],[-1.6287997689999543,48.093806469000072,0],[-1.6287738249999393,48.093785546000049,0],[-1.6287494399999787,48.093799721000039,0],[-1.6287483439999733,48.093798847000073,0],[-1.6287451219999411,48.093796305000069,0]]]},"properties":{"OBJECTID":29,"FID_TOUR_GALETTE_RDC":30,"Salle":"Atelier grenat","Etage":0,"Hauteur":1,"Typologie":"Atelier","Shape_Length":0.0001697375176769462,"Shape_Area":1.5248702879467712e-09}},{"type":"Feature","id":30,"geometry":{"type":"Polygon","coordinates":[[[-1.6287362229999758,48.094023588000027,0],[-1.6288152569999284,48.09408712700008,0],[-1.6288383829999589,48.094073974000025,0],[-1.6287587089999533,48.094010938000054,0],[-1.6287362229999758,48.094023588000027,0]]]},"properties":{"OBJECTID":30,"FID_TOUR_GALETTE_RDC":31,"Salle":"Escaliers","Etage":0,"Hauteur":1,"Typologie":"Se déplacer","Shape_Length":0.00025540749169937667,"Shape_Area":2.467120357381257e-09}},{"type":"Feature","id":31,"geometry":{"type":"Polygon","coordinates":[[[-1.6288658349999423,48.09395188600007,0],[-1.6288880999999265,48.09396965500008,0],[-1.628852970999958,48.093989953000062,0],[-1.6288809139999785,48.094014042000026,0],[-1.62892721999998,48.093988742000079,0],[-1.6288744059999658,48.093946574000029,0],[-1.6288658349999423,48.09395188600007,0]]]},"properties":{"OBJECTID":31,"FID_TOUR_GALETTE_RDC":32,"Salle":"Salle de pause","Etage":0,"Hauteur":1,"Typologie":"Repos","Shape_Length":0.00023638424934079521,"Shape_Area":2.0995546202590587e-09}},{"type":"Feature","id":32,"geometry":{"type":"Polygon","coordinates":[[[-1.6285551279999595,48.093837834000055,0],[-1.6285254109999414,48.093855139000027,0],[-1.62856411599995,48.093886410000039,0],[-1.62859427799998,48.093868945000054,0],[-1.6285551279999595,48.093837834000055,0]]]},"properties":{"OBJECTID":32,"FID_TOUR_GALETTE_RDC":33,"Salle":"Salle hoedic","Etage":0,"Hauteur":1,"Typologie":"Réunion","Shape_Length":0.00016900711303178366,"Shape_Area":1.610597532308489e-09}},{"type":"Feature","id":33,"geometry":{"type":"Polygon","coordinates":[[[-1.6285551279999595,48.093837834000055,0],[-1.62859427799998,48.093868945000054,0],[-1.628670844999931,48.093825477000053,0],[-1.6286323639999409,48.093794633000073,0],[-1.6285551279999595,48.093837834000055,0]]]},"properties":{"OBJECTID":33,"FID_TOUR_GALETTE_RDC":34,"Salle":"Salle ouessant","Etage":0,"Hauteur":1,"Typologie":"Réunion","Shape_Length":0.00027586522288948153,"Shape_Area":4.0642664990346792e-09}},{"type":"Feature","id":34,"geometry":{"type":"Polygon","coordinates":[[[-1.6287483439999733,48.093798847000073,0],[-1.6287494399999787,48.093799721000039,0],[-1.6287832579999417,48.093779913000049,0],[-1.6287193419999539,48.093727834000049,0],[-1.6286991529999568,48.093738741000038,0],[-1.628696735999938,48.093758137000066,0],[-1.6287451219999411,48.093796305000069,0],[-1.6287451579999583,48.093796284000064,0],[-1.6287483439999733,48.093798847000073,0]]]},"properties":{"OBJECTID":34,"FID_TOUR_GALETTE_RDC":35,"Salle":"Escaliers","Etage":0,"Hauteur":1,"Typologie":"Se déplacer","Shape_Length":0.00023129208090513334,"Shape_Area":2.9644751358151414e-09}},{"type":"Feature","id":35,"geometry":{"type":"Polygon","coordinates":[[[-1.6286224979999702,48.093729842000073,0],[-1.6286617999999748,48.093760921000069,0],[-1.628675813999962,48.093753008000078,0],[-1.6286784509999279,48.093733293000071,0],[-1.6286511279999445,48.093712143000062,0],[-1.6286243029999241,48.093728769000052,0],[-1.6286224979999702,48.093729842000073,0]]]},"properties":{"OBJECTID":35,"FID_TOUR_GALETTE_RDC":36,"Salle":"Sanitaires femmes","Etage":0,"Hauteur":1,"Typologie":"Toilettes","Shape_Length":0.00015430148917036258,"Shape_Area":1.4733195428909223e-09}},{"type":"Feature","id":36,"geometry":{"type":"Polygon","coordinates":[[[-1.6286224979999702,48.093729842000073,0],[-1.6285849499999472,48.093751222000037,0],[-1.6286239789999399,48.093781961000047,0],[-1.6286617999999748,48.093760921000069,0],[-1.6286224979999702,48.093729842000073,0]]]},"properties":{"OBJECTID":36,"FID_TOUR_GALETTE_RDC":37,"Salle":"Sanitaires hommes","Etage":0,"Hauteur":1,"Typologie":"Toilettes","Shape_Length":0.0001862736030805403,"Shape_Area":1.995490465363543e-09}},{"type":"Feature","id":37,"geometry":{"type":"Polygon","coordinates":[[[-1.6285034249999626,48.09379619200007,0],[-1.6285417669999447,48.09382793900005,0],[-1.6286042959999349,48.09379300900008,0],[-1.6285649249999778,48.093761710000081,0],[-1.6285034249999626,48.09379619200007,0]]]},"properties":{"OBJECTID":37,"FID_TOUR_GALETTE_RDC":38,"Salle":"Salle segal","Etage":0,"Hauteur":1,"Typologie":"Réunion","Shape_Length":0.00024220651076611697,"Shape_Area":3.3034367701143236e-09}},{"type":"Feature","id":38,"geometry":{"type":"Polygon","coordinates":[[[-1.6284724999999298,48.093813534000049,0],[-1.6285112009999807,48.093845116000068,0],[-1.6285417669999447,48.09382793900005,0],[-1.6285034249999626,48.09379619200007,0],[-1.6284724999999298,48.093813534000049,0]]]},"properties":{"OBJECTID":38,"FID_TOUR_GALETTE_RDC":39,"Salle":"Salle molène","Etage":0,"Hauteur":1,"Typologie":"Réunion","Shape_Length":0.00017024861329548158,"Shape_Area":1.6384027141535513e-09}},{"type":"Feature","id":39,"geometry":{"type":"Polygon","coordinates":[[[-1.6282936969999469,48.093878275000066,0],[-1.6283992939999621,48.093961516000036,0],[-1.6285206859999448,48.093893269000034,0],[-1.6284549969999489,48.093841298000029,0],[-1.6284236959999703,48.09385908400003,0],[-1.6283843509999656,48.093828259000077,0],[-1.6283532879999711,48.093845400000077,0],[-1.6282936969999469,48.093878275000066,0]]]},"properties":{"OBJECTID":39,"FID_TOUR_GALETTE_RDC":40,"Salle":"Gestion de parc","Etage":0,"Hauteur":1,"Typologie":"Secteur","Shape_Length":0.00054700363439514959,"Shape_Area":1.5586972759788534e-08}},{"type":"Feature","id":40,"geometry":{"type":"Polygon","coordinates":[[[-1.6283843509999656,48.093828259000077,0],[-1.6284236959999703,48.09385908400003,0],[-1.6284549969999489,48.093841298000029,0],[-1.6284160859999588,48.093810181000038,0],[-1.6283843509999656,48.093828259000077,0]]]},"properties":{"OBJECTID":40,"FID_TOUR_GALETTE_RDC":41,"Salle":"Bureau Touchais","Etage":0,"Hauteur":1,"Typologie":"Bureau","Shape_Length":0.0001723293557256132,"Shape_Area":1.6777872734357936e-09}},{"type":"Feature","id":41,"geometry":{"type":"Polygon","coordinates":[[[-1.628326915999935,48.093823733000079,0],[-1.6283532879999711,48.093845400000077,0],[-1.6284160859999588,48.093810181000038,0],[-1.6283902479999597,48.093788754000059,0],[-1.628326915999935,48.093823733000079,0]]]},"properties":{"OBJECTID":41,"FID_TOUR_GALETTE_RDC":42,"Salle":"Distributeurs","Etage":0,"Hauteur":1,"Typologie":"Repos","Shape_Length":0.00021204728974147182,"Shape_Area":2.2751209508215043e-09}},{"type":"Feature","id":42,"geometry":{"type":"Polygon","coordinates":[[[-1.6281633499999657,48.093775009000069,0],[-1.6282936969999469,48.093878275000066,0],[-1.6283532879999711,48.093845400000077,0],[-1.6283268969999654,48.093823739000072,0],[-1.628326915999935,48.093823733000079,0],[-1.6283902479999597,48.093788754000059,0],[-1.6283370099999388,48.093747225000072,0],[-1.6282745119999618,48.09378300000003,0],[-1.6282325359999277,48.093748899000047,0],[-1.628216532999943,48.093757931000027,0],[-1.6282073599999762,48.093750278000073,0],[-1.6281633499999657,48.093775009000069,0]]]},"properties":{"OBJECTID":42,"FID_TOUR_GALETTE_RDC":43,"Salle":"Cafétéria","Etage":0,"Hauteur":1,"Typologie":"Repos","Shape_Length":0.00061528454707389932,"Shape_Area":1.4765640393816596e-08}},{"type":"Feature","id":43,"geometry":{"type":"Polygon","coordinates":[[[-1.6281180859999722,48.093679196000039,0],[-1.6280732659999444,48.093704456000069,0],[-1.6281633499999657,48.093775009000069,0],[-1.6282073599999762,48.093750278000073,0],[-1.6281951589999721,48.093740558000036,0],[-1.6281180859999722,48.093679196000039,0]]]},"properties":{"OBJECTID":43,"FID_TOUR_GALETTE_RDC":44,"Salle":"Info locale","Etage":0,"Hauteur":1,"Typologie":"Secteur","Shape_Length":0.00033047089142271898,"Shape_Area":5.3871666109006579e-09}},{"type":"Feature","id":44,"geometry":{"type":"Polygon","coordinates":[[[-1.6281180859999722,48.093679196000039,0],[-1.6281951589999721,48.093740558000036,0],[-1.6282156609999561,48.093728827000064,0],[-1.628138364999927,48.093666970000072,0],[-1.6281180859999722,48.093679196000039,0]]]},"properties":{"OBJECTID":44,"FID_TOUR_GALETTE_RDC":45,"Salle":"Escaliers","Etage":0,"Hauteur":1,"Typologie":"Se déplacer","Shape_Length":0.00024481681749257919,"Shape_Area":2.1808030388284551e-09}},{"type":"Feature","id":45,"geometry":{"type":"Polygon","coordinates":[[[-1.6287594809999746,48.09372404700008,0],[-1.6287448329999279,48.093733558000054,0],[-1.6287821089999284,48.093763078000052,0],[-1.6288422199999673,48.093729272000076,0],[-1.628804291999927,48.093698299000039,0],[-1.6287594809999746,48.09372404700008,0]]]},"properties":{"OBJECTID":45,"FID_TOUR_GALETTE_RDC":46,"Salle":"C Duprat","Etage":0,"Hauteur":1,"Typologie":"Bureau","Shape_Length":0.00023462872407874124,"Shape_Area":3.1312984264275496e-09}},{"type":"Feature","id":46,"geometry":{"type":"Polygon","coordinates":[[[-1.628804291999927,48.093698299000039,0],[-1.6287645739999448,48.093667570000036,0],[-1.6287056239999629,48.093700740000031,0],[-1.6287309969999342,48.093721852000044,0],[-1.6287463269999307,48.093713346000072,0],[-1.6287594809999746,48.09372404700008,0],[-1.6287606289999417,48.093723305000026,0],[-1.628804291999927,48.093698299000039,0]]]},"properties":{"OBJECTID":46,"FID_TOUR_GALETTE_RDC":47,"Salle":"N Le Gal - C Besnard","Etage":0,"Hauteur":1,"Typologie":"Bureau","Shape_Length":0.00023703862524616747,"Shape_Area":2.9130378917476548e-09}},{"type":"Feature","id":47,"geometry":{"type":"Polygon","coordinates":[[[-1.628604328999927,48.093704421000041,0],[-1.6286299519999261,48.09372525200007,0],[-1.6286511279999445,48.093712143000062,0],[-1.628652360999979,48.093712972000048,0],[-1.6286766829999806,48.093699156000071,0],[-1.6286502699999801,48.093678573000034,0],[-1.628604328999927,48.093704421000041,0]]]},"properties":{"OBJECTID":47,"FID_TOUR_GALETTE_RDC":48,"Salle":"Atelier Le Scoff","Etage":0,"Hauteur":1,"Typologie":"Atelier","Shape_Length":0.0001735846141682218,"Shape_Area":1.6238241919604081e-09}},{"type":"Feature","id":48,"geometry":{"type":"Polygon","coordinates":[[[-1.6285785649999411,48.093683905000034,0],[-1.628604328999927,48.093704421000041,0],[-1.6286502529999325,48.093678554000064,0],[-1.6286243889999241,48.09365772600006,0],[-1.6285785649999411,48.093683905000034,0]]]},"properties":{"OBJECTID":48,"FID_TOUR_GALETTE_RDC":49,"Salle":"C Poinsaint","Etage":0,"Hauteur":1,"Typologie":"Bureau","Shape_Length":0.00017162496905542013,"Shape_Area":1.6200650494035582e-09}},{"type":"Feature","id":49,"geometry":{"type":"Polygon","coordinates":[[[-1.6284077309999248,48.093761819000065,0],[-1.6284724999999298,48.093813534000049,0],[-1.6285033309999335,48.093796118000057,0],[-1.6285645859999249,48.093761441000026,0],[-1.6285649249999778,48.093761710000081,0],[-1.6286299519999261,48.09372525200007,0],[-1.6285641359999659,48.093673748000072,0],[-1.6285000669999476,48.093709815000068,0],[-1.6285128229999373,48.09372028000007,0],[-1.6285128029999782,48.093720287000053,0],[-1.6284505639999338,48.09375559700004,0],[-1.6284374769999772,48.093744991000051,0],[-1.6284077309999248,48.093761819000065,0]]]},"properties":{"OBJECTID":49,"FID_TOUR_GALETTE_RDC":50,"Salle":"Gestion de parc","Etage":0,"Hauteur":1,"Typologie":"Secteur","Shape_Length":0.00055985977590237252,"Shape_Area":1.2727305457962197e-08}},{"type":"Feature","id":50,"geometry":{"type":"Polygon","coordinates":[[[-1.6285641359999659,48.093673748000072,0],[-1.628577747999941,48.093684382000049,0],[-1.6285785649999411,48.093683905000034,0],[-1.6286243889999241,48.09365772600006,0],[-1.6285977379999395,48.093637154000078,0],[-1.628551042999959,48.093663324000033,0],[-1.6285362119999718,48.093671642000061,0],[-1.6285493119999614,48.093681802000049,0],[-1.6285641359999659,48.093673748000072,0]]]},"properties":{"OBJECTID":50,"FID_TOUR_GALETTE_RDC":51,"Salle":"C Thubert","Etage":0,"Hauteur":1,"Typologie":"Bureau","Shape_Length":0.00020864298792208321,"Shape_Area":1.9369483719669648e-09}},{"type":"Feature","id":51,"geometry":{"type":"Polygon","coordinates":[[[-1.6283982059999289,48.093712695000079,0],[-1.6284505639999338,48.09375559700004,0],[-1.6285128029999782,48.093720287000053,0],[-1.6284857539999393,48.093699229000038,0],[-1.6284591759999785,48.093678547000081,0],[-1.6283982059999289,48.093712695000079,0]]]},"properties":{"OBJECTID":51,"FID_TOUR_GALETTE_RDC":52,"Salle":"Convivialité","Etage":0,"Hauteur":1,"Typologie":"Repos","Shape_Length":0.00027708563252876238,"Shape_Area":4.4476666295950482e-09}},{"type":"Feature","id":52,"geometry":{"type":"Polygon","coordinates":[[[-1.6283982059999289,48.093712695000079,0],[-1.6283672339999384,48.093731184000035,0],[-1.6284077309999248,48.093761819000065,0],[-1.6284375089999799,48.093744928000035,0],[-1.6283982059999289,48.093712695000079,0]]]},"properties":{"OBJECTID":52,"FID_TOUR_GALETTE_RDC":53,"Salle":"Atelier l'odet","Etage":0,"Hauteur":1,"Typologie":"Atelier","Shape_Length":0.00017191493740235407,"Shape_Area":1.6606387505532649e-09}},{"type":"Feature","id":53,"geometry":{"type":"Polygon","coordinates":[[[-1.6284591759999785,48.093678547000081,0],[-1.6284857539999393,48.093699229000038,0],[-1.6285159789999284,48.093682084000079,0],[-1.6284901709999531,48.093661829000041,0],[-1.6284591759999785,48.093678547000081,0]]]},"properties":{"OBJECTID":53,"FID_TOUR_GALETTE_RDC":54,"Salle":"Atelier leguer","Etage":0,"Hauteur":1,"Typologie":"Atelier","Shape_Length":0.00013644954386730942,"Shape_Area":1.0700275634842261e-09}},{"type":"Feature","id":54,"geometry":{"type":"Polygon","coordinates":[[[-1.6285229839999715,48.093641110000078,0],[-1.628489793999961,48.093661280000049,0],[-1.6285159789999284,48.093682084000079,0],[-1.628551042999959,48.093663324000033,0],[-1.6285229839999715,48.093641110000078,0]]]},"properties":{"OBJECTID":54,"FID_TOUR_GALETTE_RDC":55,"Salle":"Atelier le couesnon","Etage":0,"Hauteur":1,"Typologie":"Atelier","Shape_Length":0.00014783651467357805,"Shape_Area":1.2619673729773001e-09}},{"type":"Feature","id":55,"geometry":{"type":"Polygon","coordinates":[[[-1.6285229839999715,48.093641110000078,0],[-1.628551042999959,48.093663324000033,0],[-1.6285977379999395,48.093637154000078,0],[-1.6285701659999745,48.093615300000067,0],[-1.6285229839999715,48.093641110000078,0]]]},"properties":{"OBJECTID":55,"FID_TOUR_GALETTE_RDC":56,"Salle":"S Messager","Etage":0,"Hauteur":1,"Typologie":"Bureau","Shape_Length":0.00017827890020244289,"Shape_Area":1.7571677519261692e-09}},{"type":"Feature","id":56,"geometry":{"type":"Polygon","coordinates":[[[-1.6283414559999301,48.093710527000042,0],[-1.6283144709999533,48.09368962700006,0],[-1.6282539189999738,48.093724010000074,0],[-1.6282804779999651,48.09374517100008,0],[-1.6283414559999301,48.093710527000042,0]]]},"properties":{"OBJECTID":56,"FID_TOUR_GALETTE_RDC":57,"Salle":"Salle belle ile","Etage":0,"Hauteur":1,"Typologie":"Réunion","Shape_Length":0.00020785547824931632,"Shape_Area":2.2019137536881294e-09}},{"type":"Feature","id":57,"geometry":{"type":"Polygon","coordinates":[[[-1.6283414559999301,48.093710527000042,0],[-1.6283542369999395,48.093719954000051,0],[-1.6283844319999616,48.09370302800005,0],[-1.6283314899999368,48.093662632000076,0],[-1.6283028189999413,48.093679129000066,0],[-1.6283414559999301,48.093710527000042,0]]]},"properties":{"OBJECTID":57,"FID_TOUR_GALETTE_RDC":58,"Salle":"Atelier le touques","Etage":0,"Hauteur":1,"Typologie":"Atelier","Shape_Length":0.0001999548294123395,"Shape_Area":2.0858283355845431e-09}},{"type":"Feature","id":58,"geometry":{"type":"Polygon","coordinates":[[[-1.6283314899999368,48.093662632000076,0],[-1.6283844319999616,48.09370302800005,0],[-1.6284166389999655,48.093685770000036,0],[-1.628363730999979,48.093643558000053,0],[-1.6283314899999368,48.093662632000076,0]]]},"properties":{"OBJECTID":58,"FID_TOUR_GALETTE_RDC":60,"Salle":"M Gerard","Etage":0,"Hauteur":1,"Typologie":"Bureau","Shape_Length":0.00020827744065297736,"Shape_Area":2.2924156473134709e-09}},{"type":"Feature","id":59,"geometry":{"type":"Polygon","coordinates":[[[-1.6292948799999749,48.094296296000039,29.69999999999709],[-1.629328715999975,48.094324535000055,59.399999999994179],[-1.629322325999965,48.094328392000079,59.399999999994179],[-1.6293642819999263,48.094361897000056,59.399999999994179],[-1.6294797719999679,48.094297863000065,59.399999999994179],[-1.6294349759999704,48.094262667000066,59.399999999994179],[-1.629425982999976,48.094267528000046,59.399999999994179],[-1.6293925949999561,48.094241317000069,29.69999999999709],[-1.6292951359999392,48.094296155000052,23.759999999994761],[-1.6293916389999481,48.094241888000056,29.69999999999709],[-1.6294540199999688,48.094293926000034,29.69999999999709],[-1.6293614809999326,48.094346347000055,29.69999999999709],[-1.6292951359999392,48.094296155000052,23.759999999994761],[-1.6292948799999749,48.094296296000039,29.69999999999709]]]},"properties":{"OBJECTID":59,"FID_TOUR_GALETTE_RDC":-1,"Salle":"Entrée","Etage":0,"Hauteur":0,"Typologie":"Autre","Shape_Length":0.00084053920066399438,"Shape_Area":3.0310134072904317e-09}},{"type":"Feature","id":60,"geometry":{"type":"MultiPolygon","coordinates":[[[[-1.6288710199999628,48.094355858000029,59.19999999999709],[-1.6289023329999281,48.094360036000069,72.80000000000291],[-1.6288355949999413,48.094396913000026,72.5],[-1.6289524739999592,48.094486965000044,72.69999999999709],[-1.6289844339999604,48.094468932000041,36.981400000004214],[-1.6289315089999263,48.094426941000052,0],[-1.6288998839999635,48.094445558000075,0],[-1.6288423289999514,48.094398554000065,0],[-1.6288743199999658,48.094381553000062,0],[-1.6289030499999626,48.094365370000048,0],[-1.6288993749999463,48.094362646000036,0],[-1.6290566069999386,48.094273846000078,0],[-1.6290362109999705,48.094258319000062,39.466700000004494],[-1.6288710199999628,48.094355858000029,59.19999999999709]]],[[[-1.6290566069999386,48.094273846000078,0],[-1.6290954329999749,48.094306590000031,0],[-1.6290587429999732,48.09427557500004,0],[-1.6290847249999274,48.094260772000041,0],[-1.629082336999943,48.09425850100007,0],[-1.6290846639999472,48.094260778000034,0],[-1.6290587049999772,48.094275577000076,0],[-1.6290566069999386,48.094273846000078,0]]],[[[-1.6291576969999255,48.09427043900007,0],[-1.6291797399999268,48.094287927000039,0],[-1.6291577189999771,48.094270417000075,0],[-1.6291576969999255,48.09427043900007,0]]],[[[-1.629082336999943,48.09425850100007,0],[-1.6291174299999511,48.094238525000037,0],[-1.6291577189999771,48.094270417000075,0],[-1.6291149399999654,48.094236400000057,0],[-1.6291174519999458,48.09423842700005,0],[-1.629082336999943,48.09425850100007,0]]],[[[-1.629149942999959,48.094218461000025,0],[-1.6291471199999705,48.094219987000031,0],[-1.6291441309999755,48.094217884000045,0],[-1.6291411429999698,48.094219599000041,0],[-1.6291873509999277,48.094255016000034,0],[-1.6292185889999473,48.094237259000067,0],[-1.6291838629999802,48.094207580000045,0],[-1.6292463209999255,48.094172357000048,0],[-1.6292964979999738,48.094211963000078,0],[-1.629257028999973,48.094180793000078,0],[-1.6292800479999414,48.094167619000075,0],[-1.6292972979999263,48.094181721000041,0],[-1.629303039999968,48.094178614000043,0],[-1.6293246749999639,48.094196302000057,0],[-1.6292964979999738,48.094211963000078,0],[-1.6293057799999247,48.094219294000027,0],[-1.629349809999951,48.094194579000032,0],[-1.629299944999957,48.094156672000054,0],[-1.6293342429999598,48.094136791000039,0],[-1.6293238449999308,48.094128428000033,0],[-1.6294024769999282,48.094084572000042,0],[-1.6295257109999284,48.094013251000035,0],[-1.6295558009999809,48.094037565000065,50.83520000000135],[-1.629520012999933,48.094007638000051,76],[-1.6293575859999692,48.094104165000033,75.69999999999709],[-1.6293175189999261,48.094092219000061,59.19999999999709],[-1.6291692749999243,48.09417975100007,39.466700000004494],[-1.6291895979999254,48.094196003000036,0],[-1.629149942999959,48.094218461000025,0]]],[[[-1.629089381999961,48.094226924000054,39.466700000004494],[-1.6291067499999485,48.094240887000069,0],[-1.629089712999928,48.094226728000081,39.466700000004494],[-1.629089381999961,48.094226924000054,39.466700000004494]]],[[[-1.6291302149999751,48.094202814000028,39.466700000004494],[-1.629149942999959,48.094218461000025,0],[-1.6291309889999752,48.094202357000029,39.466700000004494],[-1.6291302149999751,48.094202814000028,39.466700000004494]]]]},"properties":{"OBJECTID":60,"FID_TOUR_GALETTE_RDC":-1,"Salle":null,"Etage":0,"Hauteur":0,"Typologie":"","Shape_Length":0.0028743184693571255,"Shape_Area":1.8773544128006455e-08}},{"type":"Feature","id":61,"geometry":{"type":"MultiPolygon","coordinates":[[[[-1.6293175189999261,48.094092219000061,59.19999999999709],[-1.6284944089999271,48.093451232000064,59.69999999999709],[-1.6281533829999262,48.093639560000042,59.69999999999709],[-1.6280972639999618,48.093593403000057,59.69999999999709],[-1.6279841059999285,48.09365246200008,61.385599999994156],[-1.6281538269999487,48.093787324000061,60.899999999994179],[-1.6283578469999611,48.09395057100005,60.399999999994179],[-1.628405559999976,48.093988357000057,60.19999999999709],[-1.6288609249999695,48.094348143000047,59.19999999999709],[-1.6288710199999628,48.094355858000029,59.19999999999709],[-1.6290362109999705,48.094258319000062,39.466700000004494],[-1.6289994029999662,48.09423029800007,0],[-1.6290546769999423,48.094198997000035,0],[-1.629089381999961,48.094226924000054,39.466700000004494],[-1.629089712999928,48.094226728000081,39.466700000004494],[-1.629087325999933,48.094224746000066,0],[-1.6291285589999802,48.094201500000054,0],[-1.6291302149999751,48.094202814000028,39.466700000004494],[-1.6291309889999752,48.094202357000029,39.466700000004494],[-1.6291235989999677,48.094196079000028,0],[-1.6290962789999526,48.094174489000068,0],[-1.6291353909999771,48.094152469000051,0],[-1.6291622809999353,48.094174159000033,0],[-1.6291692749999243,48.09417975100007,39.466700000004494],[-1.6293175189999261,48.094092219000061,59.19999999999709]],[[-1.6288658349999423,48.09395188600007,0],[-1.6288744059999658,48.093946574000029,0],[-1.62892721999998,48.093988742000079,0],[-1.6288809139999785,48.094014042000026,0],[-1.628852970999958,48.093989953000062,0],[-1.6288880999999265,48.09396965500008,0],[-1.6288658349999423,48.09395188600007,0]],[[-1.6289337939999768,48.093912713000066,0],[-1.6289861469999778,48.093953955000075,0],[-1.6289454699999624,48.093977021000057,0],[-1.6288927739999508,48.09393521100003,0],[-1.6288685799999598,48.09391521200007,0],[-1.6289083969999751,48.093891717000076,0],[-1.6289337939999768,48.093912713000066,0]],[[-1.6284248149999598,48.093982284000049,0],[-1.6285465259999796,48.093912186000068,0],[-1.6286798769999677,48.094017711000049,0],[-1.6285566089999293,48.094087233000039,0],[-1.6284248149999598,48.093982284000049,0]],[[-1.6284549969999489,48.093841298000029,0],[-1.6285206859999448,48.093893269000034,0],[-1.6283992939999621,48.093961516000036,0],[-1.6282936969999469,48.093878275000066,0],[-1.6281633499999657,48.093775009000069,0],[-1.6280732659999444,48.093704456000069,0],[-1.6281180859999722,48.093679196000039,0],[-1.628138364999927,48.093666970000072,0],[-1.6282156609999561,48.093728827000064,0],[-1.6281951589999721,48.093740558000036,0],[-1.6282073599999762,48.093750278000073,0],[-1.628216532999943,48.093757931000027,0],[-1.6282325359999277,48.093748899000047,0],[-1.6282745119999618,48.09378300000003,0],[-1.6283370099999388,48.093747225000072,0],[-1.6283902479999597,48.093788754000059,0],[-1.6284160859999588,48.093810181000038,0],[-1.6284549969999489,48.093841298000029,0]],[[-1.62859427799998,48.093868945000054,0],[-1.62856411599995,48.093886410000039,0],[-1.6285254109999414,48.093855139000027,0],[-1.6285551279999595,48.093837834000055,0],[-1.6286323639999409,48.093794633000073,0],[-1.628670844999931,48.093825477000053,0],[-1.62859427799998,48.093868945000054,0]],[[-1.6285417669999447,48.09382793900005,0],[-1.6285112009999807,48.093845116000068,0],[-1.6284724999999298,48.093813534000049,0],[-1.6284077309999248,48.093761819000065,0],[-1.6283672339999384,48.093731184000035,0],[-1.6283982059999289,48.093712695000079,0],[-1.6284591759999785,48.093678547000081,0],[-1.6284901709999531,48.093661829000041,0],[-1.6285159789999284,48.093682084000079,0],[-1.628489793999961,48.093661280000049,0],[-1.6285229839999715,48.093641110000078,0],[-1.6285701659999745,48.093615300000067,0],[-1.6285977379999395,48.093637154000078,0],[-1.6286243889999241,48.09365772600006,0],[-1.6286502529999325,48.093678554000064,0],[-1.628604328999927,48.093704421000041,0],[-1.6286502699999801,48.093678573000034,0],[-1.6286766829999806,48.093699156000071,0],[-1.628652360999979,48.093712972000048,0],[-1.6286511279999445,48.093712143000062,0],[-1.6286784509999279,48.093733293000071,0],[-1.628675813999962,48.093753008000078,0],[-1.6286617999999748,48.093760921000069,0],[-1.6286239789999399,48.093781961000047,0],[-1.6285849499999472,48.093751222000037,0],[-1.6286224979999702,48.093729842000073,0],[-1.6286243029999241,48.093728769000052,0],[-1.6286511279999445,48.093712143000062,0],[-1.6286299519999261,48.09372525200007,0],[-1.6285649249999778,48.093761710000081,0],[-1.6286042959999349,48.09379300900008,0],[-1.6285417669999447,48.09382793900005,0]],[[-1.6283414559999301,48.093710527000042,0],[-1.6282804779999651,48.09374517100008,0],[-1.6282539189999738,48.093724010000074,0],[-1.6283144709999533,48.09368962700006,0],[-1.6283414559999301,48.093710527000042,0],[-1.6283028189999413,48.093679129000066,0],[-1.6283314899999368,48.093662632000076,0],[-1.628363730999979,48.093643558000053,0],[-1.6284166389999655,48.093685770000036,0],[-1.6283844319999616,48.09370302800005,0],[-1.6283542369999395,48.093719954000051,0],[-1.6283414559999301,48.093710527000042,0]],[[-1.6287594809999746,48.09372404700008,0],[-1.6287463269999307,48.093713346000072,0],[-1.6287309969999342,48.093721852000044,0],[-1.6287056239999629,48.093700740000031,0],[-1.6287645739999448,48.093667570000036,0],[-1.628804291999927,48.093698299000039,0],[-1.6288422199999673,48.093729272000076,0],[-1.6287821089999284,48.093763078000052,0],[-1.6287448329999279,48.093733558000054,0],[-1.6287594809999746,48.09372404700008,0]],[[-1.6287451219999411,48.093796305000069,0],[-1.628696735999938,48.093758137000066,0],[-1.6286991529999568,48.093738741000038,0],[-1.6287193419999539,48.093727834000049,0],[-1.6287832579999417,48.093779913000049,0],[-1.6287494399999787,48.093799721000039,0],[-1.6287738249999393,48.093785546000049,0],[-1.6287997689999543,48.093806469000072,0],[-1.6288263009999469,48.093827489000034,0],[-1.6287857019999592,48.09385052500005,0],[-1.6287594939999508,48.093829546000052,0],[-1.6287296839999499,48.09380541400003,0],[-1.6287451219999411,48.093796305000069,0]],[[-1.6287362229999758,48.094023588000027,0],[-1.6287587089999533,48.094010938000054,0],[-1.6288383829999589,48.094073974000025,0],[-1.6288152569999284,48.09408712700008,0],[-1.6287362229999758,48.094023588000027,0]],[[-1.6290646609999726,48.094016185000044,0],[-1.6290245249999771,48.094039137000038,0],[-1.6289994829999728,48.094017479000058,0],[-1.6290385839999431,48.093995410000048,0],[-1.6290646609999726,48.094016185000044,0],[-1.6290910509999321,48.094036863000042,0],[-1.6291171519999352,48.09405765300005,0],[-1.6291430339999806,48.094078538000076,0],[-1.6291033609999772,48.094101187000035,0],[-1.6290767709999727,48.094080561000055,0],[-1.6290530209999474,48.094060127000034,0],[-1.629054698999937,48.094058812000071,0],[-1.6290539239999475,48.094057947000067,0],[-1.6290521849999777,48.094056321000039,0],[-1.6290490589999536,48.094058646000065,0],[-1.6290245439999467,48.094039166000073,0],[-1.6290646609999726,48.094016185000044,0]],[[-1.6289345249999769,48.094053970000061,0],[-1.6289788729999373,48.094028971000057,0],[-1.6290310529999488,48.094070337000062,0],[-1.6289864999999395,48.094095568000057,0],[-1.6288834909999537,48.094153215000063,0],[-1.6288319239999396,48.094111794000071,0],[-1.6289345249999769,48.094053970000061,0]],[[-1.6289409649999698,48.094143820000056,0],[-1.6290292919999274,48.094094429000052,0],[-1.6290661209999371,48.094124719000035,0],[-1.6289757819999409,48.094175599000039,0],[-1.6289409649999698,48.094143820000056,0]],[[-1.6288770039999463,48.094228117000057,0],[-1.6288345389999677,48.09419444200006,0],[-1.628878585999928,48.094169627000042,0],[-1.6289169809999748,48.094205098000032,0],[-1.6288770039999463,48.094228117000057,0],[-1.628917089999959,48.094205142000078,0],[-1.6289433659999304,48.094226341000081,0],[-1.6289032839999322,48.094249227000034,0],[-1.6289433889999714,48.094226352000078,0],[-1.628969652999956,48.094246787000031,0],[-1.6289290839999353,48.094270112000061,0],[-1.6289032839999322,48.094249227000034,0],[-1.6288770039999463,48.094228117000057,0]],[[-1.6288385919999655,48.094143253000027,0],[-1.6288650419999726,48.09416402100004,0],[-1.6288242399999717,48.094186800000045,0],[-1.6287983739999277,48.094166174000065,0],[-1.6287720039999272,48.094145324000067,0],[-1.6288125009999703,48.094122132000052,0],[-1.6288385919999655,48.094143253000027,0]]],[[[-1.628326915999935,48.093823733000079,0],[-1.6283268969999654,48.093823739000072,0],[-1.6283532879999711,48.093845400000077,0],[-1.628326915999935,48.093823733000079,0]]],[[[-1.6284160859999588,48.093810181000038,0],[-1.6283532879999711,48.093845400000077,0],[-1.6283843509999656,48.093828259000077,0],[-1.6284160859999588,48.093810181000038,0]]],[[[-1.6283982059999289,48.093712695000079,0],[-1.6284375089999799,48.093744928000035,0],[-1.6284077309999248,48.093761819000065,0],[-1.6284374769999772,48.093744991000051,0],[-1.6284505639999338,48.09375559700004,0],[-1.6283982059999289,48.093712695000079,0]]],[[[-1.6285641359999659,48.093673748000072,0],[-1.6286299519999261,48.09372525200007,0],[-1.628604328999927,48.093704421000041,0],[-1.6285785649999411,48.093683905000034,0],[-1.628577747999941,48.093684382000049,0],[-1.6285641359999659,48.093673748000072,0]]],[[[-1.6284857539999393,48.093699229000038,0],[-1.6285128029999782,48.093720287000053,0],[-1.6285128229999373,48.09372028000007,0],[-1.6285000669999476,48.093709815000068,0],[-1.6285641359999659,48.093673748000072,0],[-1.6285493119999614,48.093681802000049,0],[-1.6285362119999718,48.093671642000061,0],[-1.628551042999959,48.093663324000033,0],[-1.6285159789999284,48.093682084000079,0],[-1.6284857539999393,48.093699229000038,0]]]]},"properties":{"OBJECTID":61,"FID_TOUR_GALETTE_RDC":-1,"Salle":"Open Space","Etage":0,"Hauteur":0,"Typologie":"Bureau","Shape_Length":0.011745918151329396,"Shape_Area":3.4449078998654773e-07}},{"type":"Feature","id":62,"geometry":{"type":"Polygon","coordinates":[[[-1.6287451219999411,48.093796305000069,0],[-1.6287483439999733,48.093798847000073,0],[-1.6287451579999583,48.093796284000064,0],[-1.6287451219999411,48.093796305000069,0]]]},"properties":{"OBJECTID":62,"FID_TOUR_GALETTE_RDC":30,"Salle":"Atelier grenat","Etage":0,"Hauteur":1,"Typologie":"Atelier","Shape_Length":8.2346621283050445e-06,"Shape_Area":7.9587030784470355e-14}},{"type":"Feature","id":63,"geometry":{"type":"Polygon","coordinates":[[[-1.6287451219999411,48.093796305000069,0],[-1.6287483439999733,48.093798847000073,0],[-1.6287451579999583,48.093796284000064,0],[-1.6287451219999411,48.093796305000069,0]]]},"properties":{"OBJECTID":63,"FID_TOUR_GALETTE_RDC":35,"Salle":"Escaliers","Etage":0,"Hauteur":1,"Typologie":"Se déplacer","Shape_Length":8.2346621283050445e-06,"Shape_Area":7.9587030784470355e-14}},{"type":"Feature","id":64,"geometry":{"type":"Polygon","coordinates":[[[-1.6285033309999335,48.093796118000057,0],[-1.6285034249999626,48.09379619200007,0],[-1.6285649249999778,48.093761710000081,0],[-1.6285645859999249,48.093761441000026,0],[-1.6285033309999335,48.093796118000057,0]]]},"properties":{"OBJECTID":64,"FID_TOUR_GALETTE_RDC":38,"Salle":"Salle segal","Etage":0,"Hauteur":1,"Typologie":"Réunion","Shape_Length":0.00014144895689819097,"Shape_Area":1.8012706490974871e-11}},{"type":"Feature","id":65,"geometry":{"type":"Polygon","coordinates":[[[-1.6285033309999335,48.093796118000057,0],[-1.6285034249999626,48.09379619200007,0],[-1.6285649249999778,48.093761710000081,0],[-1.6285645859999249,48.093761441000026,0],[-1.6285033309999335,48.093796118000057,0]]]},"properties":{"OBJECTID":65,"FID_TOUR_GALETTE_RDC":50,"Salle":"Gestion de parc","Etage":0,"Hauteur":1,"Typologie":"Secteur","Shape_Length":0.00014144895689819097,"Shape_Area":1.8012706490974871e-11}},{"type":"Feature","id":66,"geometry":{"type":"Polygon","coordinates":[[[-1.6285033309999335,48.093796118000057,0],[-1.6284724999999298,48.093813534000049,0],[-1.6285034249999626,48.09379619200007,0],[-1.6285033309999335,48.093796118000057,0]]]},"properties":{"OBJECTID":66,"FID_TOUR_GALETTE_RDC":39,"Salle":"Salle molène","Etage":0,"Hauteur":1,"Typologie":"Réunion","Shape_Length":7.098524035023624e-05,"Shape_Area":1.9592994570053732e-12}},{"type":"Feature","id":67,"geometry":{"type":"Polygon","coordinates":[[[-1.6285033309999335,48.093796118000057,0],[-1.6284724999999298,48.093813534000049,0],[-1.6285034249999626,48.09379619200007,0],[-1.6285033309999335,48.093796118000057,0]]]},"properties":{"OBJECTID":67,"FID_TOUR_GALETTE_RDC":50,"Salle":"Gestion de parc","Etage":0,"Hauteur":1,"Typologie":"Secteur","Shape_Length":7.098524035023624e-05,"Shape_Area":1.9592994570053732e-12}},{"type":"Feature","id":68,"geometry":{"type":"Polygon","coordinates":[[[-1.628804291999927,48.093698299000039,0],[-1.6287606289999417,48.093723305000026,0],[-1.6287594809999746,48.09372404700008,0],[-1.628804291999927,48.093698299000039,0]]]},"properties":{"OBJECTID":68,"FID_TOUR_GALETTE_RDC":46,"Salle":"C Duprat","Etage":0,"Hauteur":1,"Typologie":"Bureau","Shape_Length":0.00010336506828098185,"Shape_Area":1.8455305986512792e-12}},{"type":"Feature","id":69,"geometry":{"type":"Polygon","coordinates":[[[-1.628804291999927,48.093698299000039,0],[-1.6287606289999417,48.093723305000026,0],[-1.6287594809999746,48.09372404700008,0],[-1.628804291999927,48.093698299000039,0]]]},"properties":{"OBJECTID":69,"FID_TOUR_GALETTE_RDC":47,"Salle":"N Le Gal - C Besnard","Etage":0,"Hauteur":1,"Typologie":"Bureau","Shape_Length":0.00010336506828098185,"Shape_Area":1.8455305986512792e-12}}]}