{
"type": "FeatureCollection",
"name": "quai",
"crs": { "type": "name", "properties": { "name": "urn:ogc:def:crs:OGC:1.3:CRS84" } },
"features": [
{ "type": "Feature", "properties": { "Type_quai": " Stockage papier (SP1)", "Id_quai": "SP1", "Couleurs": "#f59300", "Longitude (X)": -1.627, "Latitude (Y)": 48.094, "Fid": 9 }, "geometry": { "type": "Point", "coordinates": [ -1.627164030846399, 48.094418374593701 ] } },
{ "type": "Feature", "properties": { "Type_quai": "Stockage papier (SP5)", "Id_quai": "SP5", "Couleurs": "#f59300", "Longitude (X)": -1.627, "Latitude (Y)": 48.094, "Fid": 11 }, "geometry": { "type": "Point", "coordinates": [ -1.626633378041764, 48.094146314714393 ] } },
{ "type": "Feature", "properties": { "Type_quai": "Encre couleur / Solvant", "Id_quai": "3", "Couleurs": "#5dbee1", "Longitude (X)": -1.628, "Latitude (Y)": 48.094, "Fid": 3 }, "geometry": { "type": "Point", "coordinates": [ -1.627693085624113, 48.093949472734273 ] } },
{ "type": "Feature", "properties": { "Type_quai": "Expéditions / Camions", "Id_quai": "5", "Couleurs": "#e74698", "Longitude (X)": -1.626, "Latitude (Y)": 48.093, "Fid": 4 }, "geometry": { "type": "Point", "coordinates": [ -1.626498777637787, 48.093359101693679 ] } },
{ "type": "Feature", "properties": { "Type_quai": "Expéditions Extension / Encre noire", "Id_quai": "6", "Couleurs": "#8f3db8", "Longitude (X)": -1.627, "Latitude (Y)": 48.093, "Fid": 5 }, "geometry": { "type": "Point", "coordinates": [ -1.626926532954601, 48.092987429938596 ] } },
{ "type": "Feature", "properties": { "Type_quai": "Plateforme de jour", "Id_quai": "7", "Couleurs": "#6fd4d3", "Longitude (X)": -1.628, "Latitude (Y)": 48.093, "Fid": 6 }, "geometry": { "type": "Point", "coordinates": [ -1.62773472552221, 48.092769988074402 ] } },
{ "type": "Feature", "properties": { "Type_quai": "Courrier", "Id_quai": "1", "Couleurs": "#fbe115", "Longitude (X)": -1.629, "Latitude (Y)": 48.094, "Fid": 1 }, "geometry": { "type": "Point", "coordinates": [ -1.628807899259527, 48.094354005722124 ] } },
{ "type": "Feature", "properties": { "Type_quai": "Réception marchandises / magasin maintenance", "Id_quai": "2", "Couleurs": "#a3d109", "Longitude (X)": -1.628, "Latitude (Y)": 48.094, "Fid": 2 }, "geometry": { "type": "Point", "coordinates": [ -1.627863430661783, 48.093769960201413 ] } },
{ "type": "Feature", "properties": { "Type_quai": "Stockage papier (SP2)", "Id_quai": "SP2", "Couleurs": "#f59300", "Longitude (X)": -1.627, "Latitude (Y)": 48.094, "Fid": 10 }, "geometry": { "type": "Point", "coordinates": [ -1.627098770714911, 48.094457666788017 ] } },
{ "type": "Feature", "properties": { "Type_quai": "Additi / DSI", "Id_quai": "8", "Couleurs": "#47c677", "Longitude (X)": -1.631, "Latitude (Y)": 48.094, "Fid": 7 }, "geometry": { "type": "Point", "coordinates": [ -1.630775894722633, 48.093575242501274 ] } },
{ "type": "Feature", "properties": { "Type_quai": "Additi / Accueil", "Id_quai": "9", "Couleurs": "#dc291a", "Longitude (X)": -1.631, "Latitude (Y)": 48.095, "Fid": 8 }, "geometry": { "type": "Point", "coordinates": [ -1.631230148156417, 48.094525896893167 ] } }
]
}
