{"type":"FeatureCollection","features":[{"type":"Feature","id":1,"geometry":{"type":"LineString","coordinates":[[-1.6295486804520776,48.094052758850246],[-1.6294695598966595,48.094095561574711],[-1.6294733000283639,48.094098473875164],[-1.6294591058675709,48.094106812936268],[-1.6294882593048541,48.094129243723913],[-1.6293254111864393,48.094221106532295],[-1.6293112776810561,48.094210741745719],[-1.6291953642825114,48.094274588389574]]},"properties":{"OBJECTID":1,"Shape_Length":41.289709460980063}}]}