{"type":"FeatureCollection","features":[{"type":"Feature","id":1,"geometry":{"type":"LineString","coordinates":[[-1.628965162280718,48.094440481122703],[-1.6289412415851565,48.09442116615287],[-1.6289896128973487,48.094393919556502],[-1.6289793174551428,48.094386309957777],[-1.6290796272503418,48.0943322344216],[-1.6292747348414804,48.094217386921592],[-1.6292632050002884,48.094207928425988],[-1.6292713346003447,48.094202627610962],[-1.6293001326880683,48.094224949823847],[-1.6293376983875341,48.09420079970581],[-1.6293517218141398,48.094210998452255],[-1.6294271225928318,48.094169137125242],[-1.6294084149871488,48.094152085306803],[-1.6294399235023198,48.094135405295532],[-1.6294570588582487,48.094147827120388],[-1.6294932028187268,48.094127446639128],[-1.6294578201352643,48.094099909154984],[-1.6295189730294448,48.094065254060602]]},"properties":{"OBJECTID":1,"Shape_Length":76.483144198867649}}]}