{"type":"FeatureCollection","features":[{"type":"Feature","id":1,"geometry":{"type":"LineString","coordinates":[[-1.6293595785200885,48.094166015299592],[-1.6293723480718623,48.094176504963386]]},"properties":{"OBJECTID":1,"Shape_Length":2.2532676598042345}},{"type":"Feature","id":2,"geometry":{"type":"LineString","coordinates":[[-1.6293723480718623,48.094176504963386],[-1.6293293654821432,48.094198885265598]]},"properties":{"OBJECTID":2,"Shape_Length":6.0669561596280879}},{"type":"Feature","id":3,"geometry":{"type":"LineString","coordinates":[[-1.6293723480718623,48.094176504963386],[-1.6294194467422149,48.094150444897842],[-1.6294101581621607,48.094143078189973]]},"properties":{"OBJECTID":3,"Shape_Length":8.4135842022822267}}]}