{"type":"FeatureCollection","features":[{"type":"Feature","id":1,"geometry":{"type":"LineString","coordinates":[[-1.6289362716969689,48.094412450134008],[-1.6292689016770079,48.094219200986849],[-1.629281573312398,48.094229780638514],[-1.6293248676175096,48.094205800771604],[-1.6293396511921423,48.094217710607552],[-1.6294311194509992,48.094163689729477],[-1.6293987854906735,48.094137387860442],[-1.6294311077729038,48.09416373112898],[-1.6294895979793826,48.094129629355507],[-1.6294621436676568,48.094104944450173],[-1.6294894713169252,48.094129622755609],[-1.6295702810649206,48.094083330898414],[-1.6295395721569443,48.094059353363207]]},"properties":{"OBJECTID":1,"Shape_Length":121.1086196084641}}]}