{"type":"FeatureCollection","features":[{"type":"Feature","id":1,"geometry":{"type":"LineString","coordinates":[[-1.6293383009999616,48.094264072000044],[-1.6292076529999804,48.094158711000034]]},"properties":{"OBJECTID":1,"Shape_Length":0.00016783873278291084}},{"type":"Feature","id":2,"geometry":{"type":"LineString","coordinates":[[-1.6293325089999371,48.094259402000034],[-1.6295971899999699,48.094110545000035]]},"properties":{"OBJECTID":2,"Shape_Length":0.00030366830296749711}},{"type":"Feature","id":3,"geometry":{"type":"LineString","coordinates":[[-1.6294810659999257,48.094175864000078],[-1.6294332409999583,48.094137032000049]]},"properties":{"OBJECTID":3,"Shape_Length":6.160482812400332e-05}},{"type":"Feature","id":4,"geometry":{"type":"LineString","coordinates":[[-1.6292638329999249,48.094133800000066],[-1.6289016529999572,48.094337938000081]]},"properties":{"OBJECTID":4,"Shape_Length":0.00041574833183889134}},{"type":"Feature","id":5,"geometry":{"type":"LineString","coordinates":[[-1.6290826059999404,48.094235948000062],[-1.6286519039999803,48.093892303000075]]},"properties":{"OBJECTID":5,"Shape_Length":0.00055099555241898965}},{"type":"Feature","id":6,"geometry":{"type":"LineString","coordinates":[[-1.6290239089999545,48.093848101000049],[-1.6285795829999756,48.094089924000059]]},"properties":{"OBJECTID":6,"Shape_Length":0.00050586950648485551}},{"type":"Feature","id":7,"geometry":{"type":"LineString","coordinates":[[-1.6289509509999789,48.094310153000038],[-1.6287108359999252,48.094118785000035],[-1.6288417719999302,48.094043959000032]]},"properties":{"OBJECTID":7,"Shape_Length":0.00045785385289781529}},{"type":"Feature","id":8,"geometry":{"type":"LineString","coordinates":[[-1.6289404489999697,48.093893527000034],[-1.6291484609999429,48.094060351000053]]},"properties":{"OBJECTID":8,"Shape_Length":0.00026664440574489766}},{"type":"Feature","id":9,"geometry":{"type":"LineString","coordinates":[[-1.628633400999945,48.094060639000077],[-1.6281772969999793,48.093688323000038]]},"properties":{"OBJECTID":9,"Shape_Length":0.00058876995734315121}},{"type":"Feature","id":10,"geometry":{"type":"LineString","coordinates":[[-1.6285195599999724,48.09396771400003],[-1.6288163759999748,48.093798873000026],[-1.6289404489999697,48.093893523000077]]},"properties":{"OBJECTID":10,"Shape_Length":0.00049753132072797527}},{"type":"Feature","id":11,"geometry":{"type":"LineString","coordinates":[[-1.6284074169999485,48.093648123000037],[-1.6286277909999285,48.093819318000044],[-1.6286416319999262,48.093813656000066],[-1.6287015729999439,48.093864178000047]]},"properties":{"OBJECTID":11,"Shape_Length":0.00037240320724951865}},{"type":"Feature","id":12,"geometry":{"type":"LineString","coordinates":[[-1.6288163759999748,48.09379887700004],[-1.6285240399999452,48.093567908000068]]},"properties":{"OBJECTID":12,"Shape_Length":0.00037256813586420816}},{"type":"Feature","id":13,"geometry":{"type":"LineString","coordinates":[[-1.6286098399999673,48.094041408000066],[-1.6285347069999716,48.094078749000062]]},"properties":{"OBJECTID":13,"Shape_Length":8.3900643436147631e-05}},{"type":"Feature","id":14,"geometry":{"type":"LineString","coordinates":[[-1.6284074189999274,48.093648124000026],[-1.6282834669999602,48.093545304000031]]},"properties":{"OBJECTID":14,"Shape_Length":0.00016104673450538344}}]}