{"type":"FeatureCollection","features":[{"type":"Feature","id":2,"geometry":{"type":"LineString","coordinates":[[-1.6289647770375653,48.094438382269061],[-1.6289217288708246,48.094405071463903],[-1.6290503496532047,48.094334242656977],[-1.6290587489011328,48.09434055455462],[-1.629275041661969,48.094220986561972],[-1.6292867170657113,48.094214268455268],[-1.6293085560085807,48.09423177201036],[-1.6293754176151773,48.094193173942529],[-1.6294261517674835,48.094163776128404],[-1.6294565274005037,48.094147174938875],[-1.6294252067398038,48.094164347921044],[-1.6294024865496484,48.094146591746181]]},"properties":{"OBJECTID":2,"Shape_Length":94.154109299480865}}]}