{"type":"FeatureCollection","features":[{"type":"Feature","id":1,"geometry":{"type":"LineString","coordinates":[[-1.6294301239999527,48.094337136000036],[-1.6292569809999691,48.094198157000051]]},"properties":{"OBJECTID":1,"Shape_Length":0.00022202175767277357}},{"type":"Feature","id":2,"geometry":{"type":"LineString","coordinates":[[-1.6294704069999284,48.094139469000027],[-1.6294125759999361,48.094174333000069],[-1.6294208029999595,48.094183475000079],[-1.629316805999963,48.094246170000076]]},"properties":{"OBJECTID":2,"Shape_Length":0.00020125924021002507}},{"type":"Feature","id":3,"geometry":{"type":"LineString","coordinates":[[-1.6293168879999484,48.094246166000062],[-1.6292682679999757,48.09427555700006]]},"properties":{"OBJECTID":3,"Shape_Length":5.6813161135818975e-05}},{"type":"Feature","id":4,"geometry":{"type":"LineString","coordinates":[[-1.6292823419999536,48.094218677000072],[-1.6289053079999576,48.094434230000047]]},"properties":{"OBJECTID":4,"Shape_Length":0.00043430143098014128}},{"type":"Feature","id":5,"geometry":{"type":"LineString","coordinates":[[-1.6291882009999767,48.094272499000056],[-1.6290441759999794,48.094160207000073],[-1.6289431119999449,48.094212551000055],[-1.6287120949999689,48.094022528000039],[-1.628574943999979,48.094101169000055]]},"properties":{"OBJECTID":5,"Shape_Length":0.00075366758461862778}},{"type":"Feature","id":6,"geometry":{"type":"LineString","coordinates":[[-1.6290441779999583,48.094160209000052],[-1.6291678479999518,48.094082707000041],[-1.6290378879999707,48.093975836000027],[-1.628978515999961,48.094014099000049],[-1.6291116939999597,48.094117912000058]]},"properties":{"OBJECTID":6,"Shape_Length":0.00055369976652407333}},{"type":"Feature","id":7,"geometry":{"type":"LineString","coordinates":[[-1.6289845849999551,48.094018879000032],[-1.6288223189999371,48.094112695000035]]},"properties":{"OBJECTID":7,"Shape_Length":0.00018743451287970612}},{"type":"Feature","id":8,"geometry":{"type":"LineString","coordinates":[[-1.6287943559999576,48.094090197000071],[-1.6287313369999765,48.094131555000047],[-1.6289311829999633,48.094285563000028],[-1.6289910269999268,48.094251205000035],[-1.6289431109999555,48.09421255400008]]},"properties":{"OBJECTID":8,"Shape_Length":0.00045824872886395695}},{"type":"Feature","id":9,"geometry":{"type":"LineString","coordinates":[[-1.6287120939999795,48.094022528000039],[-1.6288740989999724,48.093928751000078],[-1.6288563179999755,48.093912774000046],[-1.6289161029999377,48.093877212000052],[-1.6290378819999773,48.093975833000059]]},"properties":{"OBJECTID":9,"Shape_Length":0.00043736011632517326}},{"type":"Feature","id":10,"geometry":{"type":"LineString","coordinates":[[-1.6289785199999756,48.094014099000049],[-1.6288740979999261,48.093928753000057]]},"properties":{"OBJECTID":10,"Shape_Length":0.00013486249963909306}},{"type":"Feature","id":11,"geometry":{"type":"LineString","coordinates":[[-1.6291116809999266,48.094117906000065],[-1.6291677879999611,48.094161818000032],[-1.6292281849999313,48.094124372000067],[-1.6291678479999518,48.094082711000055]]},"properties":{"OBJECTID":11,"Shape_Length":0.00021563375091850019}},{"type":"Feature","id":12,"geometry":{"type":"LineString","coordinates":[[-1.6287120959999584,48.094022528000039],[-1.6285530419999645,48.09389135400005],[-1.6284183679999273,48.093979825000076]]},"properties":{"OBJECTID":12,"Shape_Length":0.00036730102459906828}},{"type":"Feature","id":13,"geometry":{"type":"LineString","coordinates":[[-1.6285528489999592,48.09389139600006],[-1.6285150999999587,48.093858626000042],[-1.628676157999962,48.093766823000067],[-1.6288563219999332,48.093912775000035]]},"properties":{"OBJECTID":13,"Shape_Length":0.00046723755140890607}},{"type":"Feature","id":14,"geometry":{"type":"LineString","coordinates":[[-1.6286761609999303,48.093766825000046],[-1.6286929409999402,48.093755066000028],[-1.6287019599999439,48.093703269000059],[-1.6285730559999365,48.093602267000051],[-1.6283560049999437,48.09373501400006],[-1.6285151009999481,48.093858624000063]]},"properties":{"OBJECTID":14,"Shape_Length":0.00069272595939988044}},{"type":"Feature","id":15,"geometry":{"type":"LineString","coordinates":[[-1.6283560099999477,48.09373501400006],[-1.6282881049999673,48.093771816000071],[-1.6281610629999363,48.09366487300008]]},"properties":{"OBJECTID":15,"Shape_Length":0.00024329815572779229}},{"type":"Feature","id":16,"geometry":{"type":"LineString","coordinates":[[-1.6282400609999286,48.093731347000073],[-1.6282102819999409,48.093747866000058]]},"properties":{"OBJECTID":16,"Shape_Length":3.4053872037754155e-05}},{"type":"Feature","id":17,"geometry":{"type":"LineString","coordinates":[[-1.6284420439999394,48.093682391000073],[-1.628382227999964,48.093629521000025],[-1.6282880089999594,48.093686294000065]]},"properties":{"OBJECTID":17,"Shape_Length":0.00018983405499770767}},{"type":"Feature","id":18,"geometry":{"type":"LineString","coordinates":[[-1.6283822309999323,48.093629520000036],[-1.6285042289999296,48.09354899200008],[-1.6285730529999682,48.093602267000051]]},"properties":{"OBJECTID":18,"Shape_Length":0.00023321319547182692}},{"type":"Feature","id":19,"geometry":{"type":"LineString","coordinates":[[-1.6286985559999607,48.093700584000032],[-1.6287957599999459,48.093642454000076]]},"properties":{"OBJECTID":19,"Shape_Length":0.00011325950074089174}}]}