{
"type": "FeatureCollection",
"name": "COLIN_ARBRES_SIPA",
"crs": { "type": "name", "properties": { "name": "urn:ogc:def:crs:OGC:1.3:CRS84" } },
"features": [
{ "type": "Feature", "properties": { "id": 0, "TAILLE": null }, "geometry": { "type": "Point", "coordinates": [ -1.629697123892728, 48.093227680749479 ] } },
{ "type": "Feature", "properties": { "id": 1, "TAILLE": null }, "geometry": { "type": "Point", "coordinates": [ -1.629623351483737, 48.093209237647244 ] } },
{ "type": "Feature", "properties": { "id": 2, "TAILLE": null }, "geometry": { "type": "Point", "coordinates": [ -1.629543904274053, 48.093163839241711 ] } },
{ "type": "Feature", "properties": { "id": 3, "TAILLE": null }, "geometry": { "type": "Point", "coordinates": [ -1.629507018069557, 48.093217749848279 ] } },
{ "type": "Feature", "properties": { "id": 4, "TAILLE": null }, "geometry": { "type": "Point", "coordinates": [ -1.629385009854686, 48.09313262783791 ] } },
{ "type": "Feature", "properties": { "id": 5, "TAILLE": null }, "geometry": { "type": "Point", "coordinates": [ -1.629731172696878, 48.0935156768846 ] } },
{ "type": "Feature", "properties": { "id": 6, "TAILLE": null }, "geometry": { "type": "Point", "coordinates": [ -1.629606327081661, 48.093475953279757 ] } },
{ "type": "Feature", "properties": { "id": 7, "TAILLE": null }, "geometry": { "type": "Point", "coordinates": [ -1.629668749889269, 48.09342204267319 ] } },
{ "type": "Feature", "properties": { "id": 8, "TAILLE": null }, "geometry": { "type": "Point", "coordinates": [ -1.629543904274053, 48.093405018271113 ] } },
{ "type": "Feature", "properties": { "id": 9, "TAILLE": null }, "geometry": { "type": "Point", "coordinates": [ -1.629421896059182, 48.093450416676646 ] } },
{ "type": "Feature", "properties": { "id": 10, "TAILLE": null }, "geometry": { "type": "Point", "coordinates": [ -1.629350961050536, 48.093407855671458 ] } },
{ "type": "Feature", "properties": { "id": 11, "TAILLE": null }, "geometry": { "type": "Point", "coordinates": [ -1.629297050443965, 48.093376644267657 ] } },
{ "type": "Feature", "properties": { "id": 12, "TAILLE": null }, "geometry": { "type": "Point", "coordinates": [ -1.629234627636357, 48.093348270264194 ] } },
{ "type": "Feature", "properties": { "id": 13, "TAILLE": null }, "geometry": { "type": "Point", "coordinates": [ -1.629138156024599, 48.093331245862124 ] } },
{ "type": "Feature", "properties": { "id": 14, "TAILLE": null }, "geometry": { "type": "Point", "coordinates": [ -1.62932826184777, 48.093280172655895 ] } },
{ "type": "Feature", "properties": { "id": 15, "TAILLE": null }, "geometry": { "type": "Point", "coordinates": [ -1.62926016423947, 48.093234774250362 ] } },
{ "type": "Feature", "properties": { "id": 16, "TAILLE": null }, "geometry": { "type": "Point", "coordinates": [ -1.629197741431861, 48.09328301005624 ] } },
{ "type": "Feature", "properties": { "id": 17, "TAILLE": null }, "geometry": { "type": "Point", "coordinates": [ -1.629135318624253, 48.09326598565417 ] } },
{ "type": "Feature", "properties": { "id": 18, "TAILLE": null }, "geometry": { "type": "Point", "coordinates": [ -1.62919206663117, 48.093178026243443 ] } },
{ "type": "Feature", "properties": { "id": 19, "TAILLE": null }, "geometry": { "type": "Point", "coordinates": [ -1.629118294222178, 48.093203562846561 ] } },
{ "type": "Feature", "properties": { "id": 20, "TAILLE": null }, "geometry": { "type": "Point", "coordinates": [ -1.62919206663117, 48.093107091234799 ] } },
{ "type": "Feature", "properties": { "id": 21, "TAILLE": null }, "geometry": { "type": "Point", "coordinates": [ -1.629189229230824, 48.093016294423734 ] } },
{ "type": "Feature", "properties": { "id": 22, "TAILLE": null }, "geometry": { "type": "Point", "coordinates": [ -1.629155180426674, 48.092925497612669 ] } },
{ "type": "Feature", "properties": { "id": 23, "TAILLE": null }, "geometry": { "type": "Point", "coordinates": [ -1.629112619421486, 48.093081554631688 ] } },
{ "type": "Feature", "properties": { "id": 24, "TAILLE": null }, "geometry": { "type": "Point", "coordinates": [ -1.629044521813187, 48.093050343227887 ] } },
{ "type": "Feature", "properties": { "id": 25, "TAILLE": null }, "geometry": { "type": "Point", "coordinates": [ -1.628993448606961, 48.093030481425465 ] } },
{ "type": "Feature", "properties": { "id": 26, "TAILLE": null }, "geometry": { "type": "Point", "coordinates": [ -1.628936700600045, 48.093050343227887 ] } },
{ "type": "Feature", "properties": { "id": 27, "TAILLE": null }, "geometry": { "type": "Point", "coordinates": [ -1.628922513598316, 48.093115603435841 ] } },
{ "type": "Feature", "properties": { "id": 28, "TAILLE": null }, "geometry": { "type": "Point", "coordinates": [ -1.628840228988287, 48.093197888045864 ] } },
{ "type": "Feature", "properties": { "id": 29, "TAILLE": null }, "geometry": { "type": "Point", "coordinates": [ -1.628916838797624, 48.093214912447941 ] } },
{ "type": "Feature", "properties": { "id": 30, "TAILLE": null }, "geometry": { "type": "Point", "coordinates": [ -1.628984936405924, 48.093231936850017 ] } },
{ "type": "Feature", "properties": { "id": 31, "TAILLE": null }, "geometry": { "type": "Point", "coordinates": [ -1.629050196613878, 48.093246123851749 ] } },
{ "type": "Feature", "properties": { "id": 32, "TAILLE": null }, "geometry": { "type": "Point", "coordinates": [ -1.629047359213532, 48.092908473210592 ] } },
{ "type": "Feature", "properties": { "id": 33, "TAILLE": null }, "geometry": { "type": "Point", "coordinates": [ -1.628984936405924, 48.092860237404714 ] } },
{ "type": "Feature", "properties": { "id": 34, "TAILLE": null }, "geometry": { "type": "Point", "coordinates": [ -1.628950887601774, 48.092919822811979 ] } },
{ "type": "Feature", "properties": { "id": 35, "TAILLE": null }, "geometry": { "type": "Point", "coordinates": [ -1.628950887601774, 48.092979408219236 ] } },
{ "type": "Feature", "properties": { "id": 36, "TAILLE": null }, "geometry": { "type": "Point", "coordinates": [ -1.629070058416299, 48.092982245619581 ] } },
{ "type": "Feature", "properties": { "id": 37, "TAILLE": null }, "geometry": { "type": "Point", "coordinates": [ -1.628891302194512, 48.092999270021657 ] } },
{ "type": "Feature", "properties": { "id": 38, "TAILLE": null }, "geometry": { "type": "Point", "coordinates": [ -1.628814692385174, 48.093053180628232 ] } },
{ "type": "Feature", "properties": { "id": 39, "TAILLE": null }, "geometry": { "type": "Point", "coordinates": [ -1.628786318381716, 48.093178026243443 ] } },
{ "type": "Feature", "properties": { "id": 40, "TAILLE": null }, "geometry": { "type": "Point", "coordinates": [ -1.628704033771687, 48.093129790437565 ] } },
{ "type": "Feature", "properties": { "id": 41, "TAILLE": null }, "geometry": { "type": "Point", "coordinates": [ -1.62864728576477, 48.093336920662814 ] } },
{ "type": "Feature", "properties": { "id": 42, "TAILLE": null }, "geometry": { "type": "Point", "coordinates": [ -1.628499740946787, 48.093288684856937 ] } },
{ "type": "Feature", "properties": { "id": 43, "TAILLE": null }, "geometry": { "type": "Point", "coordinates": [ -1.628386244932954, 48.093248961252094 ] } },
{ "type": "Feature", "properties": { "id": 44, "TAILLE": null }, "geometry": { "type": "Point", "coordinates": [ -1.628250049716354, 48.093197888045864 ] } },
{ "type": "Feature", "properties": { "id": 45, "TAILLE": null }, "geometry": { "type": "Point", "coordinates": [ -1.628125204101137, 48.093197888045864 ] } },
{ "type": "Feature", "properties": { "id": 46, "TAILLE": null }, "geometry": { "type": "Point", "coordinates": [ -1.628136553702521, 48.093124115636876 ] } },
{ "type": "Feature", "properties": { "id": 47, "TAILLE": null }, "geometry": { "type": "Point", "coordinates": [ -1.628675659768228, 48.092987920420278 ] } },
{ "type": "Feature", "properties": { "id": 48, "TAILLE": null }, "geometry": { "type": "Point", "coordinates": [ -1.628732407775145, 48.092948196815435 ] } },
{ "type": "Feature", "properties": { "id": 49, "TAILLE": null }, "geometry": { "type": "Point", "coordinates": [ -1.628854415990016, 48.092885774007826 ] } },
{ "type": "Feature", "properties": { "id": 50, "TAILLE": null }, "geometry": { "type": "Point", "coordinates": [ -1.628593375158199, 48.093095741633419 ] } },
{ "type": "Feature", "properties": { "id": 51, "TAILLE": null }, "geometry": { "type": "Point", "coordinates": [ -1.628482716544712, 48.093075879830998 ] } },
{ "type": "Feature", "properties": { "id": 52, "TAILLE": null }, "geometry": { "type": "Point", "coordinates": [ -1.628420293737104, 48.093070205030308 ] } },
{ "type": "Feature", "properties": { "id": 53, "TAILLE": null }, "geometry": { "type": "Point", "coordinates": [ -1.628454342541254, 48.092925497612669 ] } },
{ "type": "Feature", "properties": { "id": 54, "TAILLE": null }, "geometry": { "type": "Point", "coordinates": [ -1.628485553945058, 48.092797814597105 ] } },
{ "type": "Feature", "properties": { "id": 55, "TAILLE": null }, "geometry": { "type": "Point", "coordinates": [ -1.628596212558545, 48.092823351200217 ] } },
{ "type": "Feature", "properties": { "id": 56, "TAILLE": null }, "geometry": { "type": "Point", "coordinates": [ -1.628669984967537, 48.092908473210592 ] } },
{ "type": "Feature", "properties": { "id": 57, "TAILLE": null }, "geometry": { "type": "Point", "coordinates": [ -1.628593375158199, 48.092962383817166 ] } },
{ "type": "Feature", "properties": { "id": 58, "TAILLE": null }, "geometry": { "type": "Point", "coordinates": [ -1.628675659768229, 48.092411928150064 ] } },
{ "type": "Feature", "properties": { "id": 59, "TAILLE": null }, "geometry": { "type": "Point", "coordinates": [ -1.628621749161658, 48.092383554146608 ] } },
{ "type": "Feature", "properties": { "id": 60, "TAILLE": null }, "geometry": { "type": "Point", "coordinates": [ -1.628539464551629, 48.092369367144876 ] } },
{ "type": "Feature", "properties": { "id": 61, "TAILLE": null }, "geometry": { "type": "Point", "coordinates": [ -1.628417456336758, 48.09234666794211 ] } },
{ "type": "Feature", "properties": { "id": 62, "TAILLE": null }, "geometry": { "type": "Point", "coordinates": [ -1.62828693592085, 48.09234099314142 ] } },
{ "type": "Feature", "properties": { "id": 63, "TAILLE": null }, "geometry": { "type": "Point", "coordinates": [ -1.628181952108054, 48.09233531834073 ] } },
{ "type": "Feature", "properties": { "id": 64, "TAILLE": null }, "geometry": { "type": "Point", "coordinates": [ -1.628079805695604, 48.092360854943841 ] } },
{ "type": "Feature", "properties": { "id": 65, "TAILLE": null }, "geometry": { "type": "Point", "coordinates": [ -1.627977659283154, 48.092369367144876 ] } },
{ "type": "Feature", "properties": { "id": 66, "TAILLE": null }, "geometry": { "type": "Point", "coordinates": [ -1.627710943650646, 48.092468676156983 ] } },
{ "type": "Feature", "properties": { "id": 67, "TAILLE": null }, "geometry": { "type": "Point", "coordinates": [ -1.6279123990752, 48.092624733176002 ] } },
{ "type": "Feature", "properties": { "id": 68, "TAILLE": null }, "geometry": { "type": "Point", "coordinates": [ -1.628057106492838, 48.09258500957116 ] } },
{ "type": "Feature", "properties": { "id": 69, "TAILLE": null }, "geometry": { "type": "Point", "coordinates": [ -1.628216000912204, 48.092610546174271 ] } },
{ "type": "Feature", "properties": { "id": 70, "TAILLE": null }, "geometry": { "type": "Point", "coordinates": [ -1.627989008884538, 48.092653107179459 ] } },
{ "type": "Feature", "properties": { "id": 71, "TAILLE": null }, "geometry": { "type": "Point", "coordinates": [ -1.628113854499754, 48.0926616193805 ] } },
{ "type": "Feature", "properties": { "id": 72, "TAILLE": null }, "geometry": { "type": "Point", "coordinates": [ -1.628196139109783, 48.092743903990524 ] } },
{ "type": "Feature", "properties": { "id": 73, "TAILLE": null }, "geometry": { "type": "Point", "coordinates": [ -1.628051431692146, 48.092732554389144 ] } },
{ "type": "Feature", "properties": { "id": 74, "TAILLE": null }, "geometry": { "type": "Point", "coordinates": [ -1.627954960080388, 48.092715529987068 ] } },
{ "type": "Feature", "properties": { "id": 75, "TAILLE": null }, "geometry": { "type": "Point", "coordinates": [ -1.627847138867246, 48.09266729418119 ] } },
{ "type": "Feature", "properties": { "id": 76, "TAILLE": null }, "geometry": { "type": "Point", "coordinates": [ -1.627997521085575, 48.092797814597098 ] } },
{ "type": "Feature", "properties": { "id": 77, "TAILLE": null }, "geometry": { "type": "Point", "coordinates": [ -1.628057106492838, 48.092857400004362 ] } },
{ "type": "Feature", "properties": { "id": 78, "TAILLE": null }, "geometry": { "type": "Point", "coordinates": [ -1.628130878901829, 48.092914148011275 ] } },
{ "type": "Feature", "properties": { "id": 79, "TAILLE": null }, "geometry": { "type": "Point", "coordinates": [ -1.628272748919121, 48.092914148011275 ] } },
{ "type": "Feature", "properties": { "id": 80, "TAILLE": null }, "geometry": { "type": "Point", "coordinates": [ -1.628298285522233, 48.092789302396056 ] } },
{ "type": "Feature", "properties": { "id": 81, "TAILLE": null }, "geometry": { "type": "Point", "coordinates": [ -1.628377732731916, 48.092851725203666 ] } },
{ "type": "Feature", "properties": { "id": 82, "TAILLE": null }, "geometry": { "type": "Point", "coordinates": [ -1.628301122922579, 48.093041831026838 ] } },
{ "type": "Feature", "properties": { "id": 83, "TAILLE": null }, "geometry": { "type": "Point", "coordinates": [ -1.628238700114971, 48.093345432863842 ] } },
{ "type": "Feature", "properties": { "id": 84, "TAILLE": null }, "geometry": { "type": "Point", "coordinates": [ -1.630402217878667, 48.093226262049306 ] } },
{ "type": "Feature", "properties": { "id": 85, "TAILLE": null }, "geometry": { "type": "Point", "coordinates": [ -1.630300071466217, 48.093152489640318 ] } },
{ "type": "Feature", "properties": { "id": 86, "TAILLE": null }, "geometry": { "type": "Point", "coordinates": [ -1.63034546987175, 48.093124115636854 ] } },
{ "type": "Feature", "properties": { "id": 87, "TAILLE": null }, "geometry": { "type": "Point", "coordinates": [ -1.63036958777469, 48.093064530229597 ] } },
{ "type": "Feature", "properties": { "id": 88, "TAILLE": null }, "geometry": { "type": "Point", "coordinates": [ -1.630392286977457, 48.093010619623023 ] } },
{ "type": "Feature", "properties": { "id": 89, "TAILLE": null }, "geometry": { "type": "Point", "coordinates": [ -1.630529900894229, 48.093004944822333 ] } },
{ "type": "Feature", "properties": { "id": 90, "TAILLE": null }, "geometry": { "type": "Point", "coordinates": [ -1.630440522783336, 48.093138302638586 ] } },
{ "type": "Feature", "properties": { "id": 91, "TAILLE": null }, "geometry": { "type": "Point", "coordinates": [ -1.630501526890771, 48.093152489640318 ] } },
{ "type": "Feature", "properties": { "id": 92, "TAILLE": null }, "geometry": { "type": "Point", "coordinates": [ -1.630458965885583, 48.09319221324516 ] } },
{ "type": "Feature", "properties": { "id": 93, "TAILLE": null }, "geometry": { "type": "Point", "coordinates": [ -1.630517132592673, 48.093199306746023 ] } },
{ "type": "Feature", "properties": { "id": 94, "TAILLE": null }, "geometry": { "type": "Point", "coordinates": [ -1.6305157138925, 48.093273079155011 ] } },
{ "type": "Feature", "properties": { "id": 95, "TAILLE": null }, "geometry": { "type": "Point", "coordinates": [ -1.630619279005123, 48.093139721338758 ] } },
{ "type": "Feature", "properties": { "id": 96, "TAILLE": null }, "geometry": { "type": "Point", "coordinates": [ -1.630715750616881, 48.093149652239973 ] } },
{ "type": "Feature", "properties": { "id": 97, "TAILLE": null }, "geometry": { "type": "Point", "coordinates": [ -1.630629209906333, 48.093183701044119 ] } },
{ "type": "Feature", "properties": { "id": 98, "TAILLE": null }, "geometry": { "type": "Point", "coordinates": [ -1.630734193719129, 48.093182282343946 ] } },
{ "type": "Feature", "properties": { "id": 99, "TAILLE": null }, "geometry": { "type": "Point", "coordinates": [ -1.630639140807544, 48.093231936849996 ] } },
{ "type": "Feature", "properties": { "id": 100, "TAILLE": null }, "geometry": { "type": "Point", "coordinates": [ -1.630554018797169, 48.093224843349134 ] } },
{ "type": "Feature", "properties": { "id": 101, "TAILLE": null }, "geometry": { "type": "Point", "coordinates": [ -1.630802291327429, 48.093132627837896 ] } },
{ "type": "Feature", "properties": { "id": 102, "TAILLE": null }, "geometry": { "type": "Point", "coordinates": [ -1.630836340131579, 48.093173770142911 ] } },
{ "type": "Feature", "properties": { "id": 103, "TAILLE": null }, "geometry": { "type": "Point", "coordinates": [ -1.63089025073815, 48.093243286451383 ] } },
{ "type": "Feature", "properties": { "id": 104, "TAILLE": null }, "geometry": { "type": "Point", "coordinates": [ -1.630920043441781, 48.093294359657612 ] } },
{ "type": "Feature", "properties": { "id": 105, "TAILLE": null }, "geometry": { "type": "Point", "coordinates": [ -1.630951254845585, 48.093362457265911 ] } },
{ "type": "Feature", "properties": { "id": 106, "TAILLE": null }, "geometry": { "type": "Point", "coordinates": [ -1.630799453927083, 48.093273079155018 ] } },
{ "type": "Feature", "properties": { "id": 107, "TAILLE": null }, "geometry": { "type": "Point", "coordinates": [ -1.631087450062185, 48.093705782707765 ] } },
{ "type": "Feature", "properties": { "id": 108, "TAILLE": null }, "geometry": { "type": "Point", "coordinates": [ -1.631144198069102, 48.093832047023156 ] } },
{ "type": "Feature", "properties": { "id": 109, "TAILLE": null }, "geometry": { "type": "Point", "coordinates": [ -1.631392470599362, 48.094639287421529 ] } },
{ "type": "Feature", "properties": { "id": 110, "TAILLE": null }, "geometry": { "type": "Point", "coordinates": [ -1.631471917809045, 48.094693198028097 ] } },
{ "type": "Feature", "properties": { "id": 111, "TAILLE": null }, "geometry": { "type": "Point", "coordinates": [ -1.631602438224953, 48.095019499067867 ] } },
{ "type": "Feature", "properties": { "id": 112, "TAILLE": null }, "geometry": { "type": "Point", "coordinates": [ -1.630169551050309, 48.093935612135766 ] } },
{ "type": "Feature", "properties": { "id": 113, "TAILLE": null }, "geometry": { "type": "Point", "coordinates": [ -1.630098616041663, 48.094083156953751 ] } },
{ "type": "Feature", "properties": { "id": 114, "TAILLE": null }, "geometry": { "type": "Point", "coordinates": [ -1.630058892436822, 48.094171116364471 ] } },
{ "type": "Feature", "properties": { "id": 115, "TAILLE": null }, "geometry": { "type": "Point", "coordinates": [ -1.630033355833709, 48.094281774977944 ] } },
{ "type": "Feature", "properties": { "id": 116, "TAILLE": null }, "geometry": { "type": "Point", "coordinates": [ -1.630061729837167, 48.094574027213568 ] } },
{ "type": "Feature", "properties": { "id": 117, "TAILLE": null }, "geometry": { "type": "Point", "coordinates": [ -1.630169551050308, 48.094576864613913 ] } },
{ "type": "Feature", "properties": { "id": 118, "TAILLE": null }, "geometry": { "type": "Point", "coordinates": [ -1.630203599854458, 48.094701710229131 ] } },
{ "type": "Feature", "properties": { "id": 119, "TAILLE": null }, "geometry": { "type": "Point", "coordinates": [ -1.630019168831979, 48.094713059830518 ] } },
{ "type": "Feature", "properties": { "id": 120, "TAILLE": null }, "geometry": { "type": "Point", "coordinates": [ -1.629931209421259, 48.094599563816679 ] } },
{ "type": "Feature", "properties": { "id": 121, "TAILLE": null }, "geometry": { "type": "Point", "coordinates": [ -1.629769477601546, 48.094574027213568 ] } },
{ "type": "Feature", "properties": { "id": 122, "TAILLE": null }, "geometry": { "type": "Point", "coordinates": [ -1.629326843147597, 48.094586795515113 ] } },
{ "type": "Feature", "properties": { "id": 123, "TAILLE": null }, "geometry": { "type": "Point", "coordinates": [ -1.628718220773415, 48.094592470315817 ] } },
{ "type": "Feature", "properties": { "id": 124, "TAILLE": null }, "geometry": { "type": "Point", "coordinates": [ -1.628699777671168, 48.094576864613913 ] } },
{ "type": "Feature", "properties": { "id": 125, "TAILLE": null }, "geometry": { "type": "Point", "coordinates": [ -1.628667147567191, 48.094538559709243 ] } },
{ "type": "Feature", "properties": { "id": 126, "TAILLE": null }, "geometry": { "type": "Point", "coordinates": [ -1.628611818260447, 48.094500254804572 ] } },
{ "type": "Feature", "properties": { "id": 127, "TAILLE": null }, "geometry": { "type": "Point", "coordinates": [ -1.628411781536066, 48.094324335983138 ] } },
{ "type": "Feature", "properties": { "id": 128, "TAILLE": null }, "geometry": { "type": "Point", "coordinates": [ -1.628332334326383, 48.09425623837484 ] } },
{ "type": "Feature", "properties": { "id": 129, "TAILLE": null }, "geometry": { "type": "Point", "coordinates": [ -1.628240118815143, 48.094188140766533 ] } },
{ "type": "Feature", "properties": { "id": 130, "TAILLE": null }, "geometry": { "type": "Point", "coordinates": [ -1.628018801588168, 48.094036339848024 ] } },
{ "type": "Feature", "properties": { "id": 131, "TAILLE": null }, "geometry": { "type": "Point", "coordinates": [ -1.627865581969494, 48.093893051130557 ] } },
{ "type": "Feature", "properties": { "id": 132, "TAILLE": null }, "geometry": { "type": "Point", "coordinates": [ -1.62742578491589, 48.092575078669917 ] } },
{ "type": "Feature", "properties": { "id": 133, "TAILLE": null }, "geometry": { "type": "Point", "coordinates": [ -1.627442809317965, 48.092518330663005 ] } },
{ "type": "Feature", "properties": { "id": 134, "TAILLE": null }, "geometry": { "type": "Point", "coordinates": [ -1.626580239612832, 48.092878680506921 ] } },
{ "type": "Feature", "properties": { "id": 135, "TAILLE": null }, "geometry": { "type": "Point", "coordinates": [ -1.626466743598999, 48.092892867508652 ] } },
{ "type": "Feature", "properties": { "id": 136, "TAILLE": null }, "geometry": { "type": "Point", "coordinates": [ -1.626129092957844, 48.092979408219172 ] } },
{ "type": "Feature", "properties": { "id": 137, "TAILLE": null }, "geometry": { "type": "Point", "coordinates": [ -1.626058157949199, 48.093003526122118 ] } },
{ "type": "Feature", "properties": { "id": 138, "TAILLE": null }, "geometry": { "type": "Point", "coordinates": [ -1.625909194431042, 48.092948196815371 ] } },
{ "type": "Feature", "properties": { "id": 139, "TAILLE": null }, "geometry": { "type": "Point", "coordinates": [ -1.625821235020322, 48.092999270021593 ] } },
{ "type": "Feature", "properties": { "id": 140, "TAILLE": null }, "geometry": { "type": "Point", "coordinates": [ -1.625733275609601, 48.093014875723497 ] } },
{ "type": "Feature", "properties": { "id": 141, "TAILLE": null }, "geometry": { "type": "Point", "coordinates": [ -1.62567936500303, 48.093038993626436 ] } },
{ "type": "Feature", "properties": { "id": 142, "TAILLE": null }, "geometry": { "type": "Point", "coordinates": [ -1.625589986892136, 48.093073042430589 ] } },
{ "type": "Feature", "properties": { "id": 143, "TAILLE": null }, "geometry": { "type": "Point", "coordinates": [ -1.625540332386084, 48.093095741633356 ] } },
{ "type": "Feature", "properties": { "id": 144, "TAILLE": null }, "geometry": { "type": "Point", "coordinates": [ -1.625458047776055, 48.093129790437501 ] } },
{ "type": "Feature", "properties": { "id": 145, "TAILLE": null }, "geometry": { "type": "Point", "coordinates": [ -1.625370088365334, 48.093162420541482 ] } },
{ "type": "Feature", "properties": { "id": 146, "TAILLE": null }, "geometry": { "type": "Point", "coordinates": [ -1.625463722576747, 48.093271660454796 ] } },
{ "type": "Feature", "properties": { "id": 147, "TAILLE": null }, "geometry": { "type": "Point", "coordinates": [ -1.625438185973634, 48.093419205272781 ] } },
{ "type": "Feature", "properties": { "id": 148, "TAILLE": null }, "geometry": { "type": "Point", "coordinates": [ -1.625676527602684, 48.093610729796126 ] } },
{ "type": "Feature", "properties": { "id": 149, "TAILLE": null }, "geometry": { "type": "Point", "coordinates": [ -1.626051064448334, 48.093314221459984 ] } },
{ "type": "Feature", "properties": { "id": 150, "TAILLE": null }, "geometry": { "type": "Point", "coordinates": [ -1.626205702767182, 48.093385156468628 ] } },
{ "type": "Feature", "properties": { "id": 151, "TAILLE": null }, "geometry": { "type": "Point", "coordinates": [ -1.626134767758536, 48.093441904475547 ] } },
{ "type": "Feature", "properties": { "id": 152, "TAILLE": null }, "geometry": { "type": "Point", "coordinates": [ -1.626163141761994, 48.09400229104385 ] } },
{ "type": "Feature", "properties": { "id": 153, "TAILLE": null }, "geometry": { "type": "Point", "coordinates": [ -1.626256775973407, 48.094081738253536 ] } },
{ "type": "Feature", "properties": { "id": 154, "TAILLE": null }, "geometry": { "type": "Point", "coordinates": [ -1.62631636138067, 48.094229283071506 ] } },
{ "type": "Feature", "properties": { "id": 155, "TAILLE": null }, "geometry": { "type": "Point", "coordinates": [ -1.626124836857326, 48.094304474180674 ] } },
{ "type": "Feature", "properties": { "id": 156, "TAILLE": null }, "geometry": { "type": "Point", "coordinates": [ -1.626231239370295, 48.094267587976177 ] } },
{ "type": "Feature", "properties": { "id": 157, "TAILLE": null }, "geometry": { "type": "Point", "coordinates": [ -1.626404320791391, 48.094305892880847 ] } },
{ "type": "Feature", "properties": { "id": 158, "TAILLE": null }, "geometry": { "type": "Point", "coordinates": [ -1.626231239370295, 48.094368315688456 ] } },
{ "type": "Feature", "properties": { "id": 159, "TAILLE": null }, "geometry": { "type": "Point", "coordinates": [ -1.626323454881534, 48.094359803487414 ] } },
{ "type": "Feature", "properties": { "id": 160, "TAILLE": null }, "geometry": { "type": "Point", "coordinates": [ -1.626307849179632, 48.094300218080157 ] } },
{ "type": "Feature", "properties": { "id": 161, "TAILLE": null }, "geometry": { "type": "Point", "coordinates": [ -1.626475255800036, 48.094325754683268 ] } },
{ "type": "Feature", "properties": { "id": 162, "TAILLE": null }, "geometry": { "type": "Point", "coordinates": [ -1.626544772108509, 48.094354128686724 ] } },
{ "type": "Feature", "properties": { "id": 163, "TAILLE": null }, "geometry": { "type": "Point", "coordinates": [ -1.626571727411795, 48.094398108392085 ] } },
{ "type": "Feature", "properties": { "id": 164, "TAILLE": null }, "geometry": { "type": "Point", "coordinates": [ -1.626639825020094, 48.094422226295023 ] } },
{ "type": "Feature", "properties": { "id": 165, "TAILLE": null }, "geometry": { "type": "Point", "coordinates": [ -1.626651174621478, 48.094535722308862 ] } },
{ "type": "Feature", "properties": { "id": 166, "TAILLE": null }, "geometry": { "type": "Point", "coordinates": [ -1.62730945150171, 48.094816624943093 ] } },
{ "type": "Feature", "properties": { "id": 167, "TAILLE": null }, "geometry": { "type": "Point", "coordinates": [ -1.627295264499981, 48.094789669639809 ] } },
{ "type": "Feature", "properties": { "id": 168, "TAILLE": null }, "geometry": { "type": "Point", "coordinates": [ -1.627210142489606, 48.094772645237732 ] } },
{ "type": "Feature", "properties": { "id": 169, "TAILLE": null }, "geometry": { "type": "Point", "coordinates": [ -1.627159069283381, 48.09473292163289 ] } },
{ "type": "Feature", "properties": { "id": 170, "TAILLE": null }, "geometry": { "type": "Point", "coordinates": [ -1.627113670877848, 48.094691779327874 ] } },
{ "type": "Feature", "properties": { "id": 171, "TAILLE": null }, "geometry": { "type": "Point", "coordinates": [ -1.627461252420212, 48.09509894627751 ] } },
{ "type": "Feature", "properties": { "id": 172, "TAILLE": null }, "geometry": { "type": "Point", "coordinates": [ -1.627491045123843, 48.095144344683042 ] } },
{ "type": "Feature", "properties": { "id": 173, "TAILLE": null }, "geometry": { "type": "Point", "coordinates": [ -1.627482532922806, 48.095222373192556 ] } },
{ "type": "Feature", "properties": { "id": 174, "TAILLE": null }, "geometry": { "type": "Point", "coordinates": [ -1.627593191536293, 48.095208186190824 ] } },
{ "type": "Feature", "properties": { "id": 175, "TAILLE": null }, "geometry": { "type": "Point", "coordinates": [ -1.627560561432316, 48.095255003296529 ] } },
{ "type": "Feature", "properties": { "id": 176, "TAILLE": null }, "geometry": { "type": "Point", "coordinates": [ -1.627634333841308, 48.095250747196012 ] } },
{ "type": "Feature", "properties": { "id": 177, "TAILLE": null }, "geometry": { "type": "Point", "coordinates": [ -1.627559142732143, 48.095145763383215 ] } },
{ "type": "Feature", "properties": { "id": 178, "TAILLE": null }, "geometry": { "type": "Point", "coordinates": [ -1.627848557567418, 48.095222373192556 ] } },
{ "type": "Feature", "properties": { "id": 179, "TAILLE": null }, "geometry": { "type": "Point", "coordinates": [ -1.62775208595566, 48.09518690568823 ] } },
{ "type": "Feature", "properties": { "id": 180, "TAILLE": null }, "geometry": { "type": "Point", "coordinates": [ -1.627760598156697, 48.095245072395322 ] } },
{ "type": "Feature", "properties": { "id": 181, "TAILLE": null }, "geometry": { "type": "Point", "coordinates": [ -1.627990427584709, 48.095205348790479 ] } },
{ "type": "Feature", "properties": { "id": 182, "TAILLE": null }, "geometry": { "type": "Point", "coordinates": [ -1.628231606614105, 48.095155694284436 ] } },
{ "type": "Feature", "properties": { "id": 183, "TAILLE": null }, "geometry": { "type": "Point", "coordinates": [ -1.628325240825518, 48.095151438183912 ] } },
{ "type": "Feature", "properties": { "id": 184, "TAILLE": null }, "geometry": { "type": "Point", "coordinates": [ -1.628416037636584, 48.095140088582532 ] } },
{ "type": "Feature", "properties": { "id": 185, "TAILLE": null }, "geometry": { "type": "Point", "coordinates": [ -1.628467110842809, 48.095134413781828 ] } },
{ "type": "Feature", "properties": { "id": 186, "TAILLE": null }, "geometry": { "type": "Point", "coordinates": [ -1.628376314031742, 48.095145763383208 ] } },
{ "type": "Feature", "properties": { "id": 187, "TAILLE": null }, "geometry": { "type": "Point", "coordinates": [ -1.628518184049034, 48.095140088582518 ] } },
{ "type": "Feature", "properties": { "id": 188, "TAILLE": null }, "geometry": { "type": "Point", "coordinates": [ -1.628597631258717, 48.095128738981131 ] } },
{ "type": "Feature", "properties": { "id": 189, "TAILLE": null }, "geometry": { "type": "Point", "coordinates": [ -1.628716802073242, 48.095130157681304 ] } },
{ "type": "Feature", "properties": { "id": 190, "TAILLE": null }, "geometry": { "type": "Point", "coordinates": [ -1.628800505383444, 48.095123064180441 ] } },
{ "type": "Feature", "properties": { "id": 191, "TAILLE": null }, "geometry": { "type": "Point", "coordinates": [ -1.629682936890998, 48.095106039778379 ] } },
{ "type": "Feature", "properties": { "id": 192, "TAILLE": null }, "geometry": { "type": "Point", "coordinates": [ -1.62980068900535, 48.095108877178724 ] } },
{ "type": "Feature", "properties": { "id": 193, "TAILLE": null }, "geometry": { "type": "Point", "coordinates": [ -1.629919859819875, 48.095108877178724 ] } },
{ "type": "Feature", "properties": { "id": 194, "TAILLE": null }, "geometry": { "type": "Point", "coordinates": [ -1.629821969507944, 48.094940051858146 ] } },
{ "type": "Feature", "properties": { "id": 195, "TAILLE": null }, "geometry": { "type": "Point", "coordinates": [ -1.630102872142181, 48.094928702256759 ] } },
{ "type": "Feature", "properties": { "id": 196, "TAILLE": null }, "geometry": { "type": "Point", "coordinates": [ -1.630179481951518, 48.094984031563506 ] } },
{ "type": "Feature", "properties": { "id": 197, "TAILLE": null }, "geometry": { "type": "Point", "coordinates": [ -1.63001491273146, 48.095124482880621 ] } },
{ "type": "Feature", "properties": { "id": 198, "TAILLE": null }, "geometry": { "type": "Point", "coordinates": [ -1.630131246145639, 48.09514292598287 ] } },
{ "type": "Feature", "properties": { "id": 199, "TAILLE": null }, "geometry": { "type": "Point", "coordinates": [ -1.630280209663795, 48.095164206485464 ] } },
{ "type": "Feature", "properties": { "id": 200, "TAILLE": null }, "geometry": { "type": "Point", "coordinates": [ -1.630227717757397, 48.095154275584257 ] } },
{ "type": "Feature", "properties": { "id": 201, "TAILLE": null }, "geometry": { "type": "Point", "coordinates": [ -1.630371006474862, 48.095165625185636 ] } },
{ "type": "Feature", "properties": { "id": 202, "TAILLE": null }, "geometry": { "type": "Point", "coordinates": [ -1.63049159598956, 48.095184068287885 ] } },
{ "type": "Feature", "properties": { "id": 203, "TAILLE": null }, "geometry": { "type": "Point", "coordinates": [ -1.630694470114286, 48.095211023591169 ] } },
{ "type": "Feature", "properties": { "id": 204, "TAILLE": null }, "geometry": { "type": "Point", "coordinates": [ -1.630842014932269, 48.095239397594632 ] } },
{ "type": "Feature", "properties": { "id": 205, "TAILLE": null }, "geometry": { "type": "Point", "coordinates": [ -1.630975372748523, 48.095273446398778 ] } },
{ "type": "Feature", "properties": { "id": 206, "TAILLE": null }, "geometry": { "type": "Point", "coordinates": [ -1.631128592367198, 48.095284796000165 ] } },
{ "type": "Feature", "properties": { "id": 207, "TAILLE": null }, "geometry": { "type": "Point", "coordinates": [ -1.63106616955959, 48.095284796000165 ] } },
{ "type": "Feature", "properties": { "id": 208, "TAILLE": null }, "geometry": { "type": "Point", "coordinates": [ -1.631230738779648, 48.095316007403966 ] } },
{ "type": "Feature", "properties": { "id": 209, "TAILLE": null }, "geometry": { "type": "Point", "coordinates": [ -1.631349909594173, 48.095341544007084 ] } },
{ "type": "Feature", "properties": { "id": 210, "TAILLE": null }, "geometry": { "type": "Point", "coordinates": [ -1.631469080408698, 48.095318844804311 ] } },
{ "type": "Feature", "properties": { "id": 211, "TAILLE": null }, "geometry": { "type": "Point", "coordinates": [ -1.631656348831523, 48.095394035913479 ] } },
{ "type": "Feature", "properties": { "id": 212, "TAILLE": null }, "geometry": { "type": "Point", "coordinates": [ -1.631759913944146, 48.095420991216763 ] } },
{ "type": "Feature", "properties": { "id": 213, "TAILLE": null }, "geometry": { "type": "Point", "coordinates": [ -1.631853548155558, 48.095440853019184 ] } },
{ "type": "Feature", "properties": { "id": 214, "TAILLE": null }, "geometry": { "type": "Point", "coordinates": [ -1.631934414065414, 48.095443690419529 ] } },
{ "type": "Feature", "properties": { "id": 215, "TAILLE": null }, "geometry": { "type": "Point", "coordinates": [ -1.632033723077519, 48.095428084717632 ] } },
{ "type": "Feature", "properties": { "id": 216, "TAILLE": null }, "geometry": { "type": "Point", "coordinates": [ -1.632013861275098, 48.095324519605008 ] } },
{ "type": "Feature", "properties": { "id": 217, "TAILLE": null }, "geometry": { "type": "Point", "coordinates": [ -1.631969881569737, 48.095201092689962 ] } },
{ "type": "Feature", "properties": { "id": 218, "TAILLE": null }, "geometry": { "type": "Point", "coordinates": [ -1.631924483164204, 48.095104621078207 ] } },
{ "type": "Feature", "properties": { "id": 219, "TAILLE": null }, "geometry": { "type": "Point", "coordinates": [ -1.63185922295625, 48.09499396246472 ] } },
{ "type": "Feature", "properties": { "id": 220, "TAILLE": null }, "geometry": { "type": "Point", "coordinates": [ -1.631805312349679, 48.094860604648467 ] } },
{ "type": "Feature", "properties": { "id": 221, "TAILLE": null }, "geometry": { "type": "Point", "coordinates": [ -1.631785450547258, 48.094783994839126 ] } },
{ "type": "Feature", "properties": { "id": 222, "TAILLE": null }, "geometry": { "type": "Point", "coordinates": [ -1.631748564342762, 48.094710222430137 ] } },
{ "type": "Feature", "properties": { "id": 223, "TAILLE": null }, "geometry": { "type": "Point", "coordinates": [ -1.631694653736192, 48.094613750818382 ] } },
{ "type": "Feature", "properties": { "id": 224, "TAILLE": null }, "geometry": { "type": "Point", "coordinates": [ -1.631649255330658, 48.094520116606965 ] } },
{ "type": "Feature", "properties": { "id": 225, "TAILLE": null }, "geometry": { "type": "Point", "coordinates": [ -1.631592507323742, 48.094403783192789 ] } },
{ "type": "Feature", "properties": { "id": 226, "TAILLE": null }, "geometry": { "type": "Point", "coordinates": [ -1.631578320322012, 48.094332848184145 ] } },
{ "type": "Feature", "properties": { "id": 227, "TAILLE": null }, "geometry": { "type": "Point", "coordinates": [ -1.631476173909562, 48.094108693556819 ] } },
{ "type": "Feature", "properties": { "id": 228, "TAILLE": null }, "geometry": { "type": "Point", "coordinates": [ -1.631135685868063, 48.093504327283156 ] } },
{ "type": "Feature", "properties": { "id": 229, "TAILLE": null }, "geometry": { "type": "Point", "coordinates": [ -1.625997153841762, 48.094366896988305 ] } },
{ "type": "Feature", "properties": { "id": 230, "TAILLE": null }, "geometry": { "type": "Point", "coordinates": [ -1.625804210618246, 48.09445769379937 ] } },
{ "type": "Feature", "properties": { "id": 231, "TAILLE": null }, "geometry": { "type": "Point", "coordinates": [ -1.625645316198879, 48.094630775220466 ] } },
{ "type": "Feature", "properties": { "id": 232, "TAILLE": null }, "geometry": { "type": "Point", "coordinates": [ -1.625656665800263, 48.094761295636374 ] } },
{ "type": "Feature", "properties": { "id": 233, "TAILLE": null }, "geometry": { "type": "Point", "coordinates": [ -1.625778674015133, 48.094874791650206 ] } },
{ "type": "Feature", "properties": { "id": 234, "TAILLE": null }, "geometry": { "type": "Point", "coordinates": [ -1.625906357030696, 48.094923027456083 ] } },
{ "type": "Feature", "properties": { "id": 235, "TAILLE": null }, "geometry": { "type": "Point", "coordinates": [ -1.631881922159017, 48.094996799865065 ] } },
{ "type": "Feature", "properties": { "id": 236, "TAILLE": null }, "geometry": { "type": "Point", "coordinates": [ -1.626022690444874, 48.095010986866804 ] } },
{ "type": "Feature", "properties": { "id": 237, "TAILLE": null }, "geometry": { "type": "Point", "coordinates": [ -1.625982966840033, 48.095056385272343 ] } },
{ "type": "Feature", "properties": { "id": 238, "TAILLE": null }, "geometry": { "type": "Point", "coordinates": [ -1.625795698417208, 48.095042198270612 ] } },
{ "type": "Feature", "properties": { "id": 239, "TAILLE": null }, "geometry": { "type": "Point", "coordinates": [ -1.625713413807179, 48.094979775463003 ] } },
{ "type": "Feature", "properties": { "id": 240, "TAILLE": null }, "geometry": { "type": "Point", "coordinates": [ -1.625659503200608, 48.09492870225678 ] } },
{ "type": "Feature", "properties": { "id": 241, "TAILLE": null }, "geometry": { "type": "Point", "coordinates": [ -1.625633966597496, 48.094903165653662 ] } },
{ "type": "Feature", "properties": { "id": 242, "TAILLE": null }, "geometry": { "type": "Point", "coordinates": [ -1.625577218590579, 48.09484641764675 ] } },
{ "type": "Feature", "properties": { "id": 243, "TAILLE": null }, "geometry": { "type": "Point", "coordinates": [ -1.625858121224816, 48.095064897473378 ] } },
{ "type": "Feature", "properties": { "id": 244, "TAILLE": null }, "geometry": { "type": "Point", "coordinates": [ -1.625897844829658, 48.095104621078221 ] } },
{ "type": "Feature", "properties": { "id": 245, "TAILLE": null }, "geometry": { "type": "Point", "coordinates": [ -1.625965942437958, 48.095158531684788 ] } },
{ "type": "Feature", "properties": { "id": 246, "TAILLE": null }, "geometry": { "type": "Point", "coordinates": [ -1.626019853044529, 48.095206767490666 ] } },
{ "type": "Feature", "properties": { "id": 247, "TAILLE": null }, "geometry": { "type": "Point", "coordinates": [ -1.626082275852137, 48.095269190298275 ] } },
{ "type": "Feature", "properties": { "id": 248, "TAILLE": null }, "geometry": { "type": "Point", "coordinates": [ -1.626147536060091, 48.095320263504505 ] } },
{ "type": "Feature", "properties": { "id": 249, "TAILLE": null }, "geometry": { "type": "Point", "coordinates": [ -1.626218471068737, 48.095371336710727 ] } },
{ "type": "Feature", "properties": { "id": 250, "TAILLE": null }, "geometry": { "type": "Point", "coordinates": [ -1.626266706874616, 48.09541106031557 ] } },
{ "type": "Feature", "properties": { "id": 251, "TAILLE": null }, "geometry": { "type": "Point", "coordinates": [ -1.626329129682224, 48.095447946520068 ] } },
{ "type": "Feature", "properties": { "id": 252, "TAILLE": null }, "geometry": { "type": "Point", "coordinates": [ -1.626266706874616, 48.095257840696895 ] } },
{ "type": "Feature", "properties": { "id": 253, "TAILLE": null }, "geometry": { "type": "Point", "coordinates": [ -1.62636601588672, 48.094957076260236 ] } },
{ "type": "Feature", "properties": { "id": 254, "TAILLE": null }, "geometry": { "type": "Point", "coordinates": [ -1.626008503443145, 48.094914515255049 ] } },
{ "type": "Feature", "properties": { "id": 255, "TAILLE": null }, "geometry": { "type": "Point", "coordinates": [ -1.625909194431041, 48.094982612863348 ] } },
{ "type": "Feature", "properties": { "id": 256, "TAILLE": null }, "geometry": { "type": "Point", "coordinates": [ -1.626530585106778, 48.09526635289793 ] } },
{ "type": "Feature", "properties": { "id": 257, "TAILLE": null }, "geometry": { "type": "Point", "coordinates": [ -1.626595845314732, 48.095280539899662 ] } },
{ "type": "Feature", "properties": { "id": 258, "TAILLE": null }, "geometry": { "type": "Point", "coordinates": [ -1.626578820912657, 48.095323100904849 ] } },
{ "type": "Feature", "properties": { "id": 259, "TAILLE": null }, "geometry": { "type": "Point", "coordinates": [ -1.626669617723724, 48.095320263504505 ] } },
{ "type": "Feature", "properties": { "id": 260, "TAILLE": null }, "geometry": { "type": "Point", "coordinates": [ -1.626618544517499, 48.095357149708995 ] } },
{ "type": "Feature", "properties": { "id": 261, "TAILLE": null }, "geometry": { "type": "Point", "coordinates": [ -1.626556121709891, 48.095357149708995 ] } },
{ "type": "Feature", "properties": { "id": 262, "TAILLE": null }, "geometry": { "type": "Point", "coordinates": [ -1.626635568919574, 48.095422409916949 ] } },
{ "type": "Feature", "properties": { "id": 263, "TAILLE": null }, "geometry": { "type": "Point", "coordinates": [ -1.626703666527874, 48.095371336710727 ] } },
{ "type": "Feature", "properties": { "id": 264, "TAILLE": null }, "geometry": { "type": "Point", "coordinates": [ -1.626703666527874, 48.09541673511626 ] } },
{ "type": "Feature", "properties": { "id": 265, "TAILLE": null }, "geometry": { "type": "Point", "coordinates": [ -1.626785951137903, 48.095374174111072 ] } },
{ "type": "Feature", "properties": { "id": 266, "TAILLE": null }, "geometry": { "type": "Point", "coordinates": [ -1.626839861744474, 48.095385523712459 ] } },
{ "type": "Feature", "properties": { "id": 267, "TAILLE": null }, "geometry": { "type": "Point", "coordinates": [ -1.62687674794897, 48.09541673511626 ] } },
{ "type": "Feature", "properties": { "id": 268, "TAILLE": null }, "geometry": { "type": "Point", "coordinates": [ -1.627021455366607, 48.095324519605015 ] } },
{ "type": "Feature", "properties": { "id": 269, "TAILLE": null }, "geometry": { "type": "Point", "coordinates": [ -1.627021455366607, 48.09535431230865 ] } },
{ "type": "Feature", "properties": { "id": 270, "TAILLE": null }, "geometry": { "type": "Point", "coordinates": [ -1.627048410669893, 48.095401129414356 ] } },
{ "type": "Feature", "properties": { "id": 271, "TAILLE": null }, "geometry": { "type": "Point", "coordinates": [ -1.627083878174215, 48.095352893608478 ] } },
{ "type": "Feature", "properties": { "id": 272, "TAILLE": null }, "geometry": { "type": "Point", "coordinates": [ -1.627130695279922, 48.095318844804325 ] } },
{ "type": "Feature", "properties": { "id": 273, "TAILLE": null }, "geometry": { "type": "Point", "coordinates": [ -1.62713495138044, 48.095351474908306 ] } },
{ "type": "Feature", "properties": { "id": 274, "TAILLE": null }, "geometry": { "type": "Point", "coordinates": [ -1.62664833722113, 48.09558839783719 ] } },
{ "type": "Feature", "properties": { "id": 275, "TAILLE": null }, "geometry": { "type": "Point", "coordinates": [ -1.626710760028738, 48.095575629535638 ] } },
{ "type": "Feature", "properties": { "id": 276, "TAILLE": null }, "geometry": { "type": "Point", "coordinates": [ -1.626788788538249, 48.095557186433389 ] } },
{ "type": "Feature", "properties": { "id": 277, "TAILLE": null }, "geometry": { "type": "Point", "coordinates": [ -1.626869654448105, 48.095547255532175 ] } },
{ "type": "Feature", "properties": { "id": 278, "TAILLE": null }, "geometry": { "type": "Point", "coordinates": [ -1.626937752056405, 48.095518881528719 ] } },
{ "type": "Feature", "properties": { "id": 279, "TAILLE": null }, "geometry": { "type": "Point", "coordinates": [ -1.627003012264359, 48.095496182325952 ] } },
{ "type": "Feature", "properties": { "id": 280, "TAILLE": null }, "geometry": { "type": "Point", "coordinates": [ -1.627071109872659, 48.095484832724573 ] } },
{ "type": "Feature", "properties": { "id": 281, "TAILLE": null }, "geometry": { "type": "Point", "coordinates": [ -1.627142044881305, 48.095462133521806 ] } },
{ "type": "Feature", "properties": { "id": 282, "TAILLE": null }, "geometry": { "type": "Point", "coordinates": [ -1.627188861987011, 48.095428084717653 ] } },
{ "type": "Feature", "properties": { "id": 283, "TAILLE": null }, "geometry": { "type": "Point", "coordinates": [ -1.627275402697559, 48.095399710714197 ] } },
{ "type": "Feature", "properties": { "id": 284, "TAILLE": null }, "geometry": { "type": "Point", "coordinates": [ -1.627386061311046, 48.095375592811259 ] } },
{ "type": "Feature", "properties": { "id": 285, "TAILLE": null }, "geometry": { "type": "Point", "coordinates": [ -1.627428622316234, 48.095354312308665 ] } },
{ "type": "Feature", "properties": { "id": 286, "TAILLE": null }, "geometry": { "type": "Point", "coordinates": [ -1.627126439179402, 48.094917352655379 ] } },
{ "type": "Feature", "properties": { "id": 287, "TAILLE": null }, "geometry": { "type": "Point", "coordinates": [ -1.627092390375252, 48.095002474665755 ] } },
{ "type": "Feature", "properties": { "id": 288, "TAILLE": null }, "geometry": { "type": "Point", "coordinates": [ -1.626869654448104, 48.095155694284429 ] } },
{ "type": "Feature", "properties": { "id": 289, "TAILLE": null }, "geometry": { "type": "Point", "coordinates": [ -1.626818581241879, 48.095155694284429 ] } },
{ "type": "Feature", "properties": { "id": 290, "TAILLE": null }, "geometry": { "type": "Point", "coordinates": [ -1.625908485080954, 48.094495998704026 ] } },
{ "type": "Feature", "properties": { "id": 291, "TAILLE": null }, "geometry": { "type": "Point", "coordinates": [ -1.625921253382511, 48.094586795515092 ] } }
]
}
