{
"type": "FeatureCollection",
"name": "Portiques",
"crs": { "type": "name", "properties": { "name": "urn:ogc:def:crs:OGC:1.3:CRS84" } },
"features": [
{ "type": "Feature", "properties": { "id": 1, "Type_Portique": "Portique_Nord" }, "geometry": { "type": "Point", "coordinates": [ -1.631046962416248, 48.095309198835032 ] } },
{ "type": "Feature", "properties": { "id": 2, "Type_Portique": "Portique_Ouest" }, "geometry": { "type": "Point", "coordinates": [ -1.630549718178717, 48.092948921263016 ] } }
]
}
