{
"type": "FeatureCollection",
"name": "RM_SOL_SIPA",
"crs": { "type": "name", "properties": { "name": "urn:ogc:def:crs:OGC:1.3:CRS84" } },
"features": [
{ "type": "Feature", "properties": { "gml_id": "occup_sol_uf_zae.7386", "id_occup_sol_uf_zae": 7386, "couverture": "Voirie et stationnement", "code_insee": "35238", "idza": "25", "etape": "Terminée", "vocation": "Productive", "surf_m2": 42842, "surf_uf_m2": 105342, "conso_espace": "Renouvellement", "pourcentage_occup": 41 }, "geometry": { "type": "Polygon", "coordinates": [ [ [ -1.62886931986441, 48.092383221288756 ], [ -1.628880236275327, 48.092365481633095 ], [ -1.628890571231842, 48.092348756531024 ], [ -1.629111704652956, 48.092420944869588 ], [ -1.629346557065218, 48.092497626097121 ], [ -1.629350927387122, 48.092490872460168 ], [ -1.629355053854074, 48.092484398966533 ], [ -1.629453267003524, 48.092516214783082 ], [ -1.629546887831916, 48.092546497339391 ], [ -1.629545200759185, 48.092549955197583 ], [ -1.629545217620678, 48.09254996084379 ], [ -1.62954520076426, 48.092549995419979 ], [ -1.629533006726347, 48.092571480876018 ], [ -1.629530099532664, 48.092576553710941 ], [ -1.629515469895407, 48.092602372187649 ], [ -1.629730606948473, 48.092675161325992 ], [ -1.629883043622093, 48.092726688119846 ], [ -1.62992743447043, 48.092741749568887 ], [ -1.629918351650816, 48.092773922288309 ], [ -1.62990389563906, 48.09282517204209 ], [ -1.629864176835729, 48.092819565151601 ], [ -1.629816536433419, 48.092991232839054 ], [ -1.629855204198014, 48.092997793501354 ], [ -1.62985264231149, 48.093006875948944 ], [ -1.629817939188032, 48.093129734510185 ], [ -1.629904892483454, 48.093139477429943 ], [ -1.629956409487076, 48.093145244967232 ], [ -1.629943005989559, 48.093189184672937 ], [ -1.630189232706943, 48.093264467772549 ], [ -1.630261803690805, 48.093286655619508 ], [ -1.630292207562865, 48.093294352238118 ], [ -1.630492400731254, 48.093344547217797 ], [ -1.630722624014593, 48.093402420633602 ], [ -1.630836642406584, 48.093444281727514 ], [ -1.630846725119899, 48.093449938981387 ], [ -1.630850202215776, 48.093453396119827 ], [ -1.630854074264144, 48.093457245159264 ], [ -1.63094327872365, 48.093665634429996 ], [ -1.630955361167665, 48.093693861745159 ], [ -1.630997701966967, 48.093795179224955 ], [ -1.631046378459044, 48.093911657004298 ], [ -1.631332380409706, 48.094596019945797 ], [ -1.631344633011051, 48.094625339344681 ], [ -1.63136232196421, 48.094667663998457 ], [ -1.631366145022189, 48.094679011944557 ], [ -1.631413406700996, 48.094819272933634 ], [ -1.63144186738845, 48.094903739119609 ], [ -1.631439292620745, 48.094918344926946 ], [ -1.631437765287606, 48.094920968605074 ], [ -1.631417921613029, 48.094955056143668 ], [ -1.631408187073864, 48.09497178064823 ], [ -1.631405727779274, 48.094976006729489 ], [ -1.631397164200377, 48.09498495202498 ], [ -1.631365709302895, 48.094999940311652 ], [ -1.63130059729832, 48.095030967080866 ], [ -1.631313794033878, 48.095038635443501 ], [ -1.631272434029295, 48.095093625584191 ], [ -1.631226427371471, 48.095103034145268 ], [ -1.631201736115529, 48.095127212971882 ], [ -1.631153356103982, 48.09517458920125 ], [ -1.631029935822789, 48.095148259759938 ], [ -1.631008817220953, 48.095113428139229 ], [ -1.63099419840961, 48.095116492836098 ], [ -1.630820395060226, 48.09514491497174 ], [ -1.630750469282772, 48.095156349420556 ], [ -1.630738855996663, 48.095155985009342 ], [ -1.630668427844243, 48.095146871813256 ], [ -1.630656049304879, 48.095144009044638 ], [ -1.630612364250468, 48.095119831643437 ], [ -1.630604822463172, 48.095115657296638 ], [ -1.630597584135649, 48.095109541102367 ], [ -1.630592813080986, 48.095102421065292 ], [ -1.630429818421409, 48.094746561425403 ], [ -1.630415365426144, 48.094715005569668 ], [ -1.630361165971423, 48.094625119936104 ], [ -1.630330128900713, 48.094573648046051 ], [ -1.630314083000197, 48.094547037744718 ], [ -1.63028285550645, 48.094495249716331 ], [ -1.630246268924127, 48.094434573666305 ], [ -1.629997436681897, 48.094425375851173 ], [ -1.629879853494193, 48.094399342146687 ], [ -1.629777942540569, 48.094450401251983 ], [ -1.629635567975618, 48.094521733010886 ], [ -1.629598024089083, 48.094540543336244 ], [ -1.629450203607813, 48.094625942682619 ], [ -1.629502769753342, 48.094710473649705 ], [ -1.629546680433478, 48.09471526057083 ], [ -1.629552424919905, 48.094729038905278 ], [ -1.629484845798735, 48.094766852789661 ], [ -1.629408983446891, 48.094736573933325 ], [ -1.629343105447759, 48.094788398968426 ], [ -1.629654616293485, 48.095035693178986 ], [ -1.629668840040678, 48.095067124712557 ], [ -1.62963433365646, 48.095107084422132 ], [ -1.629566703346733, 48.095105120242565 ], [ -1.629535693973813, 48.095104229406097 ], [ -1.629503154321448, 48.095103273416115 ], [ -1.629503177589338, 48.095103295284424 ], [ -1.629488354900366, 48.095102869462032 ], [ -1.629318304473223, 48.095099446148367 ], [ -1.629153379791446, 48.095100681804553 ], [ -1.628951673126047, 48.095108714592591 ], [ -1.628734638447509, 48.095124302285363 ], [ -1.628573323391809, 48.095137285519471 ], [ -1.628430674975185, 48.095152940878172 ], [ -1.62825477428358, 48.095174259920164 ], [ -1.62812953789593, 48.095192097148953 ], [ -1.628072835202233, 48.095200236914543 ], [ -1.627911693099549, 48.095225646616903 ], [ -1.627822804736133, 48.095242214974668 ], [ -1.627841523225531, 48.095231012637129 ], [ -1.627826960483527, 48.095140608249267 ], [ -1.627700075531627, 48.095033601687504 ], [ -1.62773110728936, 48.095016090893999 ], [ -1.627712751411954, 48.095004019680566 ], [ -1.627494269114797, 48.094859541654024 ], [ -1.62737628598409, 48.094925652694549 ], [ -1.627588089566998, 48.095096364649798 ], [ -1.627580643150082, 48.09510028186876 ], [ -1.627393900149137, 48.094952240463975 ], [ -1.627323650638515, 48.094895851409952 ], [ -1.627200891781656, 48.09479731402476 ], [ -1.62714938954919, 48.094870671547781 ], [ -1.627140272679535, 48.094863242628087 ], [ -1.627098713897825, 48.094829396714758 ], [ -1.62711524181618, 48.094818829921721 ], [ -1.626848609607955, 48.094601253615899 ], [ -1.626729113479403, 48.094588822953114 ], [ -1.626566605506612, 48.094790683582687 ], [ -1.626517759030565, 48.094792420973675 ], [ -1.626505499852701, 48.094816626712536 ], [ -1.626458998579411, 48.094815427999414 ], [ -1.62644403479743, 48.094852388486068 ], [ -1.626408764314031, 48.094847986536365 ], [ -1.626306374581713, 48.094836516570979 ], [ -1.626306741845957, 48.094832475648765 ], [ -1.626309432774714, 48.094830830791942 ], [ -1.62630802062309, 48.094831671731129 ], [ -1.626309451170755, 48.094830792054644 ], [ -1.626348798809609, 48.094804609990511 ], [ -1.626380489458533, 48.094786034523288 ], [ -1.626390721763439, 48.094751653435551 ], [ -1.626394758498728, 48.094738258523961 ], [ -1.626394758498728, 48.094738258523961 ], [ -1.626425239983032, 48.094729665554624 ], [ -1.626518563004985, 48.094689039986818 ], [ -1.626520548270903, 48.094634877814698 ], [ -1.626550910388776, 48.094635872405725 ], [ -1.626604760888486, 48.094565016221686 ], [ -1.626763112803583, 48.094499482004139 ], [ -1.626767963786034, 48.094466744318304 ], [ -1.626780149552683, 48.0944596795349 ], [ -1.62677018585859, 48.094451748268142 ], [ -1.626773556093787, 48.09442900285292 ], [ -1.626684044813168, 48.094320180433186 ], [ -1.626620774478716, 48.09428947893953 ], [ -1.626480455604364, 48.094176860417704 ], [ -1.626480455590157, 48.094176860409263 ], [ -1.626503091162264, 48.094105949597179 ], [ -1.626517487253639, 48.094060112627631 ], [ -1.626517487253639, 48.094060112627631 ], [ -1.626602800758599, 48.094129743657575 ], [ -1.626996704156238, 48.094442374471598 ], [ -1.627090128850602, 48.094508001792654 ], [ -1.627239246671872, 48.094423505534145 ], [ -1.627255411043165, 48.094426934655772 ], [ -1.627254754425639, 48.094420942695137 ], [ -1.627260517115743, 48.094409277400409 ], [ -1.627272505243149, 48.094399973390843 ], [ -1.627288062850761, 48.094394615147444 ], [ -1.627256921027913, 48.094387620108542 ], [ -1.627241052082461, 48.094357649272588 ], [ -1.627711099370283, 48.094094118815697 ], [ -1.627500373760343, 48.093865139467731 ], [ -1.627944106975548, 48.093620881062606 ], [ -1.62815579864683, 48.093789631354028 ], [ -1.628028629756738, 48.093863497623481 ], [ -1.628233401527931, 48.094019163702811 ], [ -1.628077512363369, 48.094105129111348 ], [ -1.628124660781131, 48.094143416129654 ], [ -1.628187514709712, 48.094108831005471 ], [ -1.628405902479716, 48.093988668253843 ], [ -1.62857730665018, 48.094124001027055 ], [ -1.628819308512373, 48.0943150708462 ], [ -1.628886969713589, 48.094368491539633 ], [ -1.628835592723475, 48.094396955076888 ], [ -1.628823710820834, 48.094390174038892 ], [ -1.628785119715305, 48.094396126172093 ], [ -1.628748924815734, 48.094480148450423 ], [ -1.628883228556494, 48.094552288023742 ], [ -1.628923893903547, 48.094527190501957 ], [ -1.628992422931847, 48.094595534931493 ], [ -1.629146206043387, 48.094562567192007 ], [ -1.629158837955805, 48.094571226990766 ], [ -1.629109652403864, 48.094666632897216 ], [ -1.629178336919222, 48.094699426936337 ], [ -1.629469149338391, 48.094531744601312 ], [ -1.629456923220442, 48.094508120890445 ], [ -1.629322287313088, 48.09447728834806 ], [ -1.629394614740735, 48.094406718282322 ], [ -1.629240987665133, 48.094324003002605 ], [ -1.629293028947869, 48.094294600932891 ], [ -1.629368341373689, 48.094365190644695 ], [ -1.629483828068905, 48.094301157798867 ], [ -1.629390394703317, 48.094239594339271 ], [ -1.629633262068581, 48.094102378401459 ], [ -1.629665607179715, 48.094124025616374 ], [ -1.629732712308529, 48.094213092148756 ], [ -1.629783027719679, 48.094212200642119 ], [ -1.629859227044873, 48.094095904748187 ], [ -1.629882357584461, 48.094101731350136 ], [ -1.629905259234945, 48.094053120260639 ], [ -1.629881443032223, 48.094049081083675 ], [ -1.6299317925635, 48.093873971785221 ], [ -1.62997305247496, 48.093835923421267 ], [ -1.630032113673084, 48.093696083266046 ], [ -1.629887354976222, 48.093647707034457 ], [ -1.629476631232392, 48.09349740110688 ], [ -1.629191028352513, 48.093401714682898 ], [ -1.628955167908663, 48.093322692168812 ], [ -1.628955093896595, 48.093325241552201 ], [ -1.628751983289163, 48.093452686778775 ], [ -1.62880012979094, 48.093497222503352 ], [ -1.628849372366066, 48.093529248686764 ], [ -1.629024531991727, 48.09345116170261 ], [ -1.629129704961118, 48.09345833006379 ], [ -1.629188249076696, 48.093506417590035 ], [ -1.629055191224778, 48.093590801644979 ], [ -1.629045384991834, 48.093625742567475 ], [ -1.628938375250057, 48.093601343871214 ], [ -1.628823578031221, 48.093705199332142 ], [ -1.62882295715278, 48.093705760978224 ], [ -1.628612936810068, 48.093543577736227 ], [ -1.628494409973718, 48.093451273427256 ], [ -1.628492223570102, 48.093438878533831 ], [ -1.628511444643206, 48.093439387556856 ], [ -1.628515965145348, 48.09343359138051 ], [ -1.628511760219448, 48.093429964490333 ], [ -1.628544338866194, 48.093437591371945 ], [ -1.628611699161735, 48.093438548757696 ], [ -1.628635364912986, 48.093432211727539 ], [ -1.628713467226168, 48.093402288272252 ], [ -1.628781387769586, 48.093376265222169 ], [ -1.62880996640641, 48.093298296849582 ], [ -1.628766331567724, 48.093268413669428 ], [ -1.628760341092443, 48.09326143795284 ], [ -1.628740759833364, 48.093262207804393 ], [ -1.628744102473882, 48.093251613778897 ], [ -1.628676655392071, 48.093228359136383 ], [ -1.628622907865226, 48.09320982825097 ], [ -1.62817882311363, 48.093056716504584 ], [ -1.628165342887088, 48.093052067860626 ], [ -1.62810440198669, 48.093031056733345 ], [ -1.627855548853692, 48.092854975765455 ], [ -1.627716336276541, 48.09273318857214 ], [ -1.627394944863022, 48.092908120882043 ], [ -1.62709379827069, 48.093072031018508 ], [ -1.627030345969739, 48.093106567911285 ], [ -1.626852757843598, 48.092955603939572 ], [ -1.626852757842792, 48.092955603930584 ], [ -1.626891000700397, 48.092830810760944 ], [ -1.626891000792595, 48.092830810739208 ], [ -1.626943289422914, 48.092818093141901 ], [ -1.627061308778613, 48.092780116380879 ], [ -1.627353823729617, 48.092685990583249 ], [ -1.627423414019532, 48.092657650962586 ], [ -1.62750535536785, 48.09262428004255 ], [ -1.627505600091751, 48.092586452902545 ], [ -1.627595465185361, 48.092561672730987 ], [ -1.627615250282571, 48.092513363984168 ], [ -1.627621711648453, 48.092497588721756 ], [ -1.62779117920205, 48.092406088035489 ], [ -1.627835636939088, 48.092459899441891 ], [ -1.627921130145856, 48.092430587334611 ], [ -1.627933552480221, 48.092444989322821 ], [ -1.627993253615965, 48.092419071637551 ], [ -1.628010339373618, 48.092415683157682 ], [ -1.628166912102306, 48.092407733435202 ], [ -1.628182047482022, 48.09240925222349 ], [ -1.628356511554135, 48.092447510726394 ], [ -1.628414654102617, 48.092371820809674 ], [ -1.628626518334872, 48.092445458914277 ], [ -1.628689767462992, 48.092394184567247 ], [ -1.628704353091599, 48.092407306167473 ], [ -1.628737964436159, 48.092360912618908 ], [ -1.628741626193588, 48.092362102731009 ], [ -1.628749167888626, 48.092351690641443 ], [ -1.628564123874943, 48.092277655448711 ], [ -1.628492715763033, 48.092252958280241 ], [ -1.628419804939301, 48.092227740524883 ], [ -1.628383713728859, 48.092215257037182 ], [ -1.628355666550459, 48.092208848262182 ], [ -1.628343919247021, 48.092201493099139 ], [ -1.628343897045426, 48.092201479197989 ], [ -1.62886931986441, 48.092383221288756 ] ], [ [ -1.630621656835138, 48.094647194780897 ], [ -1.630591038864813, 48.094663433624383 ], [ -1.630509685748542, 48.09470658075675 ], [ -1.630538925798155, 48.094770355350434 ], [ -1.630557221294187, 48.09481025761081 ], [ -1.630678704808047, 48.095075212439021 ], [ -1.630698574864995, 48.095086619725855 ], [ -1.630745614408653, 48.095092710982058 ], [ -1.630828194536684, 48.095079058022449 ], [ -1.630970260268416, 48.095055570967638 ], [ -1.631178569625848, 48.095011849247278 ], [ -1.631215144156914, 48.094994616149883 ], [ -1.631323787492127, 48.094943427083379 ], [ -1.631346151274439, 48.094904993014261 ], [ -1.63127145668048, 48.094683881463162 ], [ -1.631213631782522, 48.094545941518092 ], [ -1.630771936210407, 48.093492248693558 ], [ -1.630695263863758, 48.093463877464416 ], [ -1.630686377705309, 48.093460588901067 ], [ -1.630687299960307, 48.093517202386813 ], [ -1.630330048878048, 48.093585190758162 ], [ -1.630409974974133, 48.09377304796265 ], [ -1.63034320180587, 48.093771426686033 ], [ -1.63030359931807, 48.093829121946378 ], [ -1.630260943794604, 48.093819641933202 ], [ -1.63029525765609, 48.093711913939707 ], [ -1.63017568125631, 48.093686457450637 ], [ -1.630170328926574, 48.093699327280696 ], [ -1.630168847349338, 48.093702657652521 ], [ -1.629916564368536, 48.094238369646639 ], [ -1.629918165778939, 48.094341731174787 ], [ -1.6300135539385, 48.094363035442363 ], [ -1.630285616703707, 48.094373060222566 ], [ -1.630302581049786, 48.094377093872438 ], [ -1.630316037417663, 48.094385102763837 ], [ -1.630322195569756, 48.09439231429031 ], [ -1.630366727999735, 48.094466167349346 ], [ -1.630453971966073, 48.094610855927485 ], [ -1.630495665612991, 48.094611502096321 ], [ -1.630550292792603, 48.094557980711357 ], [ -1.630733817201671, 48.094534178434898 ], [ -1.630772883389318, 48.094625995033532 ], [ -1.630645958563081, 48.094649369550048 ], [ -1.630621656835138, 48.094647194780897 ] ], [ [ -1.628017346514243, 48.092797579879388 ], [ -1.628022426046899, 48.092793142691988 ], [ -1.628029684118594, 48.092786802646394 ], [ -1.628184781624255, 48.092651303559585 ], [ -1.628190400899435, 48.092641538586506 ], [ -1.628175887486962, 48.092641007615519 ], [ -1.628160257262692, 48.092603762155868 ], [ -1.628127753548836, 48.092526311015348 ], [ -1.628117002595078, 48.092500693178735 ], [ -1.628071839665902, 48.09248690130687 ], [ -1.628074737372131, 48.092475558601279 ], [ -1.628030435784894, 48.092477822038056 ], [ -1.627860195963042, 48.09255185445619 ], [ -1.627823025240634, 48.092568018406467 ], [ -1.627702000750099, 48.092617207673335 ], [ -1.627775793333918, 48.092681711379697 ], [ -1.627812786515777, 48.092714047285448 ], [ -1.627843913670124, 48.092741255821743 ], [ -1.627961848891119, 48.092745709651986 ], [ -1.627975019852626, 48.092782468599708 ], [ -1.628017346514243, 48.092797579879388 ] ], [ [ -1.630097056849036, 48.09352976639925 ], [ -1.630070412834984, 48.093496878121279 ], [ -1.630136318257486, 48.09345614055335 ], [ -1.630177823346445, 48.093330133185056 ], [ -1.629778491355633, 48.093208086484566 ], [ -1.629768168924291, 48.093220053840348 ], [ -1.62976633403109, 48.093223037533704 ], [ -1.629678659227409, 48.093331480090882 ], [ -1.629678576716211, 48.093331582493036 ], [ -1.629672547744035, 48.093339034416253 ], [ -1.629596478944154, 48.09343305502734 ], [ -1.6295939039783, 48.093436238182463 ], [ -1.629587225608957, 48.09344363452206 ], [ -1.629572779714515, 48.093460830802087 ], [ -1.629572964578757, 48.093460898341242 ], [ -1.629931661601242, 48.093592144446916 ], [ -1.630049096859622, 48.093631389448312 ], [ -1.630097056849036, 48.09352976639925 ] ] ] } },
{ "type": "Feature", "properties": { "gml_id": "occup_sol_uf_zae.7386", "id_occup_sol_uf_zae": 7386, "couverture": "Voirie et stationnement", "code_insee": "35238", "idza": "25", "etape": "Terminée", "vocation": "Productive", "surf_m2": 42842, "surf_uf_m2": 105342, "conso_espace": "Renouvellement", "pourcentage_occup": 41 }, "geometry": { "type": "Polygon", "coordinates": [ [ [ -1.630207934887302, 48.092772857020428 ], [ -1.630207967138771, 48.092772867948426 ], [ -1.630193055582614, 48.092798544754629 ], [ -1.630193035883749, 48.092798538366829 ], [ -1.630207934887302, 48.092772857020428 ] ] ] } },
{ "type": "Feature", "properties": { "gml_id": "occup_sol_uf_zae.7386", "id_occup_sol_uf_zae": 7386, "couverture": "Voirie et stationnement", "code_insee": "35238", "idza": "25", "etape": "Terminée", "vocation": "Productive", "surf_m2": 42842, "surf_uf_m2": 105342, "conso_espace": "Renouvellement", "pourcentage_occup": 41 }, "geometry": { "type": "Polygon", "coordinates": [ [ [ -1.630398980780438, 48.092837637745184 ], [ -1.630394992533463, 48.092846093145759 ], [ -1.630394924289476, 48.092846064376381 ], [ -1.63039606919026, 48.092843636929281 ], [ -1.630398899413523, 48.092837640338203 ], [ -1.630360520598816, 48.0928245643819 ], [ -1.630369467622438, 48.092827596292992 ], [ -1.630398980780438, 48.092837637745184 ] ] ] } },
{ "type": "Feature", "properties": { "gml_id": "occup_sol_uf_zae.7386", "id_occup_sol_uf_zae": 7386, "couverture": "Voirie et stationnement", "code_insee": "35238", "idza": "25", "etape": "Terminée", "vocation": "Productive", "surf_m2": 42842, "surf_uf_m2": 105342, "conso_espace": "Renouvellement", "pourcentage_occup": 41 }, "geometry": { "type": "Polygon", "coordinates": [ [ [ -1.627481004278376, 48.095317462183864 ], [ -1.627540946762729, 48.095256521048967 ], [ -1.627450502454304, 48.095222334115292 ], [ -1.627254672406375, 48.095178751745301 ], [ -1.627101143331853, 48.095159138006068 ], [ -1.626904881608034, 48.095256070927441 ], [ -1.626651923384381, 48.095274711934834 ], [ -1.626541117317278, 48.095221441345622 ], [ -1.626487487359388, 48.095213901949641 ], [ -1.626505365864739, 48.095167323443199 ], [ -1.626740242390387, 48.095207649134515 ], [ -1.626774474138685, 48.095116394430349 ], [ -1.626391135631819, 48.095047296026706 ], [ -1.626201098476291, 48.095052244781854 ], [ -1.626099747605491, 48.095075465727199 ], [ -1.626075808400342, 48.095092215129881 ], [ -1.62613949021998, 48.095118388339714 ], [ -1.626128725083358, 48.095149456281909 ], [ -1.626211565114688, 48.095163533447213 ], [ -1.62620718290152, 48.095174509846359 ], [ -1.626127470498419, 48.095202395994384 ], [ -1.626050818137958, 48.095141427887953 ], [ -1.625994765605003, 48.095058030022891 ], [ -1.625997025621626, 48.095056439467712 ], [ -1.626040676091249, 48.09502572086955 ], [ -1.626056023928492, 48.095018962155144 ], [ -1.626134950438601, 48.095000669649238 ], [ -1.626181535151195, 48.094990310144333 ], [ -1.626365685533704, 48.094985334028792 ], [ -1.626401896497028, 48.094984355526471 ], [ -1.626550541800988, 48.095011055088683 ], [ -1.626734830920034, 48.095044157205173 ], [ -1.626813040990486, 48.095058204965582 ], [ -1.626870747240872, 48.095065598427524 ], [ -1.62686217523736, 48.095033275687172 ], [ -1.627126651913921, 48.094883543895435 ], [ -1.627144255499759, 48.09490340585478 ], [ -1.627300768838195, 48.094911102851235 ], [ -1.627211633277953, 48.095051612971936 ], [ -1.627241719519478, 48.095113124902682 ], [ -1.627280004014079, 48.09511803012257 ], [ -1.62748446429805, 48.095163516834909 ], [ -1.62764493799261, 48.095224180140825 ], [ -1.627715105947458, 48.095264527253484 ], [ -1.627715117562357, 48.095264533931143 ], [ -1.627481004278376, 48.095317462183864 ] ] ] } },
{ "type": "Feature", "properties": { "gml_id": "occup_sol_uf_zae.7386", "id_occup_sol_uf_zae": 7386, "couverture": "Voirie et stationnement", "code_insee": "35238", "idza": "25", "etape": "Terminée", "vocation": "Productive", "surf_m2": 42842, "surf_uf_m2": 105342, "conso_espace": "Renouvellement", "pourcentage_occup": 41 }, "geometry": { "type": "Polygon", "coordinates": [ [ [ -1.627175571548202, 48.09539736410165 ], [ -1.627178963671576, 48.095394963001958 ], [ -1.627197413933239, 48.095391072473355 ], [ -1.627175571548202, 48.09539736410165 ] ] ] } },
{ "type": "Feature", "properties": { "gml_id": "occup_sol_uf_zae.7386", "id_occup_sol_uf_zae": 7386, "couverture": "Voirie et stationnement", "code_insee": "35238", "idza": "25", "etape": "Terminée", "vocation": "Productive", "surf_m2": 42842, "surf_uf_m2": 105342, "conso_espace": "Renouvellement", "pourcentage_occup": 41 }, "geometry": { "type": "Polygon", "coordinates": [ [ [ -1.626994660787899, 48.095449474825259 ], [ -1.627043548472878, 48.09542834733351 ], [ -1.627075517601263, 48.095426184301338 ], [ -1.626994660787899, 48.095449474825259 ] ] ] } },
{ "type": "Feature", "properties": { "gml_id": "occup_sol_uf_zae.7386", "id_occup_sol_uf_zae": 7386, "couverture": "Voirie et stationnement", "code_insee": "35238", "idza": "25", "etape": "Terminée", "vocation": "Productive", "surf_m2": 42842, "surf_uf_m2": 105342, "conso_espace": "Renouvellement", "pourcentage_occup": 41 }, "geometry": { "type": "Polygon", "coordinates": [ [ [ -1.626862952341793, 48.095487085410163 ], [ -1.626877462705206, 48.095473571543863 ], [ -1.62690801147875, 48.095474256851716 ], [ -1.626862952341793, 48.095487085410163 ] ] ] } },
{ "type": "Feature", "properties": { "gml_id": "occup_sol_uf_zae.7549", "id_occup_sol_uf_zae": 7549, "couverture": "Espace vert", "code_insee": "35238", "idza": "25", "etape": "Terminée", "vocation": "Productive", "surf_m2": 2903, "surf_uf_m2": 9981, "conso_espace": "Renouvellement", "pourcentage_occup": 29 }, "geometry": { "type": "Polygon", "coordinates": [ [ [ -1.625880637810723, 48.093027676265791 ], [ -1.626062324415622, 48.092959106372632 ], [ -1.626436118538424, 48.092820368726152 ], [ -1.626553521087802, 48.092777135861645 ], [ -1.626838161132566, 48.092671159188463 ], [ -1.626951512988877, 48.092633347876344 ], [ -1.626891000700397, 48.092830810760944 ], [ -1.626890907495746, 48.092830833425644 ], [ -1.626890649706646, 48.092830896126145 ], [ -1.626900184036917, 48.092799877172389 ], [ -1.626917403652585, 48.09274386004747 ], [ -1.626890562539521, 48.092830847095186 ], [ -1.626890539496686, 48.092830922935399 ], [ -1.626410351390247, 48.092947717309031 ], [ -1.626152076637646, 48.093017804180327 ], [ -1.626137202852661, 48.093024453273827 ], [ -1.626120588601539, 48.09303659629601 ], [ -1.626093077281271, 48.093056703231504 ], [ -1.625996053092494, 48.093127610651358 ], [ -1.625986422833255, 48.093144204394164 ], [ -1.625971654467391, 48.093137458070302 ], [ -1.625866705628064, 48.09320122755048 ], [ -1.625740691767722, 48.093104992678001 ], [ -1.625579196875965, 48.093196269750536 ], [ -1.625548848477859, 48.093209562536209 ], [ -1.625544569588673, 48.093211436098919 ], [ -1.625479790979135, 48.093283770455486 ], [ -1.625494114487732, 48.093291014754556 ], [ -1.625486968462923, 48.093295441962759 ], [ -1.625481240569449, 48.093300713955252 ], [ -1.625477184829749, 48.093306643176248 ], [ -1.625475037669601, 48.09331285616345 ], [ -1.625474531146722, 48.093319366168089 ], [ -1.625476170141592, 48.0933257927813 ], [ -1.625479402427647, 48.09333197560219 ], [ -1.625484449090352, 48.093337366028422 ], [ -1.625491057648271, 48.093342154247878 ], [ -1.625497524586764, 48.093345324598168 ], [ -1.625536504148269, 48.093376154406187 ], [ -1.625521616655101, 48.093380835288428 ], [ -1.625530942624077, 48.093418960273645 ], [ -1.625402981088675, 48.093312882748705 ], [ -1.62532465695436, 48.093248010406846 ], [ -1.62532463848746, 48.093247995102416 ], [ -1.625416892213112, 48.09319870470194 ], [ -1.625425425348402, 48.09319549734623 ], [ -1.625515290872685, 48.093162142993123 ], [ -1.625758079441348, 48.093072029838559 ], [ -1.625880637810723, 48.093027676265791 ] ] ] } },
{ "type": "Feature", "properties": { "gml_id": "occup_sol_uf_zae.7549", "id_occup_sol_uf_zae": 7549, "couverture": "Espace vert", "code_insee": "35238", "idza": "25", "etape": "Terminée", "vocation": "Productive", "surf_m2": 2903, "surf_uf_m2": 9981, "conso_espace": "Renouvellement", "pourcentage_occup": 29 }, "geometry": { "type": "Polygon", "coordinates": [ [ [ -1.626469190803561, 48.094212149748152 ], [ -1.626361023127763, 48.094119135868176 ], [ -1.625971120561298, 48.093783857217794 ], [ -1.625877845589209, 48.093706534729598 ], [ -1.625901421080397, 48.093710937287497 ], [ -1.625961512020982, 48.09375184264055 ], [ -1.626262291869621, 48.093990617641296 ], [ -1.626296815095605, 48.09404787026935 ], [ -1.626364923648732, 48.094084136362326 ], [ -1.626480389356333, 48.094176807255593 ], [ -1.626480429414815, 48.094176839396297 ], [ -1.626480455604364, 48.094176860417704 ], [ -1.626469190803561, 48.094212149748152 ] ] ] } },
{ "type": "Feature", "properties": { "gml_id": "occup_sol_uf_zae.7549", "id_occup_sol_uf_zae": 7549, "couverture": "Espace vert", "code_insee": "35238", "idza": "25", "etape": "Terminée", "vocation": "Productive", "surf_m2": 2903, "surf_uf_m2": 9981, "conso_espace": "Renouvellement", "pourcentage_occup": 29 }, "geometry": { "type": "Polygon", "coordinates": [ [ [ -1.625849640495434, 48.09499515143024 ], [ -1.625849667786009, 48.094995134393322 ], [ -1.626081250076081, 48.094862622732627 ], [ -1.626194633197644, 48.09479774465477 ], [ -1.626218453804997, 48.094784114432521 ], [ -1.626380797463157, 48.094691220851679 ], [ -1.62638094470682, 48.094691124316725 ], [ -1.626380990185469, 48.094691134704426 ], [ -1.626398349206624, 48.094698725620724 ], [ -1.626404300579422, 48.094706595471351 ], [ -1.626394758498728, 48.094738258523961 ], [ -1.626394657669443, 48.094738286946296 ], [ -1.626394633505024, 48.094738293757601 ], [ -1.626394581122781, 48.094738308525521 ], [ -1.626292927305227, 48.094766965456621 ], [ -1.626311466611038, 48.094780490851733 ], [ -1.626306745921068, 48.094832430802121 ], [ -1.626150050491211, 48.094925742667314 ], [ -1.62611009236426, 48.094949537641781 ], [ -1.626146861170703, 48.094927820263933 ], [ -1.626150179113193, 48.09492586067217 ], [ -1.626170309635253, 48.094913971455135 ], [ -1.626192145750809, 48.094901073354336 ], [ -1.626221300775244, 48.094883854432432 ], [ -1.626262407923157, 48.094859575309655 ], [ -1.626301938117655, 48.094835411997742 ], [ -1.626262413783297, 48.09485971639311 ], [ -1.626110143189231, 48.094949551400568 ], [ -1.62598453888749, 48.095011281803068 ], [ -1.625984460536277, 48.095011256717619 ], [ -1.625984510069937, 48.095011232378361 ], [ -1.625957469347167, 48.095002596390735 ], [ -1.625968289404886, 48.095006079864618 ], [ -1.625957535651727, 48.095002637278697 ], [ -1.625994765579808, 48.095058030041926 ], [ -1.625994731571452, 48.095058053972622 ], [ -1.625968492361696, 48.095076520652917 ], [ -1.62596318293082, 48.095080257359584 ], [ -1.625957289533614, 48.095088425540759 ], [ -1.625849667787404, 48.094995174606716 ], [ -1.625849640495434, 48.09499515143024 ] ] ] } },
{ "type": "Feature", "properties": { "gml_id": "occup_sol_uf_zae.7549", "id_occup_sol_uf_zae": 7549, "couverture": "Espace vert", "code_insee": "35238", "idza": "25", "etape": "Terminée", "vocation": "Productive", "surf_m2": 2903, "surf_uf_m2": 9981, "conso_espace": "Renouvellement", "pourcentage_occup": 29 }, "geometry": { "type": "Polygon", "coordinates": [ [ [ -1.626444853649855, 48.093439597677424 ], [ -1.626187849656622, 48.093584975635039 ], [ -1.626169738759577, 48.09357661466624 ], [ -1.626169824775189, 48.093566762560151 ], [ -1.626162711123383, 48.093554285421128 ], [ -1.626022610481676, 48.093415751650262 ], [ -1.626015720970921, 48.093267470249586 ], [ -1.626067442426292, 48.093177298766385 ], [ -1.626268950091609, 48.093284012152843 ], [ -1.626444853649855, 48.093439597677424 ] ] ] } },
{ "type": "Feature", "properties": { "gml_id": "occup_sol_uf_zae.7389", "id_occup_sol_uf_zae": 7389, "couverture": "Bâti", "code_insee": "35238", "idza": "25", "etape": "Terminée", "vocation": "Productive", "surf_m2": 28403, "surf_uf_m2": 105342, "conso_espace": "Renouvellement", "pourcentage_occup": 27 }, "geometry": { "type": "Polygon", "coordinates": [ [ [ -1.629855204198014, 48.092997793501354 ], [ -1.629816536433419, 48.092991232839054 ], [ -1.629864176835729, 48.092819565151601 ], [ -1.62990389563906, 48.09282517204209 ], [ -1.629855204198014, 48.092997793501354 ] ] ] } },
{ "type": "Feature", "properties": { "gml_id": "occup_sol_uf_zae.7389", "id_occup_sol_uf_zae": 7389, "couverture": "Bâti", "code_insee": "35238", "idza": "25", "etape": "Terminée", "vocation": "Productive", "surf_m2": 28403, "surf_uf_m2": 105342, "conso_espace": "Renouvellement", "pourcentage_occup": 27 }, "geometry": { "type": "Polygon", "coordinates": [ [ [ -1.630013099257119, 48.093014378904776 ], [ -1.630063776102433, 48.092876189795433 ], [ -1.630070536134033, 48.092878079998087 ], [ -1.630101583514466, 48.092886830943392 ], [ -1.630136085989872, 48.092896614078278 ], [ -1.630161844355777, 48.092852284745675 ], [ -1.630287931713078, 48.092886248397676 ], [ -1.630227573486589, 48.092988713456194 ], [ -1.630226042063487, 48.092991229113466 ], [ -1.63005221872682, 48.092944966131491 ], [ -1.630019618229375, 48.093025690011977 ], [ -1.630009569572611, 48.093023984760009 ], [ -1.630013099257119, 48.093014378904776 ] ] ] } },
{ "type": "Feature", "properties": { "gml_id": "occup_sol_uf_zae.7389", "id_occup_sol_uf_zae": 7389, "couverture": "Bâti", "code_insee": "35238", "idza": "25", "etape": "Terminée", "vocation": "Productive", "surf_m2": 28403, "surf_uf_m2": 105342, "conso_espace": "Renouvellement", "pourcentage_occup": 27 }, "geometry": { "type": "Polygon", "coordinates": [ [ [ -1.626518052456206, 48.094058313042481 ], [ -1.626530224625947, 48.094020069483271 ], [ -1.626714668658066, 48.093410208976692 ], [ -1.626749959672414, 48.093298320701322 ], [ -1.626761570710879, 48.093255324162257 ], [ -1.626849860427433, 48.092965058699448 ], [ -1.626852757842792, 48.092955603930584 ], [ -1.626852757843598, 48.092955603939572 ], [ -1.627030345969739, 48.093106567911285 ], [ -1.62709379827069, 48.093072031018508 ], [ -1.627394944863022, 48.092908120882043 ], [ -1.627716336276541, 48.09273318857214 ], [ -1.627855548853692, 48.092854975765455 ], [ -1.62810440198669, 48.093031056733345 ], [ -1.628165342887088, 48.093052067860626 ], [ -1.628159160622435, 48.093056696225538 ], [ -1.628143387476633, 48.09306663951233 ], [ -1.628003065121988, 48.093155099260827 ], [ -1.62783224271163, 48.093262785815675 ], [ -1.627892858158774, 48.093313631042179 ], [ -1.628231126285052, 48.093597374368201 ], [ -1.628494409973718, 48.093451273427256 ], [ -1.628612936810068, 48.093543577736227 ], [ -1.62882295715278, 48.093705760978224 ], [ -1.629343469377397, 48.094112595382477 ], [ -1.629520013413797, 48.094007678874767 ], [ -1.629633262068581, 48.094102378401459 ], [ -1.629390394703317, 48.094239594339271 ], [ -1.629483828068905, 48.094301157798867 ], [ -1.629368341373689, 48.094365190644695 ], [ -1.629293028947869, 48.094294600932891 ], [ -1.629240987665133, 48.094324003002605 ], [ -1.628952472907536, 48.094487004523955 ], [ -1.628835592723475, 48.094396955076888 ], [ -1.628886969713589, 48.094368491539633 ], [ -1.628819308512373, 48.0943150708462 ], [ -1.62857730665018, 48.094124001027055 ], [ -1.628405902479716, 48.093988668253843 ], [ -1.628187514709712, 48.094108831005471 ], [ -1.628124660781131, 48.094143416129654 ], [ -1.628077512363369, 48.094105129111348 ], [ -1.628233401527931, 48.094019163702811 ], [ -1.628028629756738, 48.093863497623481 ], [ -1.62815579864683, 48.093789631354028 ], [ -1.627944106975548, 48.093620881062606 ], [ -1.627500373760343, 48.093865139467731 ], [ -1.627711099370283, 48.094094118815697 ], [ -1.627241052082461, 48.094357649272588 ], [ -1.627256921027913, 48.094387620108542 ], [ -1.627288062850761, 48.094394615147444 ], [ -1.627272505243149, 48.094399973390843 ], [ -1.627260517115743, 48.094409277400409 ], [ -1.627254754425639, 48.094420942695137 ], [ -1.627255411043165, 48.094426934655772 ], [ -1.627239246671872, 48.094423505534145 ], [ -1.627090128850602, 48.094508001792654 ], [ -1.626996704156238, 48.094442374471598 ], [ -1.626602800758599, 48.094129743657575 ], [ -1.626517487253639, 48.094060112627631 ], [ -1.626517487253639, 48.094060112627631 ], [ -1.626518052456206, 48.094058313042481 ] ] ] } },
{ "type": "Feature", "properties": { "gml_id": "occup_sol_uf_zae.7389", "id_occup_sol_uf_zae": 7389, "couverture": "Bâti", "code_insee": "35238", "idza": "25", "etape": "Terminée", "vocation": "Productive", "surf_m2": 28403, "surf_uf_m2": 105342, "conso_espace": "Renouvellement", "pourcentage_occup": 27 }, "geometry": { "type": "Polygon", "coordinates": [ [ [ -1.626963050843054, 48.092653942439206 ], [ -1.627153246466524, 48.092584094700634 ], [ -1.627301184768096, 48.092529765720606 ], [ -1.627314000202631, 48.092525058773923 ], [ -1.627327697948696, 48.092541657892475 ], [ -1.627423414019532, 48.092657650962586 ], [ -1.627353823729617, 48.092685990583249 ], [ -1.627061308778613, 48.092780116380879 ], [ -1.626959481595088, 48.092655252741885 ], [ -1.626963050843054, 48.092653942439206 ] ] ] } },
{ "type": "Feature", "properties": { "gml_id": "occup_sol_uf_zae.7389", "id_occup_sol_uf_zae": 7389, "couverture": "Bâti", "code_insee": "35238", "idza": "25", "etape": "Terminée", "vocation": "Productive", "surf_m2": 28403, "surf_uf_m2": 105342, "conso_espace": "Renouvellement", "pourcentage_occup": 27 }, "geometry": { "type": "Polygon", "coordinates": [ [ [ -1.630330048878048, 48.093585190758162 ], [ -1.630687299960307, 48.093517202386813 ], [ -1.630686377705309, 48.093460588901067 ], [ -1.630695263863758, 48.093463877464416 ], [ -1.630771936210407, 48.093492248693558 ], [ -1.631213631782522, 48.094545941518092 ], [ -1.631037836513019, 48.094575594415659 ], [ -1.631215144156914, 48.094994616149883 ], [ -1.631178569625848, 48.095011849247278 ], [ -1.630970260268416, 48.095055570967638 ], [ -1.630828194536684, 48.095079058022449 ], [ -1.630645958563081, 48.094649369550048 ], [ -1.630772883389318, 48.094625995033532 ], [ -1.630733817201671, 48.094534178434898 ], [ -1.630677634019107, 48.094402132894174 ], [ -1.630668129012036, 48.094379793332294 ], [ -1.630409974974133, 48.09377304796265 ], [ -1.630330048878048, 48.093585190758162 ] ] ] } },
{ "type": "Feature", "properties": { "gml_id": "occup_sol_uf_zae.7389", "id_occup_sol_uf_zae": 7389, "couverture": "Bâti", "code_insee": "35238", "idza": "25", "etape": "Terminée", "vocation": "Productive", "surf_m2": 28403, "surf_uf_m2": 105342, "conso_espace": "Renouvellement", "pourcentage_occup": 27 }, "geometry": { "type": "Polygon", "coordinates": [ [ [ -1.62773110728936, 48.095016090893999 ], [ -1.627700075531627, 48.095033601687504 ], [ -1.627588089566998, 48.095096364649798 ], [ -1.62737628598409, 48.094925652694549 ], [ -1.627494269114797, 48.094859541654024 ], [ -1.627712751411954, 48.095004019680566 ], [ -1.62773110728936, 48.095016090893999 ] ] ] } },
{ "type": "Feature", "properties": { "gml_id": "occup_sol_uf_zae.7389", "id_occup_sol_uf_zae": 7389, "couverture": "Bâti", "code_insee": "35238", "idza": "25", "etape": "Terminée", "vocation": "Productive", "surf_m2": 28403, "surf_uf_m2": 105342, "conso_espace": "Renouvellement", "pourcentage_occup": 27 }, "geometry": { "type": "Polygon", "coordinates": [ [ [ -1.626870747240872, 48.095065598427524 ], [ -1.626813040990486, 48.095058204965582 ], [ -1.626734830920034, 48.095044157205173 ], [ -1.626550541800988, 48.095011055088683 ], [ -1.626401896497028, 48.094984355526471 ], [ -1.626365685533704, 48.094985334028792 ], [ -1.626408764314031, 48.094847986536365 ], [ -1.62644403479743, 48.094852388486068 ], [ -1.626458998579411, 48.094815427999414 ], [ -1.626505499852701, 48.094816626712536 ], [ -1.626517759030565, 48.094792420973675 ], [ -1.626566605506612, 48.094790683582687 ], [ -1.626729113479403, 48.094588822953114 ], [ -1.626848609607955, 48.094601253615899 ], [ -1.62711524181618, 48.094818829921721 ], [ -1.627098713897825, 48.094829396714758 ], [ -1.627140272679535, 48.094863242628087 ], [ -1.62714938954919, 48.094870671547781 ], [ -1.627126651913921, 48.094883543895435 ], [ -1.62686217523736, 48.095033275687172 ], [ -1.626870747240872, 48.095065598427524 ] ] ] } },
{ "type": "Feature", "properties": { "gml_id": "occup_sol_uf_zae.7389", "id_occup_sol_uf_zae": 7389, "couverture": "Bâti", "code_insee": "35238", "idza": "25", "etape": "Terminée", "vocation": "Productive", "surf_m2": 28403, "surf_uf_m2": 105342, "conso_espace": "Renouvellement", "pourcentage_occup": 27 }, "geometry": { "type": "Polygon", "coordinates": [ [ [ -1.626128725083358, 48.095149456281909 ], [ -1.62613949021998, 48.095118388339714 ], [ -1.626075808400342, 48.095092215129881 ], [ -1.626099747605491, 48.095075465727199 ], [ -1.626201098476291, 48.095052244781854 ], [ -1.626391135631819, 48.095047296026706 ], [ -1.626774474138685, 48.095116394430349 ], [ -1.626740242390387, 48.095207649134515 ], [ -1.626505365864739, 48.095167323443199 ], [ -1.626487487359388, 48.095213901949641 ], [ -1.62620718290152, 48.095174509846359 ], [ -1.626211565114688, 48.095163533447213 ], [ -1.626128725083358, 48.095149456281909 ] ] ] } },
{ "type": "Feature", "properties": { "gml_id": "occup_sol_uf_zae.7387", "id_occup_sol_uf_zae": 7387, "couverture": "Espace vert", "code_insee": "35238", "idza": "25", "etape": "Terminée", "vocation": "Productive", "surf_m2": 34097, "surf_uf_m2": 105342, "conso_espace": "Renouvellement", "pourcentage_occup": 32 }, "geometry": { "type": "Polygon", "coordinates": [ [ [ -1.627850634460869, 48.092309627940054 ], [ -1.628048709037722, 48.092246238647888 ], [ -1.6281531438834, 48.092221489820403 ], [ -1.628316326212043, 48.092191942525773 ], [ -1.628343897045426, 48.092201479197989 ], [ -1.628343919247021, 48.092201493099139 ], [ -1.628355666550459, 48.092208848262182 ], [ -1.628383713728859, 48.092215257037182 ], [ -1.628419804939301, 48.092227740524883 ], [ -1.628492715763033, 48.092252958280241 ], [ -1.628564123874943, 48.092277655448711 ], [ -1.628749167888626, 48.092351690641443 ], [ -1.628741626193588, 48.092362102731009 ], [ -1.628737964436159, 48.092360912618908 ], [ -1.628704353091599, 48.092407306167473 ], [ -1.628689767462992, 48.092394184567247 ], [ -1.628626518334872, 48.092445458914277 ], [ -1.628414654102617, 48.092371820809674 ], [ -1.628356511554135, 48.092447510726394 ], [ -1.628182047482022, 48.09240925222349 ], [ -1.628166912102306, 48.092407733435202 ], [ -1.628010339373618, 48.092415683157682 ], [ -1.627993253615965, 48.092419071637551 ], [ -1.627933552480221, 48.092444989322821 ], [ -1.627921130145856, 48.092430587334611 ], [ -1.627835636939088, 48.092459899441891 ], [ -1.62779117920205, 48.092406088035489 ], [ -1.627621711648453, 48.092497588721756 ], [ -1.627615250282571, 48.092513363984168 ], [ -1.627595465185361, 48.092561672730987 ], [ -1.627505600091751, 48.092586452902545 ], [ -1.62750535536785, 48.09262428004255 ], [ -1.627423414019532, 48.092657650962586 ], [ -1.627327697948696, 48.092541657892475 ], [ -1.627314000202631, 48.092525058773923 ], [ -1.627301184768096, 48.092529765720606 ], [ -1.627153246466524, 48.092584094700634 ], [ -1.626963050843054, 48.092653942439206 ], [ -1.626959481595088, 48.092655252741885 ], [ -1.627061308778613, 48.092780116380879 ], [ -1.626943289422914, 48.092818093141901 ], [ -1.626891000792595, 48.092830810739208 ], [ -1.626891000700397, 48.092830810760944 ], [ -1.626951512988877, 48.092633347876344 ], [ -1.62696361353702, 48.092628897991439 ], [ -1.627506012647432, 48.092433645107846 ], [ -1.627847999738384, 48.092310536183042 ], [ -1.627850634460869, 48.092309627940054 ] ] ] } },
{ "type": "Feature", "properties": { "gml_id": "occup_sol_uf_zae.7387", "id_occup_sol_uf_zae": 7387, "couverture": "Espace vert", "code_insee": "35238", "idza": "25", "etape": "Terminée", "vocation": "Productive", "surf_m2": 34097, "surf_uf_m2": 105342, "conso_espace": "Renouvellement", "pourcentage_occup": 32 }, "geometry": { "type": "Polygon", "coordinates": [ [ [ -1.629964672389481, 48.093146170037954 ], [ -1.630009569572611, 48.093023984760009 ], [ -1.630019618229375, 48.093025690011977 ], [ -1.63005221872682, 48.092944966131491 ], [ -1.630226042063487, 48.092991229113466 ], [ -1.630227573486589, 48.092988713456194 ], [ -1.630287931713078, 48.092886248397676 ], [ -1.630161844355777, 48.092852284745675 ], [ -1.630166376610742, 48.09284448489106 ], [ -1.630187575981304, 48.092807949580298 ], [ -1.630193035883749, 48.092798538366829 ], [ -1.630193055582614, 48.092798544754629 ], [ -1.630207967138771, 48.092772867948426 ], [ -1.630248026926119, 48.092786443184075 ], [ -1.630360520598816, 48.0928245643819 ], [ -1.630398899413523, 48.092837640338203 ], [ -1.63039606919026, 48.092843636929281 ], [ -1.630394924289476, 48.092846064376381 ], [ -1.630394992533463, 48.092846093145759 ], [ -1.630371296903687, 48.092896329722514 ], [ -1.630497300238407, 48.092939549708809 ], [ -1.630620534884212, 48.092981889965031 ], [ -1.630627209277283, 48.092984324222179 ], [ -1.630682950360146, 48.093046413194394 ], [ -1.630739170544868, 48.093091363010664 ], [ -1.630771421040969, 48.093110517442724 ], [ -1.630875057841809, 48.093165270472134 ], [ -1.630911701674879, 48.093185419217946 ], [ -1.631000383296657, 48.093250250793474 ], [ -1.631001780551701, 48.093253376322863 ], [ -1.631011357886771, 48.093273995013519 ], [ -1.631031364543733, 48.093318879204816 ], [ -1.631069411633914, 48.093404230134006 ], [ -1.631107921887067, 48.09349061852614 ], [ -1.631124325066341, 48.093527066383217 ], [ -1.631157680987464, 48.093601183518452 ], [ -1.631222723991711, 48.093745703834905 ], [ -1.631245497618639, 48.09379630775468 ], [ -1.63127912052403, 48.093871012464561 ], [ -1.631331528679867, 48.093987642530095 ], [ -1.631477619051039, 48.094316268421601 ], [ -1.631579956135336, 48.094545324496814 ], [ -1.631767212484828, 48.094963473662375 ], [ -1.631886529872148, 48.095230678966068 ], [ -1.631986284313646, 48.095454113169133 ], [ -1.631397984523777, 48.095333019970532 ], [ -1.631094999975109, 48.095273684207186 ], [ -1.630808202019738, 48.095222345598074 ], [ -1.63080015786713, 48.095221137898363 ], [ -1.630586450737135, 48.095188389156988 ], [ -1.630348087350114, 48.095158165030313 ], [ -1.630085521102442, 48.095132519467683 ], [ -1.629934467301735, 48.095118961030508 ], [ -1.62975388192464, 48.095110556444546 ], [ -1.62963433365646, 48.095107084422132 ], [ -1.629668840040678, 48.095067124712557 ], [ -1.629654616293485, 48.095035693178986 ], [ -1.629343105447759, 48.094788398968426 ], [ -1.629408983446891, 48.094736573933325 ], [ -1.629484845798735, 48.094766852789661 ], [ -1.629552424919905, 48.094729038905278 ], [ -1.629546680433478, 48.09471526057083 ], [ -1.629502769753342, 48.094710473649705 ], [ -1.629450203607813, 48.094625942682619 ], [ -1.629598024089083, 48.094540543336244 ], [ -1.629635567975618, 48.094521733010886 ], [ -1.629777942540569, 48.094450401251983 ], [ -1.629879853494193, 48.094399342146687 ], [ -1.629997436681897, 48.094425375851173 ], [ -1.630246268924127, 48.094434573666305 ], [ -1.63028285550645, 48.094495249716331 ], [ -1.630314083000197, 48.094547037744718 ], [ -1.630330128900713, 48.094573648046051 ], [ -1.630361165971423, 48.094625119936104 ], [ -1.630415365426144, 48.094715005569668 ], [ -1.630429818421409, 48.094746561425403 ], [ -1.630592813080986, 48.095102421065292 ], [ -1.630597584135649, 48.095109541102367 ], [ -1.630604822463172, 48.095115657296638 ], [ -1.630612364250468, 48.095119831643437 ], [ -1.630656049304879, 48.095144009044638 ], [ -1.630668427844243, 48.095146871813256 ], [ -1.630738855996663, 48.095155985009342 ], [ -1.630750469282772, 48.095156349420556 ], [ -1.630820395060226, 48.09514491497174 ], [ -1.63099419840961, 48.095116492836098 ], [ -1.631008817220953, 48.095113428139229 ], [ -1.631029935822789, 48.095148259759938 ], [ -1.631153356103982, 48.09517458920125 ], [ -1.631201736115529, 48.095127212971882 ], [ -1.631226427371471, 48.095103034145268 ], [ -1.631272434029295, 48.095093625584191 ], [ -1.631313794033878, 48.095038635443501 ], [ -1.63130059729832, 48.095030967080866 ], [ -1.631365709302895, 48.094999940311652 ], [ -1.631397164200377, 48.09498495202498 ], [ -1.631405727779274, 48.094976006729489 ], [ -1.631408187073864, 48.09497178064823 ], [ -1.631417921613029, 48.094955056143668 ], [ -1.631437765287606, 48.094920968605074 ], [ -1.631439292620745, 48.094918344926946 ], [ -1.63144186738845, 48.094903739119609 ], [ -1.631413406700996, 48.094819272933634 ], [ -1.631366145022189, 48.094679011944557 ], [ -1.63136232196421, 48.094667663998457 ], [ -1.631344633011051, 48.094625339344681 ], [ -1.631332380409706, 48.094596019945797 ], [ -1.631046378459044, 48.093911657004298 ], [ -1.630997701966967, 48.093795179224955 ], [ -1.630955361167665, 48.093693861745159 ], [ -1.63094327872365, 48.093665634429996 ], [ -1.630854074264144, 48.093457245159264 ], [ -1.630850202215776, 48.093453396119827 ], [ -1.630846725119899, 48.093449938981387 ], [ -1.630836642406584, 48.093444281727514 ], [ -1.630722624014593, 48.093402420633602 ], [ -1.630492400731254, 48.093344547217797 ], [ -1.630292207562865, 48.093294352238118 ], [ -1.630261803690805, 48.093286655619508 ], [ -1.630189232706943, 48.093264467772549 ], [ -1.629943005989559, 48.093189184672937 ], [ -1.629956409487076, 48.093145244967232 ], [ -1.629964672389481, 48.093146170037954 ] ] ] } },
{ "type": "Feature", "properties": { "gml_id": "occup_sol_uf_zae.7387", "id_occup_sol_uf_zae": 7387, "couverture": "Espace vert", "code_insee": "35238", "idza": "25", "etape": "Terminée", "vocation": "Productive", "surf_m2": 34097, "surf_uf_m2": 105342, "conso_espace": "Renouvellement", "pourcentage_occup": 32 }, "geometry": { "type": "Polygon", "coordinates": [ [ [ -1.629503177589338, 48.095103295284424 ], [ -1.629503154321448, 48.095103273416115 ], [ -1.629535693973813, 48.095104229406097 ], [ -1.629503177589338, 48.095103295284424 ] ] ] } },
{ "type": "Feature", "properties": { "gml_id": "occup_sol_uf_zae.7387", "id_occup_sol_uf_zae": 7387, "couverture": "Espace vert", "code_insee": "35238", "idza": "25", "etape": "Terminée", "vocation": "Productive", "surf_m2": 34097, "surf_uf_m2": 105342, "conso_espace": "Renouvellement", "pourcentage_occup": 32 }, "geometry": { "type": "Polygon", "coordinates": [ [ [ -1.627771728851945, 48.095251735259382 ], [ -1.627715117562357, 48.095264533931143 ], [ -1.627715105947458, 48.095264527253484 ], [ -1.62764493799261, 48.095224180140825 ], [ -1.62748446429805, 48.095163516834909 ], [ -1.627280004014079, 48.09511803012257 ], [ -1.627241719519478, 48.095113124902682 ], [ -1.627211633277953, 48.095051612971936 ], [ -1.627300768838195, 48.094911102851235 ], [ -1.627144255499759, 48.09490340585478 ], [ -1.627126651913921, 48.094883543895435 ], [ -1.62714938954919, 48.094870671547781 ], [ -1.627200891781656, 48.09479731402476 ], [ -1.627323650638515, 48.094895851409952 ], [ -1.627393900149137, 48.094952240463975 ], [ -1.627580643150082, 48.09510028186876 ], [ -1.627588089566998, 48.095096364649798 ], [ -1.627700075531627, 48.095033601687504 ], [ -1.627826960483527, 48.095140608249267 ], [ -1.627841523225531, 48.095231012637129 ], [ -1.627822804736133, 48.095242214974668 ], [ -1.627771728851945, 48.095251735259382 ] ] ] } },
{ "type": "Feature", "properties": { "gml_id": "occup_sol_uf_zae.7387", "id_occup_sol_uf_zae": 7387, "couverture": "Espace vert", "code_insee": "35238", "idza": "25", "etape": "Terminée", "vocation": "Productive", "surf_m2": 34097, "surf_uf_m2": 105342, "conso_espace": "Renouvellement", "pourcentage_occup": 32 }, "geometry": { "type": "Polygon", "coordinates": [ [ [ -1.627407087090134, 48.095334173351276 ], [ -1.627241706373031, 48.095378314186945 ], [ -1.627197413933239, 48.095391072473355 ], [ -1.627178963671576, 48.095394963001958 ], [ -1.627175571548202, 48.09539736410165 ], [ -1.627075517601263, 48.095426184301338 ], [ -1.627043548472878, 48.09542834733351 ], [ -1.626994660787899, 48.095449474825259 ], [ -1.626960986517552, 48.095459174582665 ], [ -1.62690801147875, 48.095474256851716 ], [ -1.626877462705206, 48.095473571543863 ], [ -1.626862952341793, 48.095487085410163 ], [ -1.626583915928606, 48.095566528442177 ], [ -1.626422608788131, 48.09543714375409 ], [ -1.626127470498419, 48.095202395994384 ], [ -1.62620718290152, 48.095174509846359 ], [ -1.626487487359388, 48.095213901949641 ], [ -1.626541117317278, 48.095221441345622 ], [ -1.626651923384381, 48.095274711934834 ], [ -1.626904881608034, 48.095256070927441 ], [ -1.627101143331853, 48.095159138006068 ], [ -1.627254672406375, 48.095178751745301 ], [ -1.627450502454304, 48.095222334115292 ], [ -1.627540946762729, 48.095256521048967 ], [ -1.627481004278376, 48.095317462183864 ], [ -1.627407087090134, 48.095334173351276 ] ] ] } },
{ "type": "Feature", "properties": { "gml_id": "occup_sol_uf_zae.7387", "id_occup_sol_uf_zae": 7387, "couverture": "Espace vert", "code_insee": "35238", "idza": "25", "etape": "Terminée", "vocation": "Productive", "surf_m2": 34097, "surf_uf_m2": 105342, "conso_espace": "Renouvellement", "pourcentage_occup": 32 }, "geometry": { "type": "Polygon", "coordinates": [ [ [ -1.625957535651727, 48.095002637278697 ], [ -1.625968289404886, 48.095006079864618 ], [ -1.625984424399567, 48.095011274462735 ], [ -1.625984460536277, 48.095011256717619 ], [ -1.62598453888749, 48.095011281803068 ], [ -1.626110143189231, 48.094949551400568 ], [ -1.626262413783297, 48.09485971639311 ], [ -1.626301938703543, 48.09483541163177 ], [ -1.626305941936785, 48.09483296460764 ], [ -1.626306741845957, 48.094832475648765 ], [ -1.626306374581713, 48.094836516570979 ], [ -1.626408764314031, 48.094847986536365 ], [ -1.626365685533704, 48.094985334028792 ], [ -1.626181535151195, 48.094990310144333 ], [ -1.626134950438601, 48.095000669649238 ], [ -1.626056023928492, 48.095018962155144 ], [ -1.626040676091249, 48.09502572086955 ], [ -1.625997025621626, 48.095056439467712 ], [ -1.625994765605003, 48.095058030022891 ], [ -1.625957535651727, 48.095002637278697 ] ] ] } },
{ "type": "Feature", "properties": { "gml_id": "occup_sol_uf_zae.7387", "id_occup_sol_uf_zae": 7387, "couverture": "Espace vert", "code_insee": "35238", "idza": "25", "etape": "Terminée", "vocation": "Productive", "surf_m2": 34097, "surf_uf_m2": 105342, "conso_espace": "Renouvellement", "pourcentage_occup": 32 }, "geometry": { "type": "Polygon", "coordinates": [ [ [ -1.626404300579422, 48.094706595471351 ], [ -1.626398349206624, 48.094698725620724 ], [ -1.626380990185469, 48.094691134704426 ], [ -1.62638094470682, 48.094691124316725 ], [ -1.626380990183659, 48.094691094491004 ], [ -1.626480233382546, 48.094633557770578 ], [ -1.626767963786034, 48.094466744318304 ], [ -1.626763112803583, 48.094499482004139 ], [ -1.626604760888486, 48.094565016221686 ], [ -1.626550910388776, 48.094635872405725 ], [ -1.626520548270903, 48.094634877814698 ], [ -1.626518563004985, 48.094689039986818 ], [ -1.626425239983032, 48.094729665554624 ], [ -1.626394758498728, 48.094738258523961 ], [ -1.626394758498728, 48.094738258523961 ], [ -1.626404300579422, 48.094706595471351 ] ] ] } },
{ "type": "Feature", "properties": { "gml_id": "occup_sol_uf_zae.7387", "id_occup_sol_uf_zae": 7387, "couverture": "Espace vert", "code_insee": "35238", "idza": "25", "etape": "Terminée", "vocation": "Productive", "surf_m2": 34097, "surf_uf_m2": 105342, "conso_espace": "Renouvellement", "pourcentage_occup": 32 }, "geometry": { "type": "Polygon", "coordinates": [ [ [ -1.626469190803561, 48.094212149748152 ], [ -1.626480455590157, 48.094176860409263 ], [ -1.626480455604364, 48.094176860417704 ], [ -1.626620774478716, 48.09428947893953 ], [ -1.626684044813168, 48.094320180433186 ], [ -1.626773556093787, 48.09442900285292 ], [ -1.62677018585859, 48.094451748268142 ], [ -1.62646920059697, 48.094212158166165 ], [ -1.626469190803561, 48.094212149748152 ] ] ] } },
{ "type": "Feature", "properties": { "gml_id": "occup_sol_uf_zae.7387", "id_occup_sol_uf_zae": 7387, "couverture": "Espace vert", "code_insee": "35238", "idza": "25", "etape": "Terminée", "vocation": "Productive", "surf_m2": 34097, "surf_uf_m2": 105342, "conso_espace": "Renouvellement", "pourcentage_occup": 32 }, "geometry": { "type": "Polygon", "coordinates": [ [ [ -1.628760341092443, 48.09326143795284 ], [ -1.628766331567724, 48.093268413669428 ], [ -1.62880996640641, 48.093298296849582 ], [ -1.628781387769586, 48.093376265222169 ], [ -1.628713467226168, 48.093402288272252 ], [ -1.628635364912986, 48.093432211727539 ], [ -1.628611699161735, 48.093438548757696 ], [ -1.628544338866194, 48.093437591371945 ], [ -1.628511760219448, 48.093429964490333 ], [ -1.628515965145348, 48.09343359138051 ], [ -1.628511444643206, 48.093439387556856 ], [ -1.628492223570102, 48.093438878533831 ], [ -1.628494409973718, 48.093451273427256 ], [ -1.628231126285052, 48.093597374368201 ], [ -1.627892858158774, 48.093313631042179 ], [ -1.62783224271163, 48.093262785815675 ], [ -1.628003065121988, 48.093155099260827 ], [ -1.628143387476633, 48.09306663951233 ], [ -1.628159160622435, 48.093056696225538 ], [ -1.628165342887088, 48.093052067860626 ], [ -1.62817882311363, 48.093056716504584 ], [ -1.628622907865226, 48.09320982825097 ], [ -1.628676655392071, 48.093228359136383 ], [ -1.628744102473882, 48.093251613778897 ], [ -1.628740759833364, 48.093262207804393 ], [ -1.628760341092443, 48.09326143795284 ] ] ] } },
{ "type": "Feature", "properties": { "gml_id": "occup_sol_uf_zae.7387", "id_occup_sol_uf_zae": 7387, "couverture": "Espace vert", "code_insee": "35238", "idza": "25", "etape": "Terminée", "vocation": "Productive", "surf_m2": 34097, "surf_uf_m2": 105342, "conso_espace": "Renouvellement", "pourcentage_occup": 32 }, "geometry": { "type": "Polygon", "coordinates": [ [ [ -1.628029684118594, 48.092786802646394 ], [ -1.628022426046899, 48.092793142691988 ], [ -1.628017346514243, 48.092797579879388 ], [ -1.627975019852626, 48.092782468599708 ], [ -1.627961848891119, 48.092745709651986 ], [ -1.627843913670124, 48.092741255821743 ], [ -1.627812786515777, 48.092714047285448 ], [ -1.627775793333918, 48.092681711379697 ], [ -1.627702000750099, 48.092617207673335 ], [ -1.627823025240634, 48.092568018406467 ], [ -1.627860195963042, 48.09255185445619 ], [ -1.628030435784894, 48.092477822038056 ], [ -1.628074737372131, 48.092475558601279 ], [ -1.628071839665902, 48.09248690130687 ], [ -1.628117002595078, 48.092500693178735 ], [ -1.628127753548836, 48.092526311015348 ], [ -1.628160257262692, 48.092603762155868 ], [ -1.628175887486962, 48.092641007615519 ], [ -1.628190400899435, 48.092641538586506 ], [ -1.628184781624255, 48.092651303559585 ], [ -1.628029684118594, 48.092786802646394 ] ] ] } },
{ "type": "Feature", "properties": { "gml_id": "occup_sol_uf_zae.7387", "id_occup_sol_uf_zae": 7387, "couverture": "Espace vert", "code_insee": "35238", "idza": "25", "etape": "Terminée", "vocation": "Productive", "surf_m2": 34097, "surf_uf_m2": 105342, "conso_espace": "Renouvellement", "pourcentage_occup": 32 }, "geometry": { "type": "Polygon", "coordinates": [ [ [ -1.630136318257486, 48.09345614055335 ], [ -1.630070412834984, 48.093496878121279 ], [ -1.630097056849036, 48.09352976639925 ], [ -1.630049096859622, 48.093631389448312 ], [ -1.629931661601242, 48.093592144446916 ], [ -1.629572964578757, 48.093460898341242 ], [ -1.629572779714515, 48.093460830802087 ], [ -1.629587225608957, 48.09344363452206 ], [ -1.6295939039783, 48.093436238182463 ], [ -1.629596478944154, 48.09343305502734 ], [ -1.629672547744035, 48.093339034416253 ], [ -1.629678576716211, 48.093331582493036 ], [ -1.629678659227409, 48.093331480090882 ], [ -1.62976633403109, 48.093223037533704 ], [ -1.629768168924291, 48.093220053840348 ], [ -1.629778491355633, 48.093208086484566 ], [ -1.630177823346445, 48.093330133185056 ], [ -1.630136318257486, 48.09345614055335 ] ] ] } },
{ "type": "Feature", "properties": { "gml_id": "occup_sol_uf_zae.7387", "id_occup_sol_uf_zae": 7387, "couverture": "Espace vert", "code_insee": "35238", "idza": "25", "etape": "Terminée", "vocation": "Productive", "surf_m2": 34097, "surf_uf_m2": 105342, "conso_espace": "Renouvellement", "pourcentage_occup": 32 }, "geometry": { "type": "Polygon", "coordinates": [ [ [ -1.628835592723475, 48.094396955076888 ], [ -1.628952472907536, 48.094487004523955 ], [ -1.629240987665133, 48.094324003002605 ], [ -1.629394614740735, 48.094406718282322 ], [ -1.629322287313088, 48.09447728834806 ], [ -1.629456923220442, 48.094508120890445 ], [ -1.629469149338391, 48.094531744601312 ], [ -1.629178336919222, 48.094699426936337 ], [ -1.629109652403864, 48.094666632897216 ], [ -1.629158837955805, 48.094571226990766 ], [ -1.629146206043387, 48.094562567192007 ], [ -1.628992422931847, 48.094595534931493 ], [ -1.628923893903547, 48.094527190501957 ], [ -1.628883228556494, 48.094552288023742 ], [ -1.628748924815734, 48.094480148450423 ], [ -1.628785119715305, 48.094396126172093 ], [ -1.628823710820834, 48.094390174038892 ], [ -1.628835592723475, 48.094396955076888 ] ] ] } },
{ "type": "Feature", "properties": { "gml_id": "occup_sol_uf_zae.7387", "id_occup_sol_uf_zae": 7387, "couverture": "Espace vert", "code_insee": "35238", "idza": "25", "etape": "Terminée", "vocation": "Productive", "surf_m2": 34097, "surf_uf_m2": 105342, "conso_espace": "Renouvellement", "pourcentage_occup": 32 }, "geometry": { "type": "Polygon", "coordinates": [ [ [ -1.629881443032223, 48.094049081083675 ], [ -1.629905259234945, 48.094053120260639 ], [ -1.629882357584461, 48.094101731350136 ], [ -1.629859227044873, 48.094095904748187 ], [ -1.629783027719679, 48.094212200642119 ], [ -1.629732712308529, 48.094213092148756 ], [ -1.629665607179715, 48.094124025616374 ], [ -1.629633262068581, 48.094102378401459 ], [ -1.629520013413797, 48.094007678874767 ], [ -1.629343469377397, 48.094112595382477 ], [ -1.62882295715278, 48.093705760978224 ], [ -1.628823578031221, 48.093705199332142 ], [ -1.628938375250057, 48.093601343871214 ], [ -1.629045384991834, 48.093625742567475 ], [ -1.629055191224778, 48.093590801644979 ], [ -1.629188249076696, 48.093506417590035 ], [ -1.629129704961118, 48.09345833006379 ], [ -1.629024531991727, 48.09345116170261 ], [ -1.628849372366066, 48.093529248686764 ], [ -1.62880012979094, 48.093497222503352 ], [ -1.628751983289163, 48.093452686778775 ], [ -1.628955093896595, 48.093325241552201 ], [ -1.628955167908663, 48.093322692168812 ], [ -1.629191028352513, 48.093401714682898 ], [ -1.629476631232392, 48.09349740110688 ], [ -1.629887354976222, 48.093647707034457 ], [ -1.630032113673084, 48.093696083266046 ], [ -1.62997305247496, 48.093835923421267 ], [ -1.6299317925635, 48.093873971785221 ], [ -1.629881443032223, 48.094049081083675 ] ] ] } },
{ "type": "Feature", "properties": { "gml_id": "occup_sol_uf_zae.7387", "id_occup_sol_uf_zae": 7387, "couverture": "Espace vert", "code_insee": "35238", "idza": "25", "etape": "Terminée", "vocation": "Productive", "surf_m2": 34097, "surf_uf_m2": 105342, "conso_espace": "Renouvellement", "pourcentage_occup": 32 }, "geometry": { "type": "Polygon", "coordinates": [ [ [ -1.631037836513019, 48.094575594415659 ], [ -1.631213631782522, 48.094545941518092 ], [ -1.63127145668048, 48.094683881463162 ], [ -1.631346151274439, 48.094904993014261 ], [ -1.631323787492127, 48.094943427083379 ], [ -1.631215144156914, 48.094994616149883 ], [ -1.631037836513019, 48.094575594415659 ] ] ] } },
{ "type": "Feature", "properties": { "gml_id": "occup_sol_uf_zae.7387", "id_occup_sol_uf_zae": 7387, "couverture": "Espace vert", "code_insee": "35238", "idza": "25", "etape": "Terminée", "vocation": "Productive", "surf_m2": 34097, "surf_uf_m2": 105342, "conso_espace": "Renouvellement", "pourcentage_occup": 32 }, "geometry": { "type": "Polygon", "coordinates": [ [ [ -1.630828194536684, 48.095079058022449 ], [ -1.630745614408653, 48.095092710982058 ], [ -1.630698574864995, 48.095086619725855 ], [ -1.630678704808047, 48.095075212439021 ], [ -1.630557221294187, 48.09481025761081 ], [ -1.630538925798155, 48.094770355350434 ], [ -1.630509685748542, 48.09470658075675 ], [ -1.630591038864813, 48.094663433624383 ], [ -1.630621656835138, 48.094647194780897 ], [ -1.630645958563081, 48.094649369550048 ], [ -1.630828194536684, 48.095079058022449 ] ] ] } },
{ "type": "Feature", "properties": { "gml_id": "occup_sol_uf_zae.7387", "id_occup_sol_uf_zae": 7387, "couverture": "Espace vert", "code_insee": "35238", "idza": "25", "etape": "Terminée", "vocation": "Productive", "surf_m2": 34097, "surf_uf_m2": 105342, "conso_espace": "Renouvellement", "pourcentage_occup": 32 }, "geometry": { "type": "Polygon", "coordinates": [ [ [ -1.630322195569756, 48.09439231429031 ], [ -1.630316037417663, 48.094385102763837 ], [ -1.630302581049786, 48.094377093872438 ], [ -1.630285616703707, 48.094373060222566 ], [ -1.6300135539385, 48.094363035442363 ], [ -1.629918165778939, 48.094341731174787 ], [ -1.629916564368536, 48.094238369646639 ], [ -1.630168847349338, 48.093702657652521 ], [ -1.630170328926574, 48.093699327280696 ], [ -1.63017568125631, 48.093686457450637 ], [ -1.63029525765609, 48.093711913939707 ], [ -1.630260943794604, 48.093819641933202 ], [ -1.63030359931807, 48.093829121946378 ], [ -1.63034320180587, 48.093771426686033 ], [ -1.630409974974133, 48.09377304796265 ], [ -1.630668129012036, 48.094379793332294 ], [ -1.630677634019107, 48.094402132894174 ], [ -1.630733817201671, 48.094534178434898 ], [ -1.630550292792603, 48.094557980711357 ], [ -1.630495665612991, 48.094611502096321 ], [ -1.630453971966073, 48.094610855927485 ], [ -1.630366727999735, 48.094466167349346 ], [ -1.630322195569756, 48.09439231429031 ] ] ] } },
{ "type": "Feature", "properties": { "gml_id": "occup_sol_uf_zae.7543", "id_occup_sol_uf_zae": 7543, "couverture": "Bâti", "code_insee": "35238", "idza": "25", "etape": "Terminée", "vocation": "Productive", "surf_m2": 3019, "surf_uf_m2": 9981, "conso_espace": "Renouvellement", "pourcentage_occup": 30 }, "geometry": { "type": "Polygon", "coordinates": [ [ [ -1.626849860427433, 48.092965058699448 ], [ -1.626761570710879, 48.093255324162257 ], [ -1.626749959672414, 48.093298320701322 ], [ -1.626714668658066, 48.093410208976692 ], [ -1.626530224625947, 48.094020069483271 ], [ -1.626518052456206, 48.094058313042481 ], [ -1.626517487253639, 48.094060112627631 ], [ -1.626517413109609, 48.094060052106485 ], [ -1.626517176051052, 48.094059858625279 ], [ -1.626110682079396, 48.093732633407505 ], [ -1.625968868787147, 48.09362054010375 ], [ -1.626066958493156, 48.093571090257704 ], [ -1.626089920006916, 48.09359365154689 ], [ -1.626101769757547, 48.093599487641491 ], [ -1.626115731726455, 48.093602585203968 ], [ -1.626130439214192, 48.093602640984329 ], [ -1.626144452103532, 48.093599650265652 ], [ -1.626156400622135, 48.093593904862523 ], [ -1.626165113597128, 48.09358596727121 ], [ -1.626169738759577, 48.09357661466624 ], [ -1.626187849656622, 48.093584975635039 ], [ -1.626444853649855, 48.093439597677424 ], [ -1.62661172087875, 48.093345204867305 ], [ -1.626438000237632, 48.093200383980466 ], [ -1.626555901018279, 48.093133640551109 ], [ -1.626747288869169, 48.093025291945793 ], [ -1.626808645020292, 48.092990556354721 ], [ -1.626756768628644, 48.092930443276543 ], [ -1.626810134306017, 48.092917457977983 ], [ -1.626852411671921, 48.092955296499461 ], [ -1.62685270442318, 48.092955558523919 ], [ -1.626852757842792, 48.092955603930584 ], [ -1.626849860427433, 48.092965058699448 ] ] ] } },
{ "type": "Feature", "properties": { "gml_id": "occup_sol_uf_zae.7543", "id_occup_sol_uf_zae": 7543, "couverture": "Bâti", "code_insee": "35238", "idza": "25", "etape": "Terminée", "vocation": "Productive", "surf_m2": 3019, "surf_uf_m2": 9981, "conso_espace": "Renouvellement", "pourcentage_occup": 30 }, "geometry": { "type": "Polygon", "coordinates": [ [ [ -1.625556694446072, 48.09329270253059 ], [ -1.625548823608979, 48.093288865323217 ], [ -1.625539974409933, 48.0932861482219 ], [ -1.625530698955531, 48.093284709838684 ], [ -1.6255209972167, 48.093284550156604 ], [ -1.625511389848215, 48.093285468465986 ], [ -1.625502162011989, 48.093287632914056 ], [ -1.625494114487732, 48.093291014754556 ], [ -1.625479790979135, 48.093283770455486 ], [ -1.625544569588673, 48.093211436098919 ], [ -1.625548848477859, 48.093209562536209 ], [ -1.625579196875965, 48.093196269750536 ], [ -1.625740691767722, 48.093104992678001 ], [ -1.625866705628064, 48.09320122755048 ], [ -1.625897289645475, 48.093225022660789 ], [ -1.625786147411293, 48.093285491087286 ], [ -1.625742851297517, 48.093251202813647 ], [ -1.62568397809876, 48.093283879702547 ], [ -1.625644204943766, 48.093306325174282 ], [ -1.625601595900633, 48.093330374768591 ], [ -1.625568705622824, 48.093303857827436 ], [ -1.62556330427802, 48.093297489793684 ], [ -1.625556694446072, 48.09329270253059 ] ] ] } },
{ "type": "Feature", "properties": { "gml_id": "occup_sol_uf_zae.7544", "id_occup_sol_uf_zae": 7544, "couverture": "Voirie et stationnement", "code_insee": "35238", "idza": "25", "etape": "Terminée", "vocation": "Productive", "surf_m2": 4059, "surf_uf_m2": 9981, "conso_espace": "Renouvellement", "pourcentage_occup": 41 }, "geometry": { "type": "Polygon", "coordinates": [ [ [ -1.626852757843598, 48.092955603939572 ], [ -1.62685270442318, 48.092955558523919 ], [ -1.626852677881292, 48.092955534768592 ], [ -1.626852411671921, 48.092955296499461 ], [ -1.626810134306017, 48.092917457977983 ], [ -1.626756768628644, 48.092930443276543 ], [ -1.626808645020292, 48.092990556354721 ], [ -1.626747288869169, 48.093025291945793 ], [ -1.626555901018279, 48.093133640551109 ], [ -1.626438000237632, 48.093200383980466 ], [ -1.62661172087875, 48.093345204867305 ], [ -1.626444853649855, 48.093439597677424 ], [ -1.626268950091609, 48.093284012152843 ], [ -1.626067442426292, 48.093177298766385 ], [ -1.626015720970921, 48.093267470249586 ], [ -1.626022610481676, 48.093415751650262 ], [ -1.626162711123383, 48.093554285421128 ], [ -1.626169824775189, 48.093566762560151 ], [ -1.626169738759577, 48.09357661466624 ], [ -1.626165113597128, 48.09358596727121 ], [ -1.626156400622135, 48.093593904862523 ], [ -1.626144452103532, 48.093599650265652 ], [ -1.626130439214192, 48.093602640984329 ], [ -1.626115731726455, 48.093602585203968 ], [ -1.626101769757547, 48.093599487641491 ], [ -1.626089920006916, 48.09359365154689 ], [ -1.626066958493156, 48.093571090257704 ], [ -1.625968868787147, 48.09362054010375 ], [ -1.626110682079396, 48.093732633407505 ], [ -1.626517176051052, 48.094059858625279 ], [ -1.626517435589461, 48.094060070456926 ], [ -1.626517487253639, 48.094060112627631 ], [ -1.626503091162264, 48.094105949597179 ], [ -1.626480455604364, 48.094176860417704 ], [ -1.626480429414815, 48.094176839396297 ], [ -1.62648040235675, 48.094176817689004 ], [ -1.626480389356333, 48.094176807255593 ], [ -1.626364923648732, 48.094084136362326 ], [ -1.626296815095605, 48.09404787026935 ], [ -1.626262291869621, 48.093990617641296 ], [ -1.625961512020982, 48.09375184264055 ], [ -1.625901421080397, 48.093710937287497 ], [ -1.625877845589209, 48.093706534729598 ], [ -1.625755507780517, 48.093605119721921 ], [ -1.625530942624077, 48.093418960273645 ], [ -1.625521616655101, 48.093380835288428 ], [ -1.625536504148269, 48.093376154406187 ], [ -1.625497524586764, 48.093345324598168 ], [ -1.625491057648271, 48.093342154247878 ], [ -1.625484449090352, 48.093337366028422 ], [ -1.625479402427647, 48.09333197560219 ], [ -1.625476170141592, 48.0933257927813 ], [ -1.625474531146722, 48.093319366168089 ], [ -1.625475037669601, 48.09331285616345 ], [ -1.625477184829749, 48.093306643176248 ], [ -1.625481240569449, 48.093300713955252 ], [ -1.625486968462923, 48.093295441962759 ], [ -1.625494114487732, 48.093291014754556 ], [ -1.625502162011989, 48.093287632914056 ], [ -1.625511389848215, 48.093285468465986 ], [ -1.6255209972167, 48.093284550156604 ], [ -1.625530698955531, 48.093284709838684 ], [ -1.625539974409933, 48.0932861482219 ], [ -1.625548823608979, 48.093288865323217 ], [ -1.625556694446072, 48.09329270253059 ], [ -1.62556330427802, 48.093297489793684 ], [ -1.625568705622824, 48.093303857827436 ], [ -1.625601595900633, 48.093330374768591 ], [ -1.625644204943766, 48.093306325174282 ], [ -1.62568397809876, 48.093283879702547 ], [ -1.625742851297517, 48.093251202813647 ], [ -1.625786147411293, 48.093285491087286 ], [ -1.625897289645475, 48.093225022660789 ], [ -1.625866705628064, 48.09320122755048 ], [ -1.625971654467391, 48.093137458070302 ], [ -1.625986422833255, 48.093144204394164 ], [ -1.625996053092494, 48.093127610651358 ], [ -1.626093077281271, 48.093056703231504 ], [ -1.626120588601539, 48.09303659629601 ], [ -1.626137202852661, 48.093024453273827 ], [ -1.626152076637646, 48.093017804180327 ], [ -1.626410351390247, 48.092947717309031 ], [ -1.626890539496686, 48.092830922935399 ], [ -1.626881775653275, 48.092859766933273 ], [ -1.626890649706646, 48.092830896126145 ], [ -1.626890907495746, 48.092830833425644 ], [ -1.626891000700397, 48.092830810760944 ], [ -1.626852757843598, 48.092955603939572 ] ] ] } },
{ "type": "Feature", "properties": { "gml_id": "occup_sol_uf_zae.7544", "id_occup_sol_uf_zae": 7544, "couverture": "Voirie et stationnement", "code_insee": "35238", "idza": "25", "etape": "Terminée", "vocation": "Productive", "surf_m2": 4059, "surf_uf_m2": 9981, "conso_espace": "Renouvellement", "pourcentage_occup": 41 }, "geometry": { "type": "Polygon", "coordinates": [ [ [ -1.626390721763439, 48.094751653435551 ], [ -1.626380489458533, 48.094786034523288 ], [ -1.626348798809609, 48.094804609990511 ], [ -1.626309451170755, 48.094830792054644 ], [ -1.62630802062309, 48.094831671731129 ], [ -1.626308020545898, 48.094831671770272 ], [ -1.626306745921068, 48.094832430802121 ], [ -1.626311466611038, 48.094780490851733 ], [ -1.626292927305227, 48.094766965456621 ], [ -1.626394581122781, 48.094738308525521 ], [ -1.626394633505024, 48.094738293757601 ], [ -1.626394657669443, 48.094738286946296 ], [ -1.626394758498728, 48.094738258523961 ], [ -1.626390721763439, 48.094751653435551 ] ] ] } },
{ "type": "Feature", "properties": { "gml_id": "occup_sol_uf_zae.7544", "id_occup_sol_uf_zae": 7544, "couverture": "Voirie et stationnement", "code_insee": "35238", "idza": "25", "etape": "Terminée", "vocation": "Productive", "surf_m2": 4059, "surf_uf_m2": 9981, "conso_espace": "Renouvellement", "pourcentage_occup": 41 }, "geometry": { "type": "Polygon", "coordinates": [ [ [ -1.626050818137958, 48.095141427887953 ], [ -1.626056543743021, 48.095167778165603 ], [ -1.626042752484277, 48.095162476422168 ], [ -1.625957289533614, 48.095088425540759 ], [ -1.62596318293082, 48.095080257359584 ], [ -1.625968492361696, 48.095076520652917 ], [ -1.625994731571452, 48.095058053972622 ], [ -1.625994765579808, 48.095058030041926 ], [ -1.626050818137958, 48.095141427887953 ] ] ] } }
]
}
