{
"type": "FeatureCollection",
"name": "TOUR_GALETTE_2EME",
"features": [
{ "type": "Feature", "properties": { "OBJECTID": 37, "Shape_Length": 881.76755367273495, "Shape_Area": 624.15659768858018, "Salle": null, "Typologie": null, "Etage": 2, "Hauteur": 0 }, "geometry": { "type": "Polygon", "coordinates": [ [ [ -1.62929230956908, 48.094179190165619 ], [ -1.629292309568493, 48.094179190165299 ], [ -1.629292309976673, 48.094179189928163 ], [ -1.62929230956908, 48.094179190165619 ] ] ] } },
{ "type": "Feature", "properties": { "OBJECTID": 1, "Shape_Length": null, "Shape_Area": null, "Salle": "Ascenseurs", "Typologie": "Se déplacer", "Etage": 2, "Hauteur": 1 }, "geometry": { "type": "Polygon", "coordinates": [ [ [ -1.629322424197905, 48.094193909532386 ], [ -1.629292242603269, 48.09421081670196 ], [ -1.629251880399919, 48.094178354739036 ], [ -1.629275383919961, 48.094165478907243 ], [ -1.629292309886625, 48.094179190703471 ], [ -1.629299420957926, 48.094175049072327 ], [ -1.629322424197905, 48.094193909532386 ] ] ] } },
{ "type": "Feature", "id": 2, "properties": { "OBJECTID": 2, "Shape_Length": 17.25140499652619, "Shape_Area": 18.517660999702603, "Salle": "Atelier 2.4", "Typologie": "Atelier", "Etage": 2, "Hauteur": 1 }, "geometry": { "type": "Polygon", "coordinates": [ [ [ -1.629557502530009, 48.094086563061865 ], [ -1.629534147230939, 48.094067943469625 ], [ -1.629502856214644, 48.094085851469941 ], [ -1.6295257928988, 48.094104363056964 ], [ -1.629557502530009, 48.094086563061865 ] ] ] } },
{ "type": "Feature", "id": 3, "properties": { "OBJECTID": 3, "Shape_Length": 16.706919576921969, "Shape_Area": 17.401176828695874, "Salle": "Atelier 2.3", "Typologie": "Atelier", "Etage": 2, "Hauteur": 1 }, "geometry": { "type": "Polygon", "coordinates": [ [ [ -1.629525678812769, 48.094104433856131 ], [ -1.629525788407214, 48.094104366056939 ], [ -1.629502849028134, 48.094085861669825 ], [ -1.6294729315359, 48.094103167870891 ], [ -1.629495696641844, 48.094121183857645 ], [ -1.629525678812769, 48.094104433856131 ] ] ] } },
{ "type": "Feature", "id": 4, "properties": { "OBJECTID": 4, "Shape_Length": 13.440476047816221, "Shape_Area": 10.335830843266947, "Salle": "Atelier 2.2", "Typologie": "Atelier", "Etage": 2, "Hauteur": 1 }, "geometry": { "type": "Polygon", "coordinates": [ [ [ -1.629450093666425, 48.09416665489136 ], [ -1.629433579936583, 48.094175868971668 ], [ -1.629458742645979, 48.094195873906223 ], [ -1.629474884473323, 48.094186588430397 ], [ -1.629450093666425, 48.09416665489136 ] ] ] } },
{ "type": "Feature", "id": 5, "properties": { "OBJECTID": 5, "Shape_Length": 25.427631135451644, "Shape_Area": 37.521395001731143, "Salle": "Sanitaires femmes", "Typologie": "Toilettes", "Etage": 2, "Hauteur": 1 }, "geometry": { "type": "Polygon", "coordinates": [ [ [ -1.629341588858215, 48.094114353539261 ], [ -1.629375598176561, 48.094141264412514 ], [ -1.629398283332429, 48.094128428170123 ], [ -1.629398871728928, 48.094128231972498 ], [ -1.629394346914848, 48.094124935012466 ], [ -1.629418154964822, 48.094111113577654 ], [ -1.629388730647695, 48.094087921446452 ], [ -1.629341588858215, 48.094114353539261 ] ] ] } },
{ "type": "Feature", "id": 6, "properties": { "OBJECTID": 6, "Shape_Length": 31.480674166822048, "Shape_Area": 39.101960800311439, "Salle": "Sanitaires hommes", "Typologie": "Toilettes", "Etage": 2, "Hauteur": 1 }, "geometry": { "type": "Polygon", "coordinates": [ [ [ -1.629341539450875, 48.094114369139071 ], [ -1.629320852148184, 48.094126151797745 ], [ -1.629387615838431, 48.094181019304088 ], [ -1.62941548786674, 48.094165292308922 ], [ -1.629399900299938, 48.094152932466486 ], [ -1.62939402352136, 48.094156060826876 ], [ -1.629341539450875, 48.094114369139071 ] ] ] } },
{ "type": "Feature", "id": 7, "properties": { "OBJECTID": 7, "Shape_Length": 30.643526907852475, "Shape_Area": 51.865538795604984, "Salle": "Escaliers", "Typologie": "Se déplacer", "Etage": 2, "Hauteur": 1 }, "geometry": { "type": "Polygon", "coordinates": [ [ [ -1.629387541278271, 48.094181044503777 ], [ -1.629387614041803, 48.094181022304049 ], [ -1.629329440042302, 48.094133250311295 ], [ -1.629294571036234, 48.094152932466486 ], [ -1.629353249888904, 48.094200535243246 ], [ -1.629387541278271, 48.094181044503777 ] ] ] } },
{ "type": "Feature", "id": 8, "properties": { "OBJECTID": 8, "Shape_Length": 21.9054266776593, "Shape_Area": 28.6786627285714, "Salle": "Arctique", "Typologie": "Réunion", "Etage": 2, "Hauteur": 1 }, "geometry": { "type": "Polygon", "coordinates": [ [ [ -1.629433579038252, 48.094175885171467 ], [ -1.629388179980441, 48.094201619428567 ], [ -1.629413254654956, 48.094221305157511 ], [ -1.629458829782564, 48.094195840306682 ], [ -1.629433579038252, 48.094175885171467 ] ] ] } },
{ "type": "Feature", "id": 10, "properties": { "OBJECTID": 10, "Shape_Length": 17.58620106999221, "Shape_Area": 19.319961292278521, "Salle": "Indien", "Typologie": "Réunion", "Etage": 2, "Hauteur": 1 }, "geometry": { "type": "Polygon", "coordinates": [ [ [ -1.629413254654956, 48.094221298557628 ], [ -1.629388180878738, 48.094201620028521 ], [ -1.629357658820324, 48.094218989189791 ], [ -1.629382298710278, 48.094238835709824 ], [ -1.629413254654956, 48.094221298557628 ] ] ] } },
{ "type": "Feature", "id": 11, "properties": { "OBJECTID": 11, "Shape_Length": 17.506075021681333, "Shape_Area": 19.146576110128308, "Salle": "Pacifique", "Typologie": "Réunion", "Etage": 2, "Hauteur": 1 }, "geometry": { "type": "Polygon", "coordinates": [ [ [ -1.629382297811947, 48.094238833309859 ], [ -1.6293576148029, 48.094219025189268 ], [ -1.629326987641593, 48.094236285746199 ], [ -1.629351655379289, 48.094256066260527 ], [ -1.629382297811947, 48.094238833309859 ] ] ] } },
{ "type": "Feature", "id": 12, "properties": { "OBJECTID": 12, "Shape_Length": 36.900506285271803, "Shape_Area": 74.320736784213736, "Salle": "Atlantique", "Typologie": "Réunion", "Etage": 2, "Hauteur": 1 }, "geometry": { "type": "Polygon", "coordinates": [ [ [ -1.62935167065064, 48.094256059660644 ], [ -1.62932697416687, 48.094236280946276 ], [ -1.629310720948419, 48.094223237730489 ], [ -1.629274782947171, 48.094243624241088 ], [ -1.629263198273269, 48.094234158176491 ], [ -1.629235513992854, 48.094249854551052 ], [ -1.629287883078944, 48.094292137719975 ], [ -1.62935167065064, 48.094256059660644 ] ] ] } },
{ "type": "Feature", "id": 13, "properties": { "OBJECTID": 13, "Shape_Length": 13.719103372008464, "Shape_Area": 11.66446622513131, "Salle": "Espace repro", "Typologie": "Autre", "Etage": 2, "Hauteur": 1 }, "geometry": { "type": "Polygon", "coordinates": [ [ [ -1.629473625035293, 48.094126592192389 ], [ -1.629451374664019, 48.094109805593078 ], [ -1.629430262458235, 48.09412154865327 ], [ -1.629451725006987, 48.094138843442494 ], [ -1.629473625035293, 48.094126592192389 ] ] ] } },
{ "type": "Feature", "id": 14, "properties": { "OBJECTID": 14, "Shape_Length": 15.382207161244709, "Shape_Area": 12.964127139452003, "Salle": "Ascenseur", "Typologie": "Se déplacer", "Etage": 2, "Hauteur": 1 }, "geometry": { "type": "Polygon", "coordinates": [ [ [ -1.629439812448011, 48.094129349158905 ], [ -1.629439889703128, 48.094129315559329 ], [ -1.629430240898671, 48.094121542653326 ], [ -1.629430833786756, 48.094121216257271 ], [ -1.629418161253035, 48.094111149577202 ], [ -1.629394345118221, 48.09412492361259 ], [ -1.629416521827632, 48.094142614395757 ], [ -1.629424030845103, 48.094138010652756 ], [ -1.629422299791563, 48.09413653107103 ], [ -1.629429764791577, 48.094132178124411 ], [ -1.62943194859602, 48.094133787904696 ], [ -1.629439772922139, 48.094129369558651 ], [ -1.629439812448011, 48.094129349158905 ] ] ] } },
{ "type": "Feature", "id": 17, "properties": { "OBJECTID": 17, "Shape_Length": 22.380383239677005, "Shape_Area": 29.12744556793297, "Salle": "Tisanerie", "Typologie": "Repos", "Etage": 2, "Hauteur": 1 }, "geometry": { "type": "Polygon", "coordinates": [ [ [ -1.629207179332139, 48.09419048177854 ], [ -1.629206801141428, 48.094190499778293 ], [ -1.629178573380234, 48.094205289578596 ], [ -1.629219857255742, 48.094238588513328 ], [ -1.629248105678168, 48.094221871549621 ], [ -1.629207179332139, 48.09419048177854 ] ] ] } },
{ "type": "Feature", "id": 18, "properties": { "OBJECTID": 18, "Shape_Length": 29.239369276116374, "Shape_Area": 46.510110812388639, "Salle": "Escaliers", "Typologie": "Se déplacer", "Etage": 2, "Hauteur": 1 }, "geometry": { "type": "Polygon", "coordinates": [ [ [ -1.628900237575965, 48.094442119600991 ], [ -1.628931763950867, 48.094423017746102 ], [ -1.628873914243219, 48.094377995131502 ], [ -1.628842572921252, 48.094396207818527 ], [ -1.628900237575965, 48.094442119600991 ] ] ] } },
{ "type": "Feature", "id": 19, "properties": { "OBJECTID": 19, "Shape_Length": 31.670829239659589, "Shape_Area": 61.693046974117848, "Salle": "Espace repro", "Typologie": "Autre", "Etage": 2, "Hauteur": 1 }, "geometry": { "type": "Polygon", "coordinates": [ [ [ -1.628900229491125, 48.094442115401044 ], [ -1.628951642769803, 48.094483453429874 ], [ -1.628998081178423, 48.094456663933421 ], [ -1.628946311268597, 48.094414910090435 ], [ -1.628931841205984, 48.094423002746389 ], [ -1.628900229491125, 48.094442115401044 ] ] ] } },
{ "type": "Feature", "id": 20, "properties": { "OBJECTID": 20, "Shape_Length": 22.847943483406489, "Shape_Area": 31.501429456923606, "Salle": "Bureau 2.1", "Typologie": "Bureau", "Etage": 2, "Hauteur": 1 }, "geometry": { "type": "Polygon", "coordinates": [ [ [ -1.629287886672232, 48.094292131720046 ], [ -1.629261765460399, 48.094271067838768 ], [ -1.629214526652866, 48.094296668850269 ], [ -1.6292417411144, 48.094318594907378 ], [ -1.629287886672232, 48.094292131720046 ] ] ] } },
{ "type": "Feature", "id": 21, "properties": { "OBJECTID": 21, "Shape_Length": 18.515767068072272, "Shape_Area": 21.420779564367312, "Salle": "Réserve 2", "Typologie": "Autre", "Etage": 2, "Hauteur": 1 }, "geometry": { "type": "Polygon", "coordinates": [ [ [ -1.629228850290051, 48.094288846170329 ], [ -1.629228890714254, 48.094288866570004 ], [ -1.629261770850282, 48.09427105643897 ], [ -1.629235534654087, 48.094249846751161 ], [ -1.629203102777377, 48.094268114082794 ], [ -1.629228850290051, 48.094288846170329 ] ] ] } },
{ "type": "Feature", "id": 22, "properties": { "OBJECTID": 22, "Shape_Length": 10.942902860916448, "Shape_Area": 6.6662127368731241, "Salle": "Box 2.2", "Typologie": "Autre", "Etage": 2, "Hauteur": 1 }, "geometry": { "type": "Polygon", "coordinates": [ [ [ -1.629146053468643, 48.09430157017443 ], [ -1.62915650806193, 48.094310079241673 ], [ -1.629181501888072, 48.094295975260977 ], [ -1.629171047294785, 48.094287512990682 ], [ -1.629146053468643, 48.09430157017443 ] ] ] } },
{ "type": "Feature", "id": 23, "properties": { "OBJECTID": 23, "Shape_Length": 23.118447727652729, "Shape_Area": 32.120054026347546, "Salle": "Atelier 2.1", "Typologie": "Atelier", "Etage": 2, "Hauteur": 1 }, "geometry": { "type": "Polygon", "coordinates": [ [ [ -1.629081184325342, 48.09431594594929 ], [ -1.629113422165945, 48.09429817182707 ], [ -1.629073564815094, 48.094266472507158 ], [ -1.629041266787386, 48.094284082242865 ], [ -1.629081184325342, 48.09431594594929 ] ] ] } },
{ "type": "Feature", "id": 24, "properties": { "OBJECTID": 24, "Shape_Length": 22.042704175923511, "Shape_Area": 29.501278371336241, "Salle": "Bureau 2.2", "Typologie": "Bureau", "Etage": 2, "Hauteur": 1 }, "geometry": { "type": "Polygon", "coordinates": [ [ [ -1.629150296211734, 48.09437049645846 ], [ -1.629181192867604, 48.094353204747101 ], [ -1.62914493596442, 48.094323153034928 ], [ -1.629112651411435, 48.09434110354568 ], [ -1.629150296211734, 48.09437049645846 ] ] ] } },
{ "type": "Feature", "id": 25, "properties": { "OBJECTID": 25, "Shape_Length": 11.061021757428442, "Shape_Area": 6.8821879842139753, "Salle": "Box 2.1", "Typologie": "Bureau", "Etage": 2, "Hauteur": 1 }, "geometry": { "type": "Polygon", "coordinates": [ [ [ -1.629065830320519, 48.094361199014394 ], [ -1.629090846604522, 48.094347312844121 ], [ -1.629080028193577, 48.094338393989737 ], [ -1.629055011909541, 48.094352619156794 ], [ -1.629065830320519, 48.094361199014394 ] ] ] } },
{ "type": "Feature", "id": 26, "properties": { "OBJECTID": 26, "Shape_Length": 10.536816798548182, "Shape_Area": 4.5946355741737683, "Salle": "Bibliothèque", "Typologie": "Bibliothèque", "Etage": 2, "Hauteur": 1 }, "geometry": { "type": "Polygon", "coordinates": [ [ [ -1.629010491404058, 48.094389153140547 ], [ -1.62903901650759, 48.094373200012839 ], [ -1.629032784894458, 48.094367927901715 ], [ -1.629004122348703, 48.094384205625495 ], [ -1.629010491404058, 48.094389153140547 ] ] ] } },
{ "type": "Feature", "id": 28, "properties": { "OBJECTID": 28, "Shape_Length": 79.16403670457025, "Shape_Area": 239.23109190124717, "Salle": "Edilarge", "Typologie": "Secteur", "Etage": 2, "Hauteur": 0 }, "geometry": { "type": "Polygon", "coordinates": [ [ [ -1.628873904361751, 48.094378067130293 ], [ -1.628918837193935, 48.094413018923923 ], [ -1.629136495394026, 48.094287386392608 ], [ -1.629095822372911, 48.094253693895176 ], [ -1.628873904361751, 48.094378067130293 ] ] ] } },
{ "type": "Feature", "id": 29, "properties": { "OBJECTID": 29, "Shape_Length": 57.09545363110783, "Shape_Area": 141.48194070555439, "Salle": "Edilarge", "Typologie": "Secteur", "Etage": 2, "Hauteur": 0 }, "geometry": { "type": "Polygon", "coordinates": [ [ [ -1.629150312381415, 48.094370505458322 ], [ -1.62911264781818, 48.094341107145581 ], [ -1.628961879970759, 48.09442748286606 ], [ -1.628998070398624, 48.094456689732937 ], [ -1.629150312381415, 48.094370505458322 ] ] ] } },
{ "type": "Feature", "id": 30, "properties": { "OBJECTID": 30, "Shape_Length": 39.036529157153993, "Shape_Area": 88.856979764097133, "Salle": "Magazine", "Typologie": "Secteur", "Etage": 2, "Hauteur": 0 }, "geometry": { "type": "Polygon", "coordinates": [ [ [ -1.629136992162354, 48.094287251994665 ], [ -1.629220492364657, 48.094238481114878 ], [ -1.629179080030064, 48.094205515175489 ], [ -1.629095748711049, 48.09425315750299 ], [ -1.629136992162354, 48.094287251994665 ] ] ] } },
{ "type": "Feature", "id": 31, "properties": { "OBJECTID": 31, "Shape_Length": 43.636893342243724, "Shape_Area": 86.92514430947567, "Salle": "Magazine", "Typologie": "Secteur", "Etage": 2, "Hauteur": 0 }, "geometry": { "type": "Polygon", "coordinates": [ [ [ -1.629261775341867, 48.094271064838807 ], [ -1.629213537607728, 48.094297199842082 ], [ -1.629205449176896, 48.094290751741212 ], [ -1.629144529925932, 48.094323535228817 ], [ -1.62918120544403, 48.094353203547151 ], [ -1.629287885773902, 48.094292137719975 ], [ -1.629261775341867, 48.094271064838807 ] ] ] } },
{ "type": "Feature", "id": 32, "properties": { "OBJECTID": 32, "Shape_Length": 50.434539207072959, "Shape_Area": 118.38907951098116, "Salle": "Voiles et voiliers", "Typologie": "Secteur", "Etage": 2, "Hauteur": 0 }, "geometry": { "type": "Polygon", "coordinates": [ [ [ -1.629424903109252, 48.094116453514239 ], [ -1.629554895619066, 48.094042980737541 ], [ -1.629518972889169, 48.09401421943123 ], [ -1.629388722562854, 48.094087911246582 ], [ -1.629424903109252, 48.094116453514239 ] ] ] } },
{ "type": "Feature", "id": 33, "properties": { "OBJECTID": 33, "Shape_Length": 42.243673574551671, "Shape_Area": 86.823383144827304, "Salle": "Voiles et voiliers", "Typologie": "Secteur", "Etage": 2, "Hauteur": 0 }, "geometry": { "type": "Polygon", "coordinates": [ [ [ -1.629488067250129, 48.094135406084867 ], [ -1.629519949357881, 48.094161144562108 ], [ -1.629627369001231, 48.094101682288212 ], [ -1.629595240755107, 48.094075730183548 ], [ -1.629488067250129, 48.094135406084867 ] ] ] } },
{ "type": "Feature", "id": 35, "properties": { "OBJECTID": 35, "Shape_Length": 24.046972413880695, "Shape_Area": 35.817150861739194, "Salle": "Journal Lycées", "Typologie": "Secteur", "Etage": 2, "Hauteur": 0 }, "geometry": { "type": "Polygon", "coordinates": [ [ [ -1.629519853238158, 48.094161149362037 ], [ -1.629488142708618, 48.094135514083533 ], [ -1.629444126158007, 48.094161828553354 ], [ -1.629474927592484, 48.094186617830012 ], [ -1.629519853238158, 48.094161149362037 ] ] ] } },
{ "type": "Feature", "id": 37, "properties": { "OBJECTID": 37, "Shape_Length": 881.76755367273495, "Shape_Area": 624.15659768858018, "Salle": null, "Typologie": null, "Etage": 2, "Hauteur": 0 }, "geometry": { "type": "Polygon", "coordinates": [ [ [ -1.629633266441075, 48.094102339880557 ], [ -1.628952473711418, 48.09448696516283 ], [ -1.628835607384559, 48.094396910406324 ], [ -1.629520005053434, 48.09400762549631 ], [ -1.629633266441075, 48.094102339880557 ] ], [ [ -1.629269504348578, 48.094192438939253 ], [ -1.629269527382805, 48.094192462826605 ], [ -1.629269525107794, 48.094192464152002 ], [ -1.629292242603024, 48.094210816702869 ], [ -1.629322424199938, 48.094193909532628 ], [ -1.629299421040463, 48.094175048782411 ], [ -1.629292309976673, 48.094179189928163 ], [ -1.629292277637311, 48.094179166528484 ], [ -1.629275383920096, 48.094165478906504 ], [ -1.629251880399005, 48.094178354739128 ], [ -1.629269460429102, 48.094192479751797 ], [ -1.629269504348578, 48.094192438939253 ] ], [ [ -1.629502852621389, 48.094085856869846 ], [ -1.6294729315359, 48.094103167870891 ], [ -1.629495696641844, 48.094121183857645 ], [ -1.629525678812769, 48.094104433856131 ], [ -1.629525790203842, 48.094104364856925 ], [ -1.629557502530009, 48.094086563061865 ], [ -1.629534147230939, 48.094067943469625 ], [ -1.629502852621389, 48.094085856869846 ] ], [ [ -1.629416521827632, 48.094142614395757 ], [ -1.629424030845103, 48.094138010652756 ], [ -1.629422299791563, 48.09413653107103 ], [ -1.629429764791577, 48.094132178124411 ], [ -1.62943194859602, 48.094133787904696 ], [ -1.629439772922139, 48.094129369558651 ], [ -1.629439812448011, 48.094129349158905 ], [ -1.629439892398086, 48.094129313759375 ], [ -1.629451725006987, 48.094138843442494 ], [ -1.629473625035293, 48.094126592192389 ], [ -1.629451374664019, 48.094109805593078 ], [ -1.629430835583383, 48.094121218057225 ], [ -1.629418161253035, 48.094111149577202 ], [ -1.629400079962991, 48.094121606852568 ], [ -1.629418146879982, 48.09411111837759 ], [ -1.629424903109252, 48.094116453514239 ], [ -1.629554895619066, 48.094042980737541 ], [ -1.629518972889169, 48.09401421943123 ], [ -1.629388728851068, 48.094087917246483 ], [ -1.629341588858215, 48.094114353539261 ], [ -1.629375598176561, 48.094141264412514 ], [ -1.629398283332429, 48.094128428170123 ], [ -1.629398604030993, 48.0941283213714 ], [ -1.629416521827632, 48.094142614395757 ] ], [ [ -1.629488067250129, 48.094135406084867 ], [ -1.629519949357881, 48.094161144562108 ], [ -1.629627369001231, 48.094101682288212 ], [ -1.629595240755107, 48.094075730183548 ], [ -1.629488067250129, 48.094135406084867 ] ], [ [ -1.6293876149401, 48.094181021104092 ], [ -1.62941548786674, 48.094165292308922 ], [ -1.629399900299938, 48.094152932466486 ], [ -1.62939402352136, 48.094156060826876 ], [ -1.629341539450875, 48.094114369139071 ], [ -1.629320852148184, 48.094126151797745 ], [ -1.6293876149401, 48.094181021104092 ] ], [ [ -1.629474886269951, 48.094186587230439 ], [ -1.629474927592484, 48.094186617830012 ], [ -1.629519853238158, 48.094161149362037 ], [ -1.629488142708618, 48.094135514083533 ], [ -1.629444126158007, 48.094161828553354 ], [ -1.629474886269951, 48.094186587230439 ] ], [ [ -1.6293876149401, 48.094181021104092 ], [ -1.629329440042302, 48.094133250311295 ], [ -1.629294571036234, 48.094152932466486 ], [ -1.629353249888904, 48.094200535243246 ], [ -1.629387541278271, 48.094181044503777 ], [ -1.6293876149401, 48.094181021104092 ] ], [ [ -1.629382297811947, 48.094238834509824 ], [ -1.629413254654956, 48.094221302157543 ], [ -1.62945874444264, 48.094195875706227 ], [ -1.629458821697724, 48.094195833706749 ], [ -1.629474886269951, 48.094186587230439 ], [ -1.629450093666425, 48.09416665489136 ], [ -1.629433579038252, 48.094175877371569 ], [ -1.629388179980441, 48.094201620028521 ], [ -1.629357658820324, 48.094218989189791 ], [ -1.629382297811947, 48.094238834509824 ] ], [ [ -1.629206801141428, 48.094190499778293 ], [ -1.629178573380234, 48.094205289578596 ], [ -1.629178947079394, 48.094205591374447 ], [ -1.629095748711049, 48.09425315750299 ], [ -1.629136992162354, 48.094287251994665 ], [ -1.629220492364657, 48.094238481114878 ], [ -1.62922029922688, 48.094238326917072 ], [ -1.629248105678168, 48.094221871549621 ], [ -1.629207179332139, 48.09419048177854 ], [ -1.629206801141428, 48.094190499778293 ] ], [ [ -1.629146053468643, 48.09430157017443 ], [ -1.62915650806193, 48.094310079241673 ], [ -1.629181501888072, 48.094295975260977 ], [ -1.629171047294785, 48.094287512990682 ], [ -1.629146053468643, 48.09430157017443 ] ], [ [ -1.629055011909541, 48.094352619156794 ], [ -1.629065830320519, 48.094361199014394 ], [ -1.629090846604522, 48.094347312844121 ], [ -1.629080028193577, 48.094338393989737 ], [ -1.629055011909541, 48.094352619156794 ] ], [ [ -1.629004122348703, 48.094384205625495 ], [ -1.629010491404058, 48.094389153140547 ], [ -1.62903901650759, 48.094373200012839 ], [ -1.629032784894458, 48.094367927901715 ], [ -1.629004122348703, 48.094384205625495 ] ], [ [ -1.628900233084413, 48.094442117800988 ], [ -1.628931763950867, 48.094423017746102 ], [ -1.62891888300802, 48.094412992524383 ], [ -1.629136495394026, 48.094287386392608 ], [ -1.629095822372911, 48.094253693895176 ], [ -1.629053564723617, 48.094277377344213 ], [ -1.629041266787386, 48.094284082242865 ], [ -1.629041405127939, 48.094284192641183 ], [ -1.628873963650559, 48.09437803353083 ], [ -1.628873914243219, 48.094377995131502 ], [ -1.628842572921252, 48.094396207818527 ], [ -1.628900233084413, 48.094442117800988 ] ], [ [ -1.629382297811947, 48.094238834509824 ], [ -1.6293576148029, 48.094219025189268 ], [ -1.62932698135338, 48.094236285146245 ], [ -1.629310720948419, 48.094223237730489 ], [ -1.629274782947171, 48.094243624241088 ], [ -1.629263198273269, 48.094234158176491 ], [ -1.629235523874322, 48.09424985095113 ], [ -1.629203102777377, 48.094268114082794 ], [ -1.629228850290051, 48.094288846170329 ], [ -1.629228890714254, 48.094288866570004 ], [ -1.629261770850282, 48.094271061838896 ], [ -1.629214524856238, 48.094296667650262 ], [ -1.629213537607728, 48.094297199842082 ], [ -1.629205449176896, 48.094290751741212 ], [ -1.629145055440367, 48.094323252033369 ], [ -1.62914493596442, 48.094323153034928 ], [ -1.629112649614807, 48.094341105345634 ], [ -1.6289618880556, 48.094427478666148 ], [ -1.628946311268597, 48.094414910090435 ], [ -1.628931841205984, 48.094423002746389 ], [ -1.628900233084413, 48.094442117800988 ], [ -1.628951642769803, 48.094483453429874 ], [ -1.628998063212114, 48.094456683733085 ], [ -1.629150305194872, 48.094370500658414 ], [ -1.629181199155817, 48.094353204147147 ], [ -1.629241709673368, 48.094318569707795 ], [ -1.6292417411144, 48.094318594907378 ], [ -1.629287884875571, 48.094292135919972 ], [ -1.62935166436246, 48.094256062060609 ], [ -1.629382297811947, 48.094238834509824 ] ] ] } }
]
}
