{
"type": "FeatureCollection",
"name": "TOUR_GALETTE_1ER",
"crs": { "type": "name", "properties": { "name": "urn:ogc:def:crs:OGC:1.3:CRS84" } },
"features": [
{ "type": "Feature", "properties": { "OBJECTID": 3, "OBJECTID_1": 4, "FID_TOUR_GALETTE_1ER": -1, "Salle": "", "Etage": 0, "Typologie": "", "Hauteur": 0, "FID_BDTOPO_BATI_SI_JSONToFeature_ExportFeatures": 2, "ID": "BATIMENT0000000047197280", "NB_ETAGES": null, "BATIMENT": "2 - La Tour", "HAUTEUR_1": 24, "Shape_Length": 0.0049533270019802532, "Shape_Area": 2.0293452857659168e-08 }, "geometry": { "type": "MultiPolygon", "coordinates": [ [ [ [ -1.628835614999957, 48.094396922000044 ], [ -1.628952474999949, 48.09448696000004 ], [ -1.628896761999954, 48.094443950000027 ], [ -1.628896711999971, 48.094443974000058 ], [ -1.628835614999957, 48.094396922000044 ] ] ], [ [ [ -1.629060890999938, 48.094425432000037 ], [ -1.628952474999949, 48.09448696000004 ], [ -1.629048636999926, 48.094432706000077 ], [ -1.629289510999968, 48.094291825000028 ], [ -1.629060890999938, 48.094425432000037 ] ] ], [ [ [ -1.628912243999935, 48.094411343000047 ], [ -1.628929484999958, 48.094424970000034 ], [ -1.629002986999978, 48.094382340000038 ], [ -1.629236960999947, 48.094250300000056 ], [ -1.62924620299998, 48.094257604000063 ], [ -1.629294590999962, 48.094230455000059 ], [ -1.629312822999964, 48.094244776000039 ], [ -1.629343545999973, 48.094227519000071 ], [ -1.629404350999948, 48.094192775000067 ], [ -1.629429553999955, 48.094212405000064 ], [ -1.629388107999944, 48.094179990000043 ], [ -1.629353515999981, 48.094199640000056 ], [ -1.629296101999955, 48.094153601000073 ], [ -1.629329567999946, 48.09413432000008 ], [ -1.629388107999944, 48.094179990000043 ], [ -1.629320518999975, 48.094127130000061 ], [ -1.629357990999949, 48.094104321000032 ], [ -1.629520004999961, 48.094007697000052 ], [ -1.629633253999941, 48.094102343000031 ], [ -1.629520012999933, 48.094007638000051 ], [ -1.629357585999969, 48.094104165000033 ], [ -1.629317518999926, 48.094092219000061 ], [ -1.629306160999931, 48.094098925000026 ], [ -1.62933189499995, 48.094119719000048 ], [ -1.629273141999931, 48.094153379000034 ], [ -1.629271026999959, 48.094151615000044 ], [ -1.629178337999974, 48.094204121000075 ], [ -1.629209251999953, 48.094227972000056 ], [ -1.629220669999938, 48.094237688000078 ], [ -1.629209340999978, 48.094244085000071 ], [ -1.629199021999966, 48.094249630000036 ], [ -1.629156775999945, 48.094273656000041 ], [ -1.629114836999975, 48.094239711000057 ], [ -1.629097850999926, 48.094249233000028 ], [ -1.629140183999937, 48.094282346000057 ], [ -1.629096402999949, 48.094307398000069 ], [ -1.629082507999954, 48.094296480000025 ], [ -1.629060609999954, 48.094308182000077 ], [ -1.629074645999935, 48.094319527000039 ], [ -1.629034770999965, 48.094341823000036 ], [ -1.629004293999969, 48.094359107000059 ], [ -1.628912243999935, 48.094411343000047 ] ], [ [ -1.629292410999938, 48.094209440000043 ], [ -1.629251622999959, 48.094177023000043 ], [ -1.629275608999933, 48.094163724000055 ], [ -1.629294073999972, 48.094178270000043 ], [ -1.62929870499994, 48.094175242000063 ], [ -1.629320256999961, 48.094193113000074 ], [ -1.629292410999938, 48.094209440000043 ] ] ], [ [ [ -1.628836392999972, 48.094396472000028 ], [ -1.628835594999941, 48.094396913000026 ], [ -1.628835614999957, 48.094396922000044 ], [ -1.628836392999972, 48.094396472000028 ] ] ], [ [ [ -1.628871019999963, 48.094355858000029 ], [ -1.628902332999928, 48.094360036000069 ], [ -1.628869954999971, 48.094377931000054 ], [ -1.628902964999952, 48.094359906000079 ], [ -1.628902384999947, 48.094359317000055 ], [ -1.628961859999947, 48.094325468000079 ], [ -1.628902434999929, 48.094359242000053 ], [ -1.628886623999961, 48.094346644000041 ], [ -1.628871019999963, 48.094355858000029 ] ] ], [ [ [ -1.628944769999976, 48.094312311000067 ], [ -1.628961859999947, 48.094325468000079 ], [ -1.628944892999925, 48.094312239000033 ], [ -1.628944769999976, 48.094312311000067 ] ] ], [ [ [ -1.629048945999955, 48.094276647000072 ], [ -1.628961859999947, 48.094325468000079 ], [ -1.628993228999946, 48.094308243000057 ], [ -1.629033122999942, 48.094285978000073 ], [ -1.629048945999955, 48.094276647000072 ] ] ], [ [ [ -1.629147308999961, 48.094221509000079 ], [ -1.629167451999933, 48.094237210000074 ], [ -1.629153767999981, 48.094226528000036 ], [ -1.629167084999949, 48.094218770000055 ], [ -1.629161946999943, 48.094214398000076 ], [ -1.629178337999974, 48.094204121000075 ], [ -1.629147308999961, 48.094221509000079 ] ] ], [ [ [ -1.629386587999932, 48.094236601000034 ], [ -1.629386634999946, 48.094236638000041 ], [ -1.629573941999979, 48.094131714000071 ], [ -1.629633253999941, 48.094102343000031 ], [ -1.629581026999972, 48.094127434000029 ], [ -1.629429553999955, 48.094212405000064 ], [ -1.629386587999932, 48.094236601000034 ] ] ] ] } },
{ "type": "Feature", "properties": { "OBJECTID": 4, "OBJECTID_1": 5, "FID_TOUR_GALETTE_1ER": -1, "Salle": "", "Etage": 0, "Typologie": "", "Hauteur": 0, "FID_BDTOPO_BATI_SI_JSONToFeature_ExportFeatures": 3, "ID": "BATIMENT0000000047197271", "NB_ETAGES": 1, "BATIMENT": "3 - La Galette", "HAUTEUR_1": 12, "Shape_Length": 0.01336516484898158, "Shape_Area": 9.8207174007965441e-08 }, "geometry": { "type": "MultiPolygon", "coordinates": [ [ [ [ -1.629317518999926, 48.094092219000061 ], [ -1.628494408999927, 48.093451232000064 ], [ -1.628153382999926, 48.093639560000042 ], [ -1.628097263999962, 48.093593403000057 ], [ -1.627984105999928, 48.09365246200008 ], [ -1.628153826999949, 48.093787324000061 ], [ -1.628357846999961, 48.09395057100005 ], [ -1.628405559999976, 48.093988357000057 ], [ -1.628860924999969, 48.094348143000047 ], [ -1.628871019999963, 48.094355858000029 ], [ -1.628886623999961, 48.094346644000041 ], [ -1.628870865999943, 48.094334088000039 ], [ -1.628929788999926, 48.094300781000072 ], [ -1.628870852999967, 48.094334049000054 ], [ -1.628844385999969, 48.094314230000066 ], [ -1.628464889999975, 48.094013321000034 ], [ -1.628449678999971, 48.094022036000069 ], [ -1.628423285999929, 48.094001990000038 ], [ -1.628497312999968, 48.093958735000058 ], [ -1.628423200999976, 48.094001868000078 ], [ -1.628400466999949, 48.093983220000041 ], [ -1.62831956399998, 48.093918278000046 ], [ -1.628408499999978, 48.093867989000046 ], [ -1.628319534999946, 48.093918269000028 ], [ -1.628217941999935, 48.093836324000051 ], [ -1.628381471999944, 48.093741368000053 ], [ -1.628459694999947, 48.093804010000042 ], [ -1.628589708999925, 48.093907888000047 ], [ -1.628497312999968, 48.093958735000058 ], [ -1.628590631999941, 48.093907417000025 ], [ -1.628723892999972, 48.094014019000042 ], [ -1.628713697999956, 48.094019576000051 ], [ -1.62869337099994, 48.094030942000074 ], [ -1.628723437999952, 48.094014326000035 ], [ -1.628748880999979, 48.094034373000056 ], [ -1.628718908999929, 48.094050595000056 ], [ -1.628748837999979, 48.094034524000051 ], [ -1.628766603999964, 48.094048575000045 ], [ -1.628736613999934, 48.094064655000068 ], [ -1.628766596999981, 48.094048717000078 ], [ -1.628785853999943, 48.094063636000044 ], [ -1.628785917999949, 48.094063600000027 ], [ -1.628723741999977, 48.094014283000035 ], [ -1.628746065999962, 48.094000984000047 ], [ -1.628808272999947, 48.094050810000056 ], [ -1.628818488999968, 48.09404496500008 ], [ -1.62866005099994, 48.093920762000039 ], [ -1.628660851999939, 48.093920320000052 ], [ -1.628659643999924, 48.093920927000056 ], [ -1.628624883999976, 48.093892739000069 ], [ -1.628657395999937, 48.093874235000044 ], [ -1.628693492999957, 48.093902310000033 ], [ -1.628693515999942, 48.093902297000056 ], [ -1.628657569999973, 48.093874283000048 ], [ -1.628688572999977, 48.093856595000034 ], [ -1.628724769999963, 48.093885053000065 ], [ -1.628688653999973, 48.093856548000076 ], [ -1.628759078999963, 48.093816726000057 ], [ -1.628790337999931, 48.093798873000026 ], [ -1.628826785999934, 48.093828560000077 ], [ -1.62881639699998, 48.093834497000046 ], [ -1.628849635999927, 48.093816156000059 ], [ -1.628847237999935, 48.093814260000045 ], [ -1.628821162999941, 48.093793813000048 ], [ -1.628795426999943, 48.093773260000034 ], [ -1.628852224999946, 48.093740474000072 ], [ -1.628783372999976, 48.093780173000027 ], [ -1.628745973999969, 48.093800523000027 ], [ -1.628694517999975, 48.093759787000067 ], [ -1.628731954999978, 48.093738017000078 ], [ -1.628783372999976, 48.093780173000027 ], [ -1.628751501999943, 48.093753572000026 ], [ -1.628762901999949, 48.093746923000026 ], [ -1.628769867999949, 48.093751567000027 ], [ -1.628828448999968, 48.093718952000074 ], [ -1.628854308999962, 48.093739640000081 ], [ -1.628852224999946, 48.093740474000072 ], [ -1.628878575999977, 48.093761478000033 ], [ -1.628904615999943, 48.093781403000037 ], [ -1.628847237999935, 48.093814260000045 ], [ -1.628904656999964, 48.093781438000065 ], [ -1.628931142999932, 48.093802019000066 ], [ -1.628958375999957, 48.093821862000027 ], [ -1.628984252999942, 48.093842539000036 ], [ -1.629010063999942, 48.093863753000051 ], [ -1.629119036999953, 48.093946395000046 ], [ -1.629195400999947, 48.09400961800003 ], [ -1.629245523999941, 48.094051279000041 ], [ -1.629271294999967, 48.09407148400004 ], [ -1.629298442999925, 48.094092399000033 ], [ -1.629240528999958, 48.094124769000075 ], [ -1.629298308999978, 48.094092580000051 ], [ -1.629306160999931, 48.094098925000026 ], [ -1.629317518999926, 48.094092219000061 ] ], [ [ -1.628780861999928, 48.093745431000059 ], [ -1.628729840999938, 48.093705535000026 ], [ -1.628716329999975, 48.093711727000027 ], [ -1.628664914999945, 48.093670445000043 ], [ -1.62872721399998, 48.093635168000048 ], [ -1.628829166999935, 48.093718534000061 ], [ -1.628780861999928, 48.093745431000059 ] ], [ [ -1.628685631999929, 48.093711033000034 ], [ -1.628710970999975, 48.093732251000063 ], [ -1.62866473899993, 48.093758217000072 ], [ -1.62863940699998, 48.093737634000036 ], [ -1.628685631999929, 48.093711033000034 ], [ -1.628639395999926, 48.09373757600008 ], [ -1.628613652999945, 48.09371684100006 ], [ -1.628659355999957, 48.093690664000064 ], [ -1.628685631999929, 48.093711033000034 ] ], [ [ -1.628610500999969, 48.093735511000034 ], [ -1.62865020199996, 48.093766566000056 ], [ -1.628603423999948, 48.093793076000054 ], [ -1.628542405999951, 48.093827669000063 ], [ -1.62850324599998, 48.093796637000025 ], [ -1.628464157999929, 48.093765768000026 ], [ -1.628424820999953, 48.093735096000046 ], [ -1.628385926999954, 48.09370343300003 ], [ -1.628416619999939, 48.093687224000064 ], [ -1.628462819999925, 48.093660696000029 ], [ -1.628493370999934, 48.093643132000068 ], [ -1.628532418999953, 48.093674179000061 ], [ -1.628571464999936, 48.093704936000051 ], [ -1.628610500999969, 48.093735511000034 ] ], [ [ -1.628594392999958, 48.093868495000038 ], [ -1.628554878999978, 48.093837390000033 ], [ -1.628631738999957, 48.093793796000057 ], [ -1.628644588999975, 48.093805205000081 ], [ -1.628695148999952, 48.093776623000053 ], [ -1.628734906999966, 48.093807990000073 ], [ -1.628654191999942, 48.093853846000059 ], [ -1.628608665999934, 48.09387982800007 ], [ -1.628594392999958, 48.093868495000038 ] ], [ [ -1.628231161999963, 48.093685672000049 ], [ -1.628292475999956, 48.093651116000046 ], [ -1.628371179999931, 48.093712536000055 ], [ -1.628309330999969, 48.093747528000051 ], [ -1.628220197999951, 48.093797059000053 ], [ -1.628142741999966, 48.093735686000059 ], [ -1.628231186999926, 48.093685715000049 ], [ -1.628309330999969, 48.093747528000051 ], [ -1.628231161999963, 48.093685672000049 ], [ -1.628142695999941, 48.093735558000049 ], [ -1.628092218999939, 48.093695402000037 ], [ -1.628167464999933, 48.093654120000053 ], [ -1.628153655999938, 48.093640100000073 ], [ -1.628227441999968, 48.093599442000027 ], [ -1.628292464999959, 48.093651091000027 ], [ -1.628231161999963, 48.093685672000049 ] ], [ [ -1.628321099999937, 48.093652622000036 ], [ -1.628367190999938, 48.093626278000045 ], [ -1.628406033999966, 48.093657732000054 ], [ -1.628360118999979, 48.093683698000063 ], [ -1.628321099999937, 48.093652622000036 ] ], [ [ -1.62864553299994, 48.093574904000036 ], [ -1.628727185999935, 48.093635153000037 ], [ -1.628664783999966, 48.093670442000075 ], [ -1.628676771999949, 48.093680320000033 ], [ -1.628613650999966, 48.093716705000077 ], [ -1.628508648999968, 48.093634940000072 ], [ -1.628570642999932, 48.093599914000038 ], [ -1.628557182999941, 48.093589441000063 ], [ -1.628572592999944, 48.093580574000043 ], [ -1.628559290999931, 48.093570016000058 ], [ -1.628533327999946, 48.093550070000049 ], [ -1.628580185999965, 48.093523254000047 ], [ -1.62853326499993, 48.093550020000066 ], [ -1.628506638999966, 48.093529505000049 ], [ -1.628481568999973, 48.093508624000037 ], [ -1.628495009999938, 48.093520021000074 ], [ -1.628479445999972, 48.093527976000075 ], [ -1.628428688999975, 48.093487955000057 ], [ -1.628491949999955, 48.093453091000072 ], [ -1.628528550999931, 48.093481910000037 ], [ -1.628481568999973, 48.093508624000037 ], [ -1.628528572999926, 48.093481932000032 ], [ -1.628554564999945, 48.093502933000082 ], [ -1.628580185999965, 48.093523254000047 ], [ -1.628605942999968, 48.093543838000073 ], [ -1.62864553299994, 48.093574904000036 ] ], [ [ -1.62842857399994, 48.093591720000063 ], [ -1.62849050799997, 48.093557426000075 ], [ -1.62852909999998, 48.09358826600004 ], [ -1.628467582999974, 48.093622735000054 ], [ -1.62842857399994, 48.093591720000063 ], [ -1.628375844999937, 48.093550675000074 ], [ -1.628378217999966, 48.093549489000054 ], [ -1.628353252999943, 48.093529682000053 ], [ -1.62842866799997, 48.093487971000059 ], [ -1.628505169999926, 48.093548512000041 ], [ -1.62842857399994, 48.093591720000063 ] ] ], [ [ [ -1.628929788999926, 48.094300781000072 ], [ -1.628944769999976, 48.094312311000067 ], [ -1.628944892999925, 48.094312239000033 ], [ -1.628904471999931, 48.09428074300007 ], [ -1.628929788999926, 48.094300781000072 ] ] ], [ [ [ -1.62869337099994, 48.094030942000074 ], [ -1.628736613999934, 48.094064655000068 ], [ -1.628718908999929, 48.094050595000056 ], [ -1.62869337099994, 48.094030942000074 ] ] ], [ [ [ -1.628654191999942, 48.093853846000059 ], [ -1.628640265999934, 48.093842914000049 ], [ -1.628594392999958, 48.093868495000038 ], [ -1.628640269999948, 48.093842961000064 ], [ -1.628654191999942, 48.093853846000059 ] ] ], [ [ [ -1.628863075999959, 48.09382675300003 ], [ -1.628875380999943, 48.093836510000074 ], [ -1.628873198999941, 48.093834737000066 ], [ -1.628863075999959, 48.09382675300003 ] ] ], [ [ [ -1.628549414999952, 48.093770587000051 ], [ -1.62850324599998, 48.093796637000025 ], [ -1.628564315999938, 48.093762207000054 ], [ -1.628610500999969, 48.093735511000034 ], [ -1.628549414999952, 48.093770587000051 ] ] ] ] } },
{ "type": "Feature", "properties": { "OBJECTID": 5, "OBJECTID_1": 6, "FID_TOUR_GALETTE_1ER": 1, "Salle": "Directoire", "Etage": 1, "Typologie": "Service", "Hauteur": 1, "FID_BDTOPO_BATI_SI_JSONToFeature_ExportFeatures": 2, "ID": "BATIMENT0000000047197280", "NB_ETAGES": null, "BATIMENT": "2 - La Tour", "HAUTEUR_1": 24, "Shape_Length": 0.00075013956537838585, "Shape_Area": 3.0607398497352824e-08 }, "geometry": { "type": "Polygon", "coordinates": [ [ [ -1.629388107999944, 48.094179990000043 ], [ -1.629429553999955, 48.094212405000064 ], [ -1.629581026999972, 48.094127434000029 ], [ -1.629633253999941, 48.094102343000031 ], [ -1.629520004999961, 48.094007697000052 ], [ -1.629357990999949, 48.094104321000032 ], [ -1.629320518999975, 48.094127130000061 ], [ -1.629388107999944, 48.094179990000043 ] ] ] } },
{ "type": "Feature", "properties": { "OBJECTID": 6, "OBJECTID_1": 7, "FID_TOUR_GALETTE_1ER": 2, "Salle": "Salle rédacteur en chef", "Etage": 1, "Typologie": "Salles de réunion", "Hauteur": 1, "FID_BDTOPO_BATI_SI_JSONToFeature_ExportFeatures": 2, "ID": "BATIMENT0000000047197280", "NB_ETAGES": null, "BATIMENT": "2 - La Tour", "HAUTEUR_1": 24, "Shape_Length": 0.00019851616034868529, "Shape_Area": 2.0387955866382111e-09 }, "geometry": { "type": "Polygon", "coordinates": [ [ [ -1.629306155912105, 48.094098928002772 ], [ -1.629298308455194, 48.094092609939445 ], [ -1.629240693016199, 48.094124759716479 ], [ -1.629249780288938, 48.094132199921042 ], [ -1.629249304999973, 48.094132496000043 ], [ -1.629271026999959, 48.094151615000044 ], [ -1.629273141999931, 48.094153379000034 ], [ -1.62933189499995, 48.094119719000048 ], [ -1.629306160999931, 48.094098925000026 ], [ -1.629306155912105, 48.094098928002772 ] ] ] } },
{ "type": "Feature", "properties": { "OBJECTID": 8, "OBJECTID_1": 9, "FID_TOUR_GALETTE_1ER": 3, "Salle": "Escaliers", "Etage": 1, "Typologie": "Accès", "Hauteur": 1, "FID_BDTOPO_BATI_SI_JSONToFeature_ExportFeatures": 2, "ID": "BATIMENT0000000047197280", "NB_ETAGES": null, "BATIMENT": "2 - La Tour", "HAUTEUR_1": 24, "Shape_Length": 0.00022624706123415496, "Shape_Area": 2.6889340724242479e-09 }, "geometry": { "type": "Polygon", "coordinates": [ [ [ -1.629388107999944, 48.094179990000043 ], [ -1.629329567999946, 48.09413432000008 ], [ -1.629296101999955, 48.094153601000073 ], [ -1.629353515999981, 48.094199640000056 ], [ -1.629388107999944, 48.094179990000043 ] ] ] } },
{ "type": "Feature", "properties": { "OBJECTID": 9, "OBJECTID_1": 10, "FID_TOUR_GALETTE_1ER": 4, "Salle": "Hemisphere", "Etage": 1, "Typologie": "Salles de réunion", "Hauteur": 1, "FID_BDTOPO_BATI_SI_JSONToFeature_ExportFeatures": 2, "ID": "BATIMENT0000000047197280", "NB_ETAGES": null, "BATIMENT": "2 - La Tour", "HAUTEUR_1": 24, "Shape_Length": 0.00020391180441178469, "Shape_Area": 2.0318077836423995e-09 }, "geometry": { "type": "Polygon", "coordinates": [ [ [ -1.629343545999973, 48.094227519000071 ], [ -1.629367543999933, 48.094246264000049 ], [ -1.629385524999975, 48.094235766000054 ], [ -1.629386587999932, 48.094236601000034 ], [ -1.629429553999955, 48.094212405000064 ], [ -1.629404350999948, 48.094192775000067 ], [ -1.629343545999973, 48.094227519000071 ] ] ] } },
{ "type": "Feature", "properties": { "OBJECTID": 10, "OBJECTID_1": 11, "FID_TOUR_GALETTE_1ER": 5, "Salle": "Tropique", "Etage": 1, "Typologie": "Salles de réunion", "Hauteur": 1, "FID_BDTOPO_BATI_SI_JSONToFeature_ExportFeatures": 2, "ID": "BATIMENT0000000047197280", "NB_ETAGES": null, "BATIMENT": "2 - La Tour", "HAUTEUR_1": 24, "Shape_Length": 0.00013182709737912291, "Shape_Area": 1.0015921443833592e-09 }, "geometry": { "type": "Polygon", "coordinates": [ [ [ -1.629312822999964, 48.094244776000039 ], [ -1.629337248999946, 48.094263955000031 ], [ -1.629367543999933, 48.094246264000049 ], [ -1.629343545999973, 48.094227519000071 ], [ -1.629312822999964, 48.094244776000039 ] ] ] } },
{ "type": "Feature", "properties": { "OBJECTID": 12, "OBJECTID_1": 13, "FID_TOUR_GALETTE_1ER": 6, "Salle": "Equateur", "Etage": 1, "Typologie": "Salles de réunion", "Hauteur": 1, "FID_BDTOPO_BATI_SI_JSONToFeature_ExportFeatures": 2, "ID": "BATIMENT0000000047197280", "NB_ETAGES": null, "BATIMENT": "2 - La Tour", "HAUTEUR_1": 24, "Shape_Length": 0.00022019848440607028, "Shape_Area": 2.8093423692380183e-09 }, "geometry": { "type": "Polygon", "coordinates": [ [ [ -1.62924620299998, 48.094257604000063 ], [ -1.629289510999968, 48.094291825000028 ], [ -1.629289820999929, 48.094291645000055 ], [ -1.629321269999934, 48.094273254000029 ], [ -1.629322545999969, 48.094272539000031 ], [ -1.629337248999946, 48.094263955000031 ], [ -1.629312822999964, 48.094244776000039 ], [ -1.629294590999962, 48.094230455000059 ], [ -1.62924620299998, 48.094257604000063 ] ] ] } },
{ "type": "Feature", "properties": { "OBJECTID": 13, "OBJECTID_1": 14, "FID_TOUR_GALETTE_1ER": 7, "Salle": "Ascenseurs", "Etage": 1, "Typologie": "Accès", "Hauteur": 1, "FID_BDTOPO_BATI_SI_JSONToFeature_ExportFeatures": 2, "ID": "BATIMENT0000000047197280", "NB_ETAGES": null, "BATIMENT": "2 - La Tour", "HAUTEUR_1": 24, "Shape_Length": 0.00016884358494522676, "Shape_Area": 1.4542829487025444e-09 }, "geometry": { "type": "Polygon", "coordinates": [ [ [ -1.629292410999938, 48.094209440000043 ], [ -1.629320256999961, 48.094193113000074 ], [ -1.62929870499994, 48.094175242000063 ], [ -1.629294073999972, 48.094178270000043 ], [ -1.629275608999933, 48.094163724000055 ], [ -1.629251622999959, 48.094177023000043 ], [ -1.629292410999938, 48.094209440000043 ] ] ] } },
{ "type": "Feature", "properties": { "OBJECTID": 14, "OBJECTID_1": 15, "FID_TOUR_GALETTE_1ER": 8, "Salle": "Rédaction en chef", "Etage": 1, "Typologie": "Service", "Hauteur": 1, "FID_BDTOPO_BATI_SI_JSONToFeature_ExportFeatures": 2, "ID": "BATIMENT0000000047197280", "NB_ETAGES": null, "BATIMENT": "2 - La Tour", "HAUTEUR_1": 24, "Shape_Length": 0.00067281951561435369, "Shape_Area": 1.7117441872205749e-08 }, "geometry": { "type": "Polygon", "coordinates": [ [ [ -1.629002986999978, 48.094382340000038 ], [ -1.629060890999938, 48.094425432000037 ], [ -1.629289510999968, 48.094291825000028 ], [ -1.629246072999933, 48.09425767700003 ], [ -1.62924620299998, 48.094257604000063 ], [ -1.629236960999947, 48.094250300000056 ], [ -1.629002986999978, 48.094382340000038 ] ] ] } },
{ "type": "Feature", "properties": { "OBJECTID": 15, "OBJECTID_1": 16, "FID_TOUR_GALETTE_1ER": 9, "Salle": "Salle perspective", "Etage": 1, "Typologie": "Salles de réunion", "Hauteur": 1, "FID_BDTOPO_BATI_SI_JSONToFeature_ExportFeatures": 2, "ID": "BATIMENT0000000047197280", "NB_ETAGES": null, "BATIMENT": "2 - La Tour", "HAUTEUR_1": 24, "Shape_Length": 0.00039001934453712417, "Shape_Area": 8.1179406162035148e-09 }, "geometry": { "type": "Polygon", "coordinates": [ [ [ -1.628896761999954, 48.094443950000027 ], [ -1.628952474999949, 48.09448696000004 ], [ -1.629060890999938, 48.094425432000037 ], [ -1.629002986999978, 48.094382340000038 ], [ -1.628929484999958, 48.094424970000034 ], [ -1.628896761999954, 48.094443950000027 ] ] ] } },
{ "type": "Feature", "properties": { "OBJECTID": 16, "OBJECTID_1": 17, "FID_TOUR_GALETTE_1ER": 10, "Salle": "Escaliers", "Etage": 1, "Typologie": "Accès", "Hauteur": 1, "FID_BDTOPO_BATI_SI_JSONToFeature_ExportFeatures": 2, "ID": "BATIMENT0000000047197280", "NB_ETAGES": null, "BATIMENT": "2 - La Tour", "HAUTEUR_1": 24, "Shape_Length": 0.00023011273233580027, "Shape_Area": 2.7250168164591513e-09 }, "geometry": { "type": "Polygon", "coordinates": [ [ [ -1.628835614999957, 48.094396922000044 ], [ -1.628896711999971, 48.094443974000058 ], [ -1.628896761999954, 48.094443950000027 ], [ -1.628929484999958, 48.094424970000034 ], [ -1.628912243999935, 48.094411343000047 ], [ -1.628869954999971, 48.094377931000054 ], [ -1.628836392999972, 48.094396472000028 ], [ -1.628835614999957, 48.094396922000044 ] ] ] } },
{ "type": "Feature", "properties": { "OBJECTID": 17, "OBJECTID_1": 18, "FID_TOUR_GALETTE_1ER": 11, "Salle": "Studio vidéo", "Etage": 1, "Typologie": "Atelier", "Hauteur": 1, "FID_BDTOPO_BATI_SI_JSONToFeature_ExportFeatures": 2, "ID": "BATIMENT0000000047197280", "NB_ETAGES": null, "BATIMENT": "2 - La Tour", "HAUTEUR_1": 24, "Shape_Length": 0.00032075402081827687, "Shape_Area": 5.2909186136305987e-09 }, "geometry": { "type": "Polygon", "coordinates": [ [ [ -1.628869954999971, 48.094377931000054 ], [ -1.628912243999935, 48.094411343000047 ], [ -1.629004293999969, 48.094359107000059 ], [ -1.628961859999947, 48.094325468000079 ], [ -1.628902384999947, 48.094359317000055 ], [ -1.628902964999952, 48.094359906000079 ], [ -1.628869954999971, 48.094377931000054 ] ] ] } },
{ "type": "Feature", "properties": { "OBJECTID": 18, "OBJECTID_1": 19, "FID_TOUR_GALETTE_1ER": 14, "Salle": "Régie", "Etage": 1, "Typologie": "Atelier", "Hauteur": 1, "FID_BDTOPO_BATI_SI_JSONToFeature_ExportFeatures": 2, "ID": "BATIMENT0000000047197280", "NB_ETAGES": null, "BATIMENT": "2 - La Tour", "HAUTEUR_1": 24, "Shape_Length": 0.00017839080840290755, "Shape_Area": 1.7637885150758662e-09 }, "geometry": { "type": "Polygon", "coordinates": [ [ [ -1.628961859999947, 48.094325468000079 ], [ -1.629004293999969, 48.094359107000059 ], [ -1.629034770999965, 48.094341823000036 ], [ -1.628993228999946, 48.094308243000057 ], [ -1.628961859999947, 48.094325468000079 ] ] ] } },
{ "type": "Feature", "properties": { "OBJECTID": 19, "OBJECTID_1": 20, "FID_TOUR_GALETTE_1ER": 15, "Salle": "Studio podcast", "Etage": 1, "Typologie": "Atelier", "Hauteur": 1, "FID_BDTOPO_BATI_SI_JSONToFeature_ExportFeatures": 2, "ID": "BATIMENT0000000047197280", "NB_ETAGES": null, "BATIMENT": "2 - La Tour", "HAUTEUR_1": 24, "Shape_Length": 0.0001981709754343558, "Shape_Area": 2.264160499810241e-09 }, "geometry": { "type": "Polygon", "coordinates": [ [ [ -1.628993228999946, 48.094308243000057 ], [ -1.629034770999965, 48.094341823000036 ], [ -1.629074645999935, 48.094319527000039 ], [ -1.629060609999954, 48.094308182000077 ], [ -1.629033122999942, 48.094285978000073 ], [ -1.628993228999946, 48.094308243000057 ] ] ] } },
{ "type": "Feature", "properties": { "OBJECTID": 20, "OBJECTID_1": 21, "FID_TOUR_GALETTE_1ER": 16, "Salle": "Isolement", "Etage": 1, "Typologie": "Autre", "Hauteur": 1, "FID_BDTOPO_BATI_SI_JSONToFeature_ExportFeatures": 2, "ID": "BATIMENT0000000047197280", "NB_ETAGES": null, "BATIMENT": "2 - La Tour", "HAUTEUR_1": 24, "Shape_Length": 0.00012093652600727339, "Shape_Area": 8.2020034908568121e-10 }, "geometry": { "type": "Polygon", "coordinates": [ [ [ -1.629033122999942, 48.094285978000073 ], [ -1.629060609999954, 48.094308182000077 ], [ -1.629082507999954, 48.094296480000025 ], [ -1.629054264999979, 48.094273666000049 ], [ -1.629048945999955, 48.094276647000072 ], [ -1.629033122999942, 48.094285978000073 ] ] ] } },
{ "type": "Feature", "properties": { "OBJECTID": 21, "OBJECTID_1": 22, "FID_TOUR_GALETTE_1ER": 17, "Salle": "Sanitaires hommes", "Etage": 1, "Typologie": "Toilettes", "Hauteur": 1, "FID_BDTOPO_BATI_SI_JSONToFeature_ExportFeatures": 2, "ID": "BATIMENT0000000047197280", "NB_ETAGES": null, "BATIMENT": "2 - La Tour", "HAUTEUR_1": 24, "Shape_Length": 0.00020813174343509052, "Shape_Area": 2.5093453652461298e-09 }, "geometry": { "type": "Polygon", "coordinates": [ [ [ -1.629082507999954, 48.094296480000025 ], [ -1.629096402999949, 48.094307398000069 ], [ -1.629140183999937, 48.094282346000057 ], [ -1.629097850999926, 48.094249233000028 ], [ -1.629054264999979, 48.094273666000049 ], [ -1.629082507999954, 48.094296480000025 ] ] ] } },
{ "type": "Feature", "properties": { "OBJECTID": 22, "OBJECTID_1": 23, "FID_TOUR_GALETTE_1ER": 18, "Salle": "Sanitaires femmes", "Etage": 1, "Typologie": "Toilettes", "Hauteur": 1, "FID_BDTOPO_BATI_SI_JSONToFeature_ExportFeatures": 2, "ID": "BATIMENT0000000047197280", "NB_ETAGES": null, "BATIMENT": "2 - La Tour", "HAUTEUR_1": 24, "Shape_Length": 0.00020425087681727978, "Shape_Area": 2.1621584492631986e-09 }, "geometry": { "type": "Polygon", "coordinates": [ [ [ -1.629114836999975, 48.094239711000057 ], [ -1.629156775999945, 48.094273656000041 ], [ -1.629199021999966, 48.094249630000036 ], [ -1.629176504999975, 48.094232101000046 ], [ -1.629167451999933, 48.094237210000074 ], [ -1.629147308999961, 48.094221509000079 ], [ -1.629114836999975, 48.094239711000057 ] ] ] } },
{ "type": "Feature", "properties": { "OBJECTID": 23, "OBJECTID_1": 24, "FID_TOUR_GALETTE_1ER": 19, "Salle": "Local technique et rangement", "Etage": 1, "Typologie": "Autre", "Hauteur": 1, "FID_BDTOPO_BATI_SI_JSONToFeature_ExportFeatures": 2, "ID": "BATIMENT0000000047197280", "NB_ETAGES": null, "BATIMENT": "2 - La Tour", "HAUTEUR_1": 24, "Shape_Length": 0.00017655765121715687, "Shape_Area": 1.3776307546541846e-09 }, "geometry": { "type": "Polygon", "coordinates": [ [ [ -1.629167451999933, 48.094237210000074 ], [ -1.629176504999975, 48.094232101000046 ], [ -1.629199021999966, 48.094249630000036 ], [ -1.629209340999978, 48.094244085000071 ], [ -1.629220669999938, 48.094237688000078 ], [ -1.629209251999953, 48.094227972000056 ], [ -1.629178337999974, 48.094204121000075 ], [ -1.629161946999943, 48.094214398000076 ], [ -1.629167084999949, 48.094218770000055 ], [ -1.629153767999981, 48.094226528000036 ], [ -1.629167451999933, 48.094237210000074 ] ] ] } },
{ "type": "Feature", "properties": { "OBJECTID": 24, "OBJECTID_1": 25, "FID_TOUR_GALETTE_1ER": 20, "Salle": "L. Duval A. Garroche", "Etage": 1, "Typologie": "Bureau", "Hauteur": 1, "FID_BDTOPO_BATI_SI_JSONToFeature_ExportFeatures": 3, "ID": "BATIMENT0000000047197271", "NB_ETAGES": 1, "BATIMENT": "3 - La Galette", "HAUTEUR_1": 12, "Shape_Length": 0.00019770414747432858, "Shape_Area": 2.046066543116666e-09 }, "geometry": { "type": "Polygon", "coordinates": [ [ [ -1.629215617999932, 48.094102839000072 ], [ -1.629240528999958, 48.094124769000075 ], [ -1.629298442999925, 48.094092399000033 ], [ -1.629271294999967, 48.09407148400004 ], [ -1.629215617999932, 48.094102839000072 ] ] ] } },
{ "type": "Feature", "properties": { "OBJECTID": 25, "OBJECTID_1": 26, "FID_TOUR_GALETTE_1ER": 21, "Salle": "S. Fouquet AC. Pays", "Etage": 1, "Typologie": "Bureau", "Hauteur": 1, "FID_BDTOPO_BATI_SI_JSONToFeature_ExportFeatures": 3, "ID": "BATIMENT0000000047197271", "NB_ETAGES": 1, "BATIMENT": "3 - La Galette", "HAUTEUR_1": 12, "Shape_Length": 0.00019004210323898739, "Shape_Area": 1.8905669294805974e-09 }, "geometry": { "type": "Polygon", "coordinates": [ [ [ -1.629191890999948, 48.094081948000053 ], [ -1.629215617999932, 48.094102839000072 ], [ -1.629271294999967, 48.09407148400004 ], [ -1.629245523999941, 48.094051279000041 ], [ -1.629191890999948, 48.094081948000053 ] ] ] } },
{ "type": "Feature", "properties": { "OBJECTID": 26, "OBJECTID_1": 27, "FID_TOUR_GALETTE_1ER": 22, "Salle": "LAB", "Etage": 1, "Typologie": "Salles de réunion", "Hauteur": 1, "FID_BDTOPO_BATI_SI_JSONToFeature_ExportFeatures": 3, "ID": "BATIMENT0000000047197271", "NB_ETAGES": 1, "BATIMENT": "3 - La Galette", "HAUTEUR_1": 12, "Shape_Length": 0.00033618127548956981, "Shape_Area": 6.3775209397973074e-09 }, "geometry": { "type": "Polygon", "coordinates": [ [ [ -1.629119036999953, 48.093946395000046 ], [ -1.629058608999969, 48.093981424000049 ], [ -1.629136051999978, 48.094043146000047 ], [ -1.629195400999947, 48.09400961800003 ], [ -1.629119036999953, 48.093946395000046 ] ] ] } },
{ "type": "Feature", "properties": { "OBJECTID": 27, "OBJECTID_1": 28, "FID_TOUR_GALETTE_1ER": 23, "Salle": "E. Bullet C. Tortelier", "Etage": 1, "Typologie": "Bureau", "Hauteur": 1, "FID_BDTOPO_BATI_SI_JSONToFeature_ExportFeatures": 2, "ID": "BATIMENT0000000047197280", "NB_ETAGES": null, "BATIMENT": "2 - La Tour", "HAUTEUR_1": 24, "Shape_Length": 0.00017766194528999948, "Shape_Area": 1.317207377474097e-09 }, "geometry": { "type": "Polygon", "coordinates": [ [ [ -1.628886623999961, 48.094346644000041 ], [ -1.628902434999929, 48.094359242000053 ], [ -1.628961859999947, 48.094325468000079 ], [ -1.628944769999976, 48.094312311000067 ], [ -1.628886623999961, 48.094346644000041 ] ] ] } },
{ "type": "Feature", "properties": { "OBJECTID": 28, "OBJECTID_1": 29, "FID_TOUR_GALETTE_1ER": 23, "Salle": "E. Bullet C. Tortelier", "Etage": 1, "Typologie": "Bureau", "Hauteur": 1, "FID_BDTOPO_BATI_SI_JSONToFeature_ExportFeatures": 3, "ID": "BATIMENT0000000047197271", "NB_ETAGES": 1, "BATIMENT": "3 - La Galette", "HAUTEUR_1": 12, "Shape_Length": 0.00017426367218183273, "Shape_Area": 1.2247274740577116e-09 }, "geometry": { "type": "Polygon", "coordinates": [ [ [ -1.628929788999926, 48.094300781000072 ], [ -1.628870865999943, 48.094334088000039 ], [ -1.628886623999961, 48.094346644000041 ], [ -1.628944769999976, 48.094312311000067 ], [ -1.628929788999926, 48.094300781000072 ] ] ] } },
{ "type": "Feature", "properties": { "OBJECTID": 29, "OBJECTID_1": 30, "FID_TOUR_GALETTE_1ER": 24, "Salle": null, "Etage": 1, "Typologie": "Autre", "Hauteur": 1, "FID_BDTOPO_BATI_SI_JSONToFeature_ExportFeatures": 3, "ID": "BATIMENT0000000047197271", "NB_ETAGES": 1, "BATIMENT": "3 - La Galette", "HAUTEUR_1": 12, "Shape_Length": 0.00020181700745644797, "Shape_Area": 2.0501751920194766e-09 }, "geometry": { "type": "Polygon", "coordinates": [ [ [ -1.628844385999969, 48.094314230000066 ], [ -1.628870852999967, 48.094334049000054 ], [ -1.628929788999926, 48.094300781000072 ], [ -1.628904471999931, 48.09428074300007 ], [ -1.628844385999969, 48.094314230000066 ] ] ] } },
{ "type": "Feature", "properties": { "OBJECTID": 30, "OBJECTID_1": 31, "FID_TOUR_GALETTE_1ER": 27, "Salle": "Escaliers", "Etage": 1, "Typologie": "Accès", "Hauteur": 1, "FID_BDTOPO_BATI_SI_JSONToFeature_ExportFeatures": 3, "ID": "BATIMENT0000000047197271", "NB_ETAGES": 1, "BATIMENT": "3 - La Galette", "HAUTEUR_1": 12, "Shape_Length": 0.00021080192607978593, "Shape_Area": 1.9186595440640849e-09 }, "geometry": { "type": "Polygon", "coordinates": [ [ [ -1.628808272999947, 48.094050810000056 ], [ -1.628746065999962, 48.094000984000047 ], [ -1.628723741999977, 48.094014283000035 ], [ -1.628785917999949, 48.094063600000027 ], [ -1.628808272999947, 48.094050810000056 ] ] ] } },
{ "type": "Feature", "properties": { "OBJECTID": 31, "OBJECTID_1": 32, "FID_TOUR_GALETTE_1ER": 28, "Salle": "Coordination rédaction", "Etage": 1, "Typologie": "Service", "Hauteur": 1, "FID_BDTOPO_BATI_SI_JSONToFeature_ExportFeatures": 3, "ID": "BATIMENT0000000047197271", "NB_ETAGES": 1, "BATIMENT": "3 - La Galette", "HAUTEUR_1": 12, "Shape_Length": 0.00071671680983643083, "Shape_Area": 2.3736862516760446e-08 }, "geometry": { "type": "Polygon", "coordinates": [ [ [ -1.628408499999978, 48.093867989000046 ], [ -1.62831956399998, 48.093918278000046 ], [ -1.628400466999949, 48.093983220000041 ], [ -1.628472453999962, 48.093938326000057 ], [ -1.628497312999968, 48.093958735000058 ], [ -1.628589708999925, 48.093907888000047 ], [ -1.628459694999947, 48.093804010000042 ], [ -1.628382359999932, 48.093847622000055 ], [ -1.628408499999978, 48.093867989000046 ] ] ] } },
{ "type": "Feature", "properties": { "OBJECTID": 32, "OBJECTID_1": 33, "FID_TOUR_GALETTE_1ER": 29, "Salle": "PE. Galland", "Etage": 1, "Typologie": "Bureau", "Hauteur": 1, "FID_BDTOPO_BATI_SI_JSONToFeature_ExportFeatures": 3, "ID": "BATIMENT0000000047197271", "NB_ETAGES": 1, "BATIMENT": "3 - La Galette", "HAUTEUR_1": 12, "Shape_Length": 0.00023215594690891006, "Shape_Area": 2.4739144157125964e-09 }, "geometry": { "type": "Polygon", "coordinates": [ [ [ -1.628400466999949, 48.093983220000041 ], [ -1.628423200999976, 48.094001868000078 ], [ -1.628497312999968, 48.093958735000058 ], [ -1.628472453999962, 48.093938326000057 ], [ -1.628400466999949, 48.093983220000041 ] ] ] } },
{ "type": "Feature", "properties": { "OBJECTID": 33, "OBJECTID_1": 34, "FID_TOUR_GALETTE_1ER": 32, "Salle": "G. Ballard", "Etage": 1, "Typologie": "Bureau", "Hauteur": 1, "FID_BDTOPO_BATI_SI_JSONToFeature_ExportFeatures": 3, "ID": "BATIMENT0000000047197271", "NB_ETAGES": 1, "BATIMENT": "3 - La Galette", "HAUTEUR_1": 12, "Shape_Length": 0.00023816153591185073, "Shape_Area": 2.6491607092506567e-09 }, "geometry": { "type": "Polygon", "coordinates": [ [ [ -1.628497312999968, 48.093958735000058 ], [ -1.628423285999929, 48.094001990000038 ], [ -1.628449678999971, 48.094022036000069 ], [ -1.628464889999975, 48.094013321000034 ], [ -1.628523898999958, 48.093979516000047 ], [ -1.628497312999968, 48.093958735000058 ] ] ] } },
{ "type": "Feature", "properties": { "OBJECTID": 34, "OBJECTID_1": 35, "FID_TOUR_GALETTE_1ER": 33, "Salle": "Isolement", "Etage": 1, "Typologie": "Autre", "Hauteur": 1, "FID_BDTOPO_BATI_SI_JSONToFeature_ExportFeatures": 3, "ID": "BATIMENT0000000047197271", "NB_ETAGES": 1, "BATIMENT": "3 - La Galette", "HAUTEUR_1": 12, "Shape_Length": 0.00011325930567480029, "Shape_Area": 7.0620278331294643e-10 }, "geometry": { "type": "Polygon", "coordinates": [ [ [ -1.628718908999929, 48.094050595000056 ], [ -1.628736613999934, 48.094064655000068 ], [ -1.628766603999964, 48.094048575000045 ], [ -1.628748837999979, 48.094034524000051 ], [ -1.628718908999929, 48.094050595000056 ] ] ] } },
{ "type": "Feature", "properties": { "OBJECTID": 35, "OBJECTID_1": 36, "FID_TOUR_GALETTE_1ER": 34, "Salle": "Isolement", "Etage": 1, "Typologie": "Autre", "Hauteur": 1, "FID_BDTOPO_BATI_SI_JSONToFeature_ExportFeatures": 3, "ID": "BATIMENT0000000047197271", "NB_ETAGES": 1, "BATIMENT": "3 - La Galette", "HAUTEUR_1": 12, "Shape_Length": 0.00013304969554332749, "Shape_Area": 1.0144155957539532e-09 }, "geometry": { "type": "Polygon", "coordinates": [ [ [ -1.62869337099994, 48.094030942000074 ], [ -1.628718908999929, 48.094050595000056 ], [ -1.628748880999979, 48.094034373000056 ], [ -1.628723437999952, 48.094014326000035 ], [ -1.62869337099994, 48.094030942000074 ] ] ] } },
{ "type": "Feature", "properties": { "OBJECTID": 36, "OBJECTID_1": 37, "FID_TOUR_GALETTE_1ER": 36, "Salle": "C. Bardy JB. Gaudey", "Etage": 1, "Typologie": "Bureau", "Hauteur": 1, "FID_BDTOPO_BATI_SI_JSONToFeature_ExportFeatures": 3, "ID": "BATIMENT0000000047197271", "NB_ETAGES": 1, "BATIMENT": "3 - La Galette", "HAUTEUR_1": 12, "Shape_Length": 0.00020242419754375673, "Shape_Area": 2.1052366888747734e-09 }, "geometry": { "type": "Polygon", "coordinates": [ [ [ -1.628924911999945, 48.09387578500008 ], [ -1.628951227999949, 48.093896652000069 ], [ -1.629010063999942, 48.093863753000051 ], [ -1.628984252999942, 48.093842539000036 ], [ -1.628924911999945, 48.09387578500008 ] ] ] } },
{ "type": "Feature", "properties": { "OBJECTID": 37, "OBJECTID_1": 38, "FID_TOUR_GALETTE_1ER": 37, "Salle": null, "Etage": 1, "Typologie": "Salles de réunion", "Hauteur": 1, "FID_BDTOPO_BATI_SI_JSONToFeature_ExportFeatures": 3, "ID": "BATIMENT0000000047197271", "NB_ETAGES": 1, "BATIMENT": "3 - La Galette", "HAUTEUR_1": 12, "Shape_Length": 0.00020163128937411611, "Shape_Area": 2.0701552232152258e-09 }, "geometry": { "type": "Polygon", "coordinates": [ [ [ -1.628899395999952, 48.093855551000047 ], [ -1.628924911999945, 48.09387578500008 ], [ -1.628984252999942, 48.093842539000036 ], [ -1.628958375999957, 48.093821862000027 ], [ -1.628899395999952, 48.093855551000047 ] ] ] } },
{ "type": "Feature", "properties": { "OBJECTID": 38, "OBJECTID_1": 39, "FID_TOUR_GALETTE_1ER": 38, "Salle": "Valérie Poirier", "Etage": 1, "Typologie": "Bureau", "Hauteur": 1, "FID_BDTOPO_BATI_SI_JSONToFeature_ExportFeatures": 3, "ID": "BATIMENT0000000047197271", "NB_ETAGES": 1, "BATIMENT": "3 - La Galette", "HAUTEUR_1": 12, "Shape_Length": 0.00020162104433803761, "Shape_Area": 2.075991835273939e-09 }, "geometry": { "type": "Polygon", "coordinates": [ [ [ -1.628875380999943, 48.093836510000074 ], [ -1.628899395999952, 48.093855551000047 ], [ -1.628958375999957, 48.093821862000027 ], [ -1.628931142999932, 48.093802019000066 ], [ -1.628873198999941, 48.093834737000066 ], [ -1.628875380999943, 48.093836510000074 ] ] ] } },
{ "type": "Feature", "properties": { "OBJECTID": 39, "OBJECTID_1": 40, "FID_TOUR_GALETTE_1ER": 39, "Salle": null, "Etage": 1, "Typologie": "Salles de réunion", "Hauteur": 1, "FID_BDTOPO_BATI_SI_JSONToFeature_ExportFeatures": 3, "ID": "BATIMENT0000000047197271", "NB_ETAGES": 1, "BATIMENT": "3 - La Galette", "HAUTEUR_1": 12, "Shape_Length": 0.00019931974180004982, "Shape_Area": 2.0431245159616655e-09 }, "geometry": { "type": "Polygon", "coordinates": [ [ [ -1.628863075999959, 48.09382675300003 ], [ -1.628873198999941, 48.093834737000066 ], [ -1.628931142999932, 48.093802019000066 ], [ -1.628904656999964, 48.093781438000065 ], [ -1.628847237999935, 48.093814260000045 ], [ -1.628849635999927, 48.093816156000059 ], [ -1.628849680999963, 48.09381613100004 ], [ -1.628863075999959, 48.09382675300003 ] ] ] } },
{ "type": "Feature", "properties": { "OBJECTID": 40, "OBJECTID_1": 41, "FID_TOUR_GALETTE_1ER": 40, "Salle": "V. Coté", "Etage": 1, "Typologie": "Bureau", "Hauteur": 1, "FID_BDTOPO_BATI_SI_JSONToFeature_ExportFeatures": 3, "ID": "BATIMENT0000000047197271", "NB_ETAGES": 1, "BATIMENT": "3 - La Galette", "HAUTEUR_1": 12, "Shape_Length": 0.00019793647854601847, "Shape_Area": 2.0079558331068312e-09 }, "geometry": { "type": "Polygon", "coordinates": [ [ [ -1.628821162999941, 48.093793813000048 ], [ -1.628847237999935, 48.093814260000045 ], [ -1.628904615999943, 48.093781403000037 ], [ -1.628878575999977, 48.093761478000033 ], [ -1.628821162999941, 48.093793813000048 ] ] ] } },
{ "type": "Feature", "properties": { "OBJECTID": 41, "OBJECTID_1": 42, "FID_TOUR_GALETTE_1ER": 41, "Salle": null, "Etage": 1, "Typologie": "Bureau", "Hauteur": 1, "FID_BDTOPO_BATI_SI_JSONToFeature_ExportFeatures": 3, "ID": "BATIMENT0000000047197271", "NB_ETAGES": 1, "BATIMENT": "3 - La Galette", "HAUTEUR_1": 12, "Shape_Length": 0.00019810751494516181, "Shape_Area": 2.0345560133474774e-09 }, "geometry": { "type": "Polygon", "coordinates": [ [ [ -1.628852224999946, 48.093740474000072 ], [ -1.628795426999943, 48.093773260000034 ], [ -1.628821162999941, 48.093793813000048 ], [ -1.628878575999977, 48.093761478000033 ], [ -1.628852224999946, 48.093740474000072 ] ] ] } },
{ "type": "Feature", "properties": { "OBJECTID": 42, "OBJECTID_1": 43, "FID_TOUR_GALETTE_1ER": 43, "Salle": "V. Jarnigon", "Etage": 1, "Typologie": "Bureau", "Hauteur": 1, "FID_BDTOPO_BATI_SI_JSONToFeature_ExportFeatures": 3, "ID": "BATIMENT0000000047197271", "NB_ETAGES": 1, "BATIMENT": "3 - La Galette", "HAUTEUR_1": 12, "Shape_Length": 0.00024496996361943933, "Shape_Area": 2.6291723572040035e-09 }, "geometry": { "type": "Polygon", "coordinates": [ [ [ -1.628852224999946, 48.093740474000072 ], [ -1.628854308999962, 48.093739640000081 ], [ -1.628828448999968, 48.093718952000074 ], [ -1.628769867999949, 48.093751567000027 ], [ -1.628762901999949, 48.093746923000026 ], [ -1.628751501999943, 48.093753572000026 ], [ -1.628783372999976, 48.093780173000027 ], [ -1.628852224999946, 48.093740474000072 ] ] ] } },
{ "type": "Feature", "properties": { "OBJECTID": 43, "OBJECTID_1": 44, "FID_TOUR_GALETTE_1ER": 44, "Salle": "Le marin", "Etage": 1, "Typologie": "Service", "Hauteur": 1, "FID_BDTOPO_BATI_SI_JSONToFeature_ExportFeatures": 3, "ID": "BATIMENT0000000047197271", "NB_ETAGES": 1, "BATIMENT": "3 - La Galette", "HAUTEUR_1": 12, "Shape_Length": 0.00040414679483741082, "Shape_Area": 7.803600788828552e-09 }, "geometry": { "type": "Polygon", "coordinates": [ [ [ -1.628780861999928, 48.093745431000059 ], [ -1.628829166999935, 48.093718534000061 ], [ -1.62872721399998, 48.093635168000048 ], [ -1.628664914999945, 48.093670445000043 ], [ -1.628716329999975, 48.093711727000027 ], [ -1.628729840999938, 48.093705535000026 ], [ -1.628780861999928, 48.093745431000059 ] ] ] } },
{ "type": "Feature", "properties": { "OBJECTID": 44, "OBJECTID_1": 45, "FID_TOUR_GALETTE_1ER": 45, "Salle": "Escaliers", "Etage": 1, "Typologie": "Accès", "Hauteur": 1, "FID_BDTOPO_BATI_SI_JSONToFeature_ExportFeatures": 3, "ID": "BATIMENT0000000047197271", "NB_ETAGES": 1, "BATIMENT": "3 - La Galette", "HAUTEUR_1": 12, "Shape_Length": 0.00021800264219462676, "Shape_Area": 2.6340896461585288e-09 }, "geometry": { "type": "Polygon", "coordinates": [ [ [ -1.628783372999976, 48.093780173000027 ], [ -1.628731954999978, 48.093738017000078 ], [ -1.628694517999975, 48.093759787000067 ], [ -1.628745973999969, 48.093800523000027 ], [ -1.628783372999976, 48.093780173000027 ] ] ] } },
{ "type": "Feature", "properties": { "OBJECTID": 45, "OBJECTID_1": 46, "FID_TOUR_GALETTE_1ER": 46, "Salle": "Réunion", "Etage": 1, "Typologie": "Salles de réunion", "Hauteur": 1, "FID_BDTOPO_BATI_SI_JSONToFeature_ExportFeatures": 3, "ID": "BATIMENT0000000047197271", "NB_ETAGES": 1, "BATIMENT": "3 - La Galette", "HAUTEUR_1": 12, "Shape_Length": 0.00017204688497656894, "Shape_Area": 1.6321043800601872e-09 }, "geometry": { "type": "Polygon", "coordinates": [ [ [ -1.628685631999929, 48.093711033000034 ], [ -1.62863940699998, 48.093737634000036 ], [ -1.62866473899993, 48.093758217000072 ], [ -1.628710970999975, 48.093732251000063 ], [ -1.628685631999929, 48.093711033000034 ] ] ] } },
{ "type": "Feature", "properties": { "OBJECTID": 46, "OBJECTID_1": 47, "FID_TOUR_GALETTE_1ER": 47, "Salle": "C. Gourmelon", "Etage": 1, "Typologie": "Bureau", "Hauteur": 1, "FID_BDTOPO_BATI_SI_JSONToFeature_ExportFeatures": 3, "ID": "BATIMENT0000000047197271", "NB_ETAGES": 1, "BATIMENT": "3 - La Galette", "HAUTEUR_1": 12, "Shape_Length": 0.00017228354197548377, "Shape_Area": 1.6303755838447736e-09 }, "geometry": { "type": "Polygon", "coordinates": [ [ [ -1.628685631999929, 48.093711033000034 ], [ -1.628659355999957, 48.093690664000064 ], [ -1.628613652999945, 48.09371684100006 ], [ -1.628639395999926, 48.09373757600008 ], [ -1.628685631999929, 48.093711033000034 ] ] ] } },
{ "type": "Feature", "properties": { "OBJECTID": 47, "OBJECTID_1": 48, "FID_TOUR_GALETTE_1ER": 48, "Salle": "Suppléments", "Etage": 1, "Typologie": "Service", "Hauteur": 1, "FID_BDTOPO_BATI_SI_JSONToFeature_ExportFeatures": 3, "ID": "BATIMENT0000000047197271", "NB_ETAGES": 1, "BATIMENT": "3 - La Galette", "HAUTEUR_1": 12, "Shape_Length": 0.00055364620813299172, "Shape_Area": 1.5472414332802353e-08 }, "geometry": { "type": "Polygon", "coordinates": [ [ [ -1.628570642999932, 48.093599914000038 ], [ -1.628508648999968, 48.093634940000072 ], [ -1.628613650999966, 48.093716705000077 ], [ -1.628676771999949, 48.093680320000033 ], [ -1.628664783999966, 48.093670442000075 ], [ -1.628727185999935, 48.093635153000037 ], [ -1.62864553299994, 48.093574904000036 ], [ -1.628583853999942, 48.093610198000079 ], [ -1.628570642999932, 48.093599914000038 ] ] ] } },
{ "type": "Feature", "properties": { "OBJECTID": 48, "OBJECTID_1": 49, "FID_TOUR_GALETTE_1ER": 49, "Salle": "Création graphique", "Etage": 1, "Typologie": "Service", "Hauteur": 1, "FID_BDTOPO_BATI_SI_JSONToFeature_ExportFeatures": 3, "ID": "BATIMENT0000000047197271", "NB_ETAGES": 1, "BATIMENT": "3 - La Galette", "HAUTEUR_1": 12, "Shape_Length": 0.00024356955589670189, "Shape_Area": 3.0544431054036486e-09 }, "geometry": { "type": "Polygon", "coordinates": [ [ [ -1.628570642999932, 48.093599914000038 ], [ -1.62857082499994, 48.093599811000047 ], [ -1.628583853999942, 48.093610198000079 ], [ -1.62864553299994, 48.093574904000036 ], [ -1.628605942999968, 48.093543838000073 ], [ -1.628559290999931, 48.093570016000058 ], [ -1.628572592999944, 48.093580574000043 ], [ -1.628557182999941, 48.093589441000063 ], [ -1.628570642999932, 48.093599914000038 ] ] ] } },
{ "type": "Feature", "properties": { "OBJECTID": 49, "OBJECTID_1": 50, "FID_TOUR_GALETTE_1ER": 50, "Salle": "M. Beaufils", "Etage": 1, "Typologie": "Bureau", "Hauteur": 1, "FID_BDTOPO_BATI_SI_JSONToFeature_ExportFeatures": 3, "ID": "BATIMENT0000000047197271", "NB_ETAGES": 1, "BATIMENT": "3 - La Galette", "HAUTEUR_1": 12, "Shape_Length": 0.00017319519851442895, "Shape_Area": 1.6327024960536002e-09 }, "geometry": { "type": "Polygon", "coordinates": [ [ [ -1.628580185999965, 48.093523254000047 ], [ -1.628533327999946, 48.093550070000049 ], [ -1.628559290999931, 48.093570016000058 ], [ -1.628605942999968, 48.093543838000073 ], [ -1.628580185999965, 48.093523254000047 ] ] ] } },
{ "type": "Feature", "properties": { "OBJECTID": 50, "OBJECTID_1": 51, "FID_TOUR_GALETTE_1ER": 51, "Salle": null, "Etage": 1, "Typologie": "Bureau", "Hauteur": 1, "FID_BDTOPO_BATI_SI_JSONToFeature_ExportFeatures": 3, "ID": "BATIMENT0000000047197271", "NB_ETAGES": 1, "BATIMENT": "3 - La Galette", "HAUTEUR_1": 12, "Shape_Length": 0.00017513188064585038, "Shape_Area": 1.6649806438497502e-09 }, "geometry": { "type": "Polygon", "coordinates": [ [ [ -1.628506638999966, 48.093529505000049 ], [ -1.62853326499993, 48.093550020000066 ], [ -1.628580185999965, 48.093523254000047 ], [ -1.628554564999945, 48.093502933000082 ], [ -1.628506638999966, 48.093529505000049 ] ] ] } },
{ "type": "Feature", "properties": { "OBJECTID": 51, "OBJECTID_1": 52, "FID_TOUR_GALETTE_1ER": 52, "Salle": "D. Denis", "Etage": 1, "Typologie": "Bureau", "Hauteur": 1, "FID_BDTOPO_BATI_SI_JSONToFeature_ExportFeatures": 3, "ID": "BATIMENT0000000047197271", "NB_ETAGES": 1, "BATIMENT": "3 - La Galette", "HAUTEUR_1": 12, "Shape_Length": 0.00017489637642717262, "Shape_Area": 1.6739061575658855e-09 }, "geometry": { "type": "Polygon", "coordinates": [ [ [ -1.628481568999973, 48.093508624000037 ], [ -1.628506638999966, 48.093529505000049 ], [ -1.628554564999945, 48.093502933000082 ], [ -1.628528572999926, 48.093481932000032 ], [ -1.628481568999973, 48.093508624000037 ] ] ] } },
{ "type": "Feature", "properties": { "OBJECTID": 52, "OBJECTID_1": 53, "FID_TOUR_GALETTE_1ER": 53, "Salle": "C. Peye", "Etage": 1, "Typologie": "Bureau", "Hauteur": 1, "FID_BDTOPO_BATI_SI_JSONToFeature_ExportFeatures": 3, "ID": "BATIMENT0000000047197271", "NB_ETAGES": 1, "BATIMENT": "3 - La Galette", "HAUTEUR_1": 12, "Shape_Length": 0.00027260148845393683, "Shape_Area": 3.4172017034672337e-09 }, "geometry": { "type": "Polygon", "coordinates": [ [ [ -1.628481568999973, 48.093508624000037 ], [ -1.628528550999931, 48.093481910000037 ], [ -1.628491949999955, 48.093453091000072 ], [ -1.628428688999975, 48.093487955000057 ], [ -1.628479445999972, 48.093527976000075 ], [ -1.628495009999938, 48.093520021000074 ], [ -1.628481568999973, 48.093508624000037 ] ] ] } },
{ "type": "Feature", "properties": { "OBJECTID": 53, "OBJECTID_1": 54, "FID_TOUR_GALETTE_1ER": 54, "Salle": "Cadres pub", "Etage": 1, "Typologie": "Service", "Hauteur": 1, "FID_BDTOPO_BATI_SI_JSONToFeature_ExportFeatures": 3, "ID": "BATIMENT0000000047197271", "NB_ETAGES": 1, "BATIMENT": "3 - La Galette", "HAUTEUR_1": 12, "Shape_Length": 0.00037302470888729453, "Shape_Area": 7.9330238044926875e-09 }, "geometry": { "type": "Polygon", "coordinates": [ [ [ -1.62842857399994, 48.093591720000063 ], [ -1.628505169999926, 48.093548512000041 ], [ -1.62842866799997, 48.093487971000059 ], [ -1.628353252999943, 48.093529682000053 ], [ -1.628378217999966, 48.093549489000054 ], [ -1.628375844999937, 48.093550675000074 ], [ -1.62842857399994, 48.093591720000063 ] ] ] } },
{ "type": "Feature", "properties": { "OBJECTID": 54, "OBJECTID_1": 55, "FID_TOUR_GALETTE_1ER": 55, "Salle": "Réunion", "Etage": 1, "Typologie": "Salles de réunion", "Hauteur": 1, "FID_BDTOPO_BATI_SI_JSONToFeature_ExportFeatures": 3, "ID": "BATIMENT0000000047197271", "NB_ETAGES": 1, "BATIMENT": "3 - La Galette", "HAUTEUR_1": 12, "Shape_Length": 0.00024054733508665544, "Shape_Area": 3.2430347919711864e-09 }, "geometry": { "type": "Polygon", "coordinates": [ [ [ -1.62842857399994, 48.093591720000063 ], [ -1.628467582999974, 48.093622735000054 ], [ -1.62852909999998, 48.09358826600004 ], [ -1.62849050799997, 48.093557426000075 ], [ -1.62842857399994, 48.093591720000063 ] ] ] } },
{ "type": "Feature", "properties": { "OBJECTID": 55, "OBJECTID_1": 56, "FID_TOUR_GALETTE_1ER": 56, "Salle": "C. Roquier R. Agoyer", "Etage": 1, "Typologie": "Bureau", "Hauteur": 1, "FID_BDTOPO_BATI_SI_JSONToFeature_ExportFeatures": 3, "ID": "BATIMENT0000000047197271", "NB_ETAGES": 1, "BATIMENT": "3 - La Galette", "HAUTEUR_1": 12, "Shape_Length": 0.00020570031805218974, "Shape_Area": 2.456524101577908e-09 }, "geometry": { "type": "Polygon", "coordinates": [ [ [ -1.628321099999937, 48.093652622000036 ], [ -1.628360118999979, 48.093683698000063 ], [ -1.628406033999966, 48.093657732000054 ], [ -1.628367190999938, 48.093626278000045 ], [ -1.628321099999937, 48.093652622000036 ] ] ] } },
{ "type": "Feature", "properties": { "OBJECTID": 56, "OBJECTID_1": 57, "FID_TOUR_GALETTE_1ER": 57, "Salle": "Archivage numérique", "Etage": 1, "Typologie": "Service", "Hauteur": 1, "FID_BDTOPO_BATI_SI_JSONToFeature_ExportFeatures": 3, "ID": "BATIMENT0000000047197271", "NB_ETAGES": 1, "BATIMENT": "3 - La Galette", "HAUTEUR_1": 12, "Shape_Length": 0.00050923856568918968, "Shape_Area": 1.173009079607981e-08 }, "geometry": { "type": "Polygon", "coordinates": [ [ [ -1.628231161999963, 48.093685672000049 ], [ -1.628292464999959, 48.093651091000027 ], [ -1.628227441999968, 48.093599442000027 ], [ -1.628153655999938, 48.093640100000073 ], [ -1.628167464999933, 48.093654120000053 ], [ -1.628092218999939, 48.093695402000037 ], [ -1.628142695999941, 48.093735558000049 ], [ -1.628231161999963, 48.093685672000049 ] ] ] } },
{ "type": "Feature", "properties": { "OBJECTID": 57, "OBJECTID_1": 58, "FID_TOUR_GALETTE_1ER": 58, "Salle": "CEPOF", "Etage": 1, "Typologie": "Service", "Hauteur": 1, "FID_BDTOPO_BATI_SI_JSONToFeature_ExportFeatures": 3, "ID": "BATIMENT0000000047197271", "NB_ETAGES": 1, "BATIMENT": "3 - La Galette", "HAUTEUR_1": 12, "Shape_Length": 0.00040201562618028843, "Shape_Area": 9.3394086772901745e-09 }, "geometry": { "type": "Polygon", "coordinates": [ [ [ -1.628309330999969, 48.093747528000051 ], [ -1.628231186999926, 48.093685715000049 ], [ -1.628142741999966, 48.093735686000059 ], [ -1.628220197999951, 48.093797059000053 ], [ -1.628309330999969, 48.093747528000051 ] ] ] } },
{ "type": "Feature", "properties": { "OBJECTID": 58, "OBJECTID_1": 59, "FID_TOUR_GALETTE_1ER": 59, "Salle": "Studio Fab Pub", "Etage": 1, "Typologie": "Service", "Hauteur": 1, "FID_BDTOPO_BATI_SI_JSONToFeature_ExportFeatures": 3, "ID": "BATIMENT0000000047197271", "NB_ETAGES": 1, "BATIMENT": "3 - La Galette", "HAUTEUR_1": 12, "Shape_Length": 0.00034095861191984328, "Shape_Area": 6.5233113465692369e-09 }, "geometry": { "type": "Polygon", "coordinates": [ [ [ -1.628231161999963, 48.093685672000049 ], [ -1.628309330999969, 48.093747528000051 ], [ -1.628371179999931, 48.093712536000055 ], [ -1.628292475999956, 48.093651116000046 ], [ -1.628231161999963, 48.093685672000049 ] ] ] } },
{ "type": "Feature", "properties": { "OBJECTID": 59, "OBJECTID_1": 60, "FID_TOUR_GALETTE_1ER": 60, "Salle": "Coordination publicité", "Etage": 1, "Typologie": "Service", "Hauteur": 1, "FID_BDTOPO_BATI_SI_JSONToFeature_ExportFeatures": 3, "ID": "BATIMENT0000000047197271", "NB_ETAGES": 1, "BATIMENT": "3 - La Galette", "HAUTEUR_1": 12, "Shape_Length": 0.00064394895768343319, "Shape_Area": 2.0583811371696934e-08 }, "geometry": { "type": "Polygon", "coordinates": [ [ [ -1.628459694999947, 48.093804010000042 ], [ -1.628381471999944, 48.093741368000053 ], [ -1.628217941999935, 48.093836324000051 ], [ -1.628319534999946, 48.093918269000028 ], [ -1.628408499999978, 48.093867989000046 ], [ -1.628382359999932, 48.093847622000055 ], [ -1.628459694999947, 48.093804010000042 ] ] ] } },
{ "type": "Feature", "properties": { "OBJECTID": 60, "OBJECTID_1": 61, "FID_TOUR_GALETTE_1ER": 61, "Salle": null, "Etage": 1, "Typologie": "Bureau", "Hauteur": 1, "FID_BDTOPO_BATI_SI_JSONToFeature_ExportFeatures": 3, "ID": "BATIMENT0000000047197271", "NB_ETAGES": 1, "BATIMENT": "3 - La Galette", "HAUTEUR_1": 12, "Shape_Length": 0.00016652333230636848, "Shape_Area": 1.5919594066658318e-09 }, "geometry": { "type": "Polygon", "coordinates": [ [ [ -1.628693492999957, 48.093902310000033 ], [ -1.628657395999937, 48.093874235000044 ], [ -1.628624883999976, 48.093892739000069 ], [ -1.628659643999924, 48.093920927000056 ], [ -1.628660851999939, 48.093920320000052 ], [ -1.628693492999957, 48.093902310000033 ] ] ] } },
{ "type": "Feature", "properties": { "OBJECTID": 61, "OBJECTID_1": 62, "FID_TOUR_GALETTE_1ER": 63, "Salle": null, "Etage": 1, "Typologie": "Bureau", "Hauteur": 1, "FID_BDTOPO_BATI_SI_JSONToFeature_ExportFeatures": 3, "ID": "BATIMENT0000000047197271", "NB_ETAGES": 1, "BATIMENT": "3 - La Galette", "HAUTEUR_1": 12, "Shape_Length": 0.00016300668789047762, "Shape_Area": 1.5089691456670186e-09 }, "geometry": { "type": "Polygon", "coordinates": [ [ [ -1.628724769999963, 48.093885053000065 ], [ -1.628688572999977, 48.093856595000034 ], [ -1.628657569999973, 48.093874283000048 ], [ -1.628693515999942, 48.093902297000056 ], [ -1.628724769999963, 48.093885053000065 ] ] ] } },
{ "type": "Feature", "properties": { "OBJECTID": 62, "OBJECTID_1": 63, "FID_TOUR_GALETTE_1ER": 64, "Salle": "Reporters photo", "Etage": 1, "Typologie": "Service", "Hauteur": 1, "FID_BDTOPO_BATI_SI_JSONToFeature_ExportFeatures": 3, "ID": "BATIMENT0000000047197271", "NB_ETAGES": 1, "BATIMENT": "3 - La Galette", "HAUTEUR_1": 12, "Shape_Length": 0.00025423273306484647, "Shape_Area": 3.4664935221748262e-09 }, "geometry": { "type": "Polygon", "coordinates": [ [ [ -1.628759078999963, 48.093816726000057 ], [ -1.628688653999973, 48.093856548000076 ], [ -1.628724769999963, 48.093885053000065 ], [ -1.628795367999942, 48.093846100000064 ], [ -1.628759078999963, 48.093816726000057 ] ] ] } },
{ "type": "Feature", "properties": { "OBJECTID": 63, "OBJECTID_1": 64, "FID_TOUR_GALETTE_1ER": 65, "Salle": "JM. Niester", "Etage": 1, "Typologie": "Bureau", "Hauteur": 1, "FID_BDTOPO_BATI_SI_JSONToFeature_ExportFeatures": 3, "ID": "BATIMENT0000000047197271", "NB_ETAGES": 1, "BATIMENT": "3 - La Galette", "HAUTEUR_1": 12, "Shape_Length": 0.00016567715458301507, "Shape_Area": 1.5711895379691651e-09 }, "geometry": { "type": "Polygon", "coordinates": [ [ [ -1.628759078999963, 48.093816726000057 ], [ -1.628795367999942, 48.093846100000064 ], [ -1.62881639699998, 48.093834497000046 ], [ -1.628826785999934, 48.093828560000077 ], [ -1.628790337999931, 48.093798873000026 ], [ -1.628759078999963, 48.093816726000057 ] ] ] } },
{ "type": "Feature", "properties": { "OBJECTID": 64, "OBJECTID_1": 65, "FID_TOUR_GALETTE_1ER": 66, "Salle": "Sanitaires", "Etage": 1, "Typologie": "Toilettes", "Hauteur": 1, "FID_BDTOPO_BATI_SI_JSONToFeature_ExportFeatures": 3, "ID": "BATIMENT0000000047197271", "NB_ETAGES": 1, "BATIMENT": "3 - La Galette", "HAUTEUR_1": 12, "Shape_Length": 0.00042761486986508777, "Shape_Area": 7.3897956497271567e-09 }, "geometry": { "type": "Polygon", "coordinates": [ [ [ -1.628654191999942, 48.093853846000059 ], [ -1.628734906999966, 48.093807990000073 ], [ -1.628695148999952, 48.093776623000053 ], [ -1.628644588999975, 48.093805205000081 ], [ -1.628631738999957, 48.093793796000057 ], [ -1.628554878999978, 48.093837390000033 ], [ -1.628594392999958, 48.093868495000038 ], [ -1.628640265999934, 48.093842914000049 ], [ -1.628654191999942, 48.093853846000059 ] ] ] } },
{ "type": "Feature", "properties": { "OBJECTID": 65, "OBJECTID_1": 66, "FID_TOUR_GALETTE_1ER": 67, "Salle": "Local technique", "Etage": 1, "Typologie": "Autre", "Hauteur": 1, "FID_BDTOPO_BATI_SI_JSONToFeature_ExportFeatures": 3, "ID": "BATIMENT0000000047197271", "NB_ETAGES": 1, "BATIMENT": "3 - La Galette", "HAUTEUR_1": 12, "Shape_Length": 0.0001408197562909019, "Shape_Area": 8.7082136861039644e-10 }, "geometry": { "type": "Polygon", "coordinates": [ [ [ -1.628594392999958, 48.093868495000038 ], [ -1.628608665999934, 48.09387982800007 ], [ -1.628654191999942, 48.093853846000059 ], [ -1.628640269999948, 48.093842961000064 ], [ -1.628594392999958, 48.093868495000038 ] ] ] } },
{ "type": "Feature", "properties": { "OBJECTID": 66, "OBJECTID_1": 67, "FID_TOUR_GALETTE_1ER": 68, "Salle": "Microfilm", "Etage": 1, "Typologie": "Service", "Hauteur": 1, "FID_BDTOPO_BATI_SI_JSONToFeature_ExportFeatures": 3, "ID": "BATIMENT0000000047197271", "NB_ETAGES": 1, "BATIMENT": "3 - La Galette", "HAUTEUR_1": 12, "Shape_Length": 0.00020734023676179426, "Shape_Area": 2.4874381180506349e-09 }, "geometry": { "type": "Polygon", "coordinates": [ [ [ -1.628564315999938, 48.093762207000054 ], [ -1.628603423999948, 48.093793076000054 ], [ -1.62865020199996, 48.093766566000056 ], [ -1.628610500999969, 48.093735511000034 ], [ -1.628564315999938, 48.093762207000054 ] ] ] } },
{ "type": "Feature", "properties": { "OBJECTID": 67, "OBJECTID_1": 68, "FID_TOUR_GALETTE_1ER": 69, "Salle": "Collecte sport", "Etage": 1, "Typologie": "Service", "Hauteur": 1, "FID_BDTOPO_BATI_SI_JSONToFeature_ExportFeatures": 3, "ID": "BATIMENT0000000047197271", "NB_ETAGES": 1, "BATIMENT": "3 - La Galette", "HAUTEUR_1": 12, "Shape_Length": 0.00024003653346123385, "Shape_Area": 3.2399153627570969e-09 }, "geometry": { "type": "Polygon", "coordinates": [ [ [ -1.62850324599998, 48.093796637000025 ], [ -1.628542405999951, 48.093827669000063 ], [ -1.628603423999948, 48.093793076000054 ], [ -1.628564315999938, 48.093762207000054 ], [ -1.62850324599998, 48.093796637000025 ] ] ] } },
{ "type": "Feature", "properties": { "OBJECTID": 68, "OBJECTID_1": 69, "FID_TOUR_GALETTE_1ER": 70, "Salle": "Salle némo", "Etage": 1, "Typologie": "Salles de réunion", "Hauteur": 1, "FID_BDTOPO_BATI_SI_JSONToFeature_ExportFeatures": 3, "ID": "BATIMENT0000000047197271", "NB_ETAGES": 1, "BATIMENT": "3 - La Galette", "HAUTEUR_1": 12, "Shape_Length": 0.00024000916941060437, "Shape_Area": 3.2380549412599533e-09 }, "geometry": { "type": "Polygon", "coordinates": [ [ [ -1.628510419999941, 48.09373978800005 ], [ -1.628549414999952, 48.093770587000051 ], [ -1.628610500999969, 48.093735511000034 ], [ -1.628571464999936, 48.093704936000051 ], [ -1.628510419999941, 48.09373978800005 ] ] ] } },
{ "type": "Feature", "properties": { "OBJECTID": 69, "OBJECTID_1": 70, "FID_TOUR_GALETTE_1ER": 71, "Salle": "Maxime Rezé", "Etage": 1, "Typologie": "Bureau", "Hauteur": 1, "FID_BDTOPO_BATI_SI_JSONToFeature_ExportFeatures": 3, "ID": "BATIMENT0000000047197271", "NB_ETAGES": 1, "BATIMENT": "3 - La Galette", "HAUTEUR_1": 12, "Shape_Length": 0.00020556717613894932, "Shape_Area": 2.440673349099316e-09 }, "geometry": { "type": "Polygon", "coordinates": [ [ [ -1.628464157999929, 48.093765768000026 ], [ -1.62850324599998, 48.093796637000025 ], [ -1.628549414999952, 48.093770587000051 ], [ -1.628510419999941, 48.09373978800005 ], [ -1.628464157999929, 48.093765768000026 ] ] ] } },
{ "type": "Feature", "properties": { "OBJECTID": 70, "OBJECTID_1": 71, "FID_TOUR_GALETTE_1ER": 72, "Salle": "Nathalie Despreles", "Etage": 1, "Typologie": "Bureau", "Hauteur": 1, "FID_BDTOPO_BATI_SI_JSONToFeature_ExportFeatures": 3, "ID": "BATIMENT0000000047197271", "NB_ETAGES": 1, "BATIMENT": "3 - La Galette", "HAUTEUR_1": 12, "Shape_Length": 0.00020619301295800963, "Shape_Area": 2.4529138395455599e-09 }, "geometry": { "type": "Polygon", "coordinates": [ [ [ -1.628424820999953, 48.093735096000046 ], [ -1.628464157999929, 48.093765768000026 ], [ -1.628510419999941, 48.09373978800005 ], [ -1.628471207999951, 48.093708842000069 ], [ -1.628455509999981, 48.093717728000058 ], [ -1.628424820999953, 48.093735096000046 ] ] ] } },
{ "type": "Feature", "properties": { "OBJECTID": 71, "OBJECTID_1": 72, "FID_TOUR_GALETTE_1ER": 73, "Salle": null, "Etage": 1, "Typologie": "Bureau", "Hauteur": 1, "FID_BDTOPO_BATI_SI_JSONToFeature_ExportFeatures": 3, "ID": "BATIMENT0000000047197271", "NB_ETAGES": 1, "BATIMENT": "3 - La Galette", "HAUTEUR_1": 12, "Shape_Length": 0.00024029486472451882, "Shape_Area": 3.2459358654918819e-09 }, "geometry": { "type": "Polygon", "coordinates": [ [ [ -1.628471207999951, 48.093708842000069 ], [ -1.628510419999941, 48.09373978800005 ], [ -1.628571464999936, 48.093704936000051 ], [ -1.628532418999953, 48.093674179000061 ], [ -1.628501837999977, 48.093691496000076 ], [ -1.628471207999951, 48.093708842000069 ] ] ] } },
{ "type": "Feature", "properties": { "OBJECTID": 72, "OBJECTID_1": 73, "FID_TOUR_GALETTE_1ER": 74, "Salle": "Espace repro", "Etage": 1, "Typologie": "Autre", "Hauteur": 1, "FID_BDTOPO_BATI_SI_JSONToFeature_ExportFeatures": 3, "ID": "BATIMENT0000000047197271", "NB_ETAGES": 1, "BATIMENT": "3 - La Galette", "HAUTEUR_1": 12, "Shape_Length": 0.00016997974643533721, "Shape_Area": 1.6259627380449936e-09 }, "geometry": { "type": "Polygon", "coordinates": [ [ [ -1.628462819999925, 48.093660696000029 ], [ -1.628501837999977, 48.093691496000076 ], [ -1.628532418999953, 48.093674179000061 ], [ -1.628493370999934, 48.093643132000068 ], [ -1.628462819999925, 48.093660696000029 ] ] ] } },
{ "type": "Feature", "properties": { "OBJECTID": 73, "OBJECTID_1": 74, "FID_TOUR_GALETTE_1ER": 75, "Salle": "Espace convivialité", "Etage": 1, "Typologie": "Pause", "Hauteur": 1, "FID_BDTOPO_BATI_SI_JSONToFeature_ExportFeatures": 3, "ID": "BATIMENT0000000047197271", "NB_ETAGES": 1, "BATIMENT": "3 - La Galette", "HAUTEUR_1": 12, "Shape_Length": 0.0002056491856837494, "Shape_Area": 2.4457503139884987e-09 }, "geometry": { "type": "Polygon", "coordinates": [ [ [ -1.628416619999939, 48.093687224000064 ], [ -1.628455509999981, 48.093717728000058 ], [ -1.628471207999951, 48.093708842000069 ], [ -1.628501837999977, 48.093691496000076 ], [ -1.628462819999925, 48.093660696000029 ], [ -1.628416619999939, 48.093687224000064 ] ] ] } },
{ "type": "Feature", "properties": { "OBJECTID": 74, "OBJECTID_1": 75, "FID_TOUR_GALETTE_1ER": 76, "Salle": "P. Joubin", "Etage": 1, "Typologie": "Bureau", "Hauteur": 1, "FID_BDTOPO_BATI_SI_JSONToFeature_ExportFeatures": 3, "ID": "BATIMENT0000000047197271", "NB_ETAGES": 1, "BATIMENT": "3 - La Galette", "HAUTEUR_1": 12, "Shape_Length": 0.00016955149245631871, "Shape_Area": 1.6069220402950701e-09 }, "geometry": { "type": "Polygon", "coordinates": [ [ [ -1.628416619999939, 48.093687224000064 ], [ -1.628385926999954, 48.09370343300003 ], [ -1.628424820999953, 48.093735096000046 ], [ -1.628455509999981, 48.093717728000058 ], [ -1.628416619999939, 48.093687224000064 ] ] ] } },
{ "type": "Feature", "properties": { "OBJECTID": 76, "OBJECTID_1": 77, "FID_TOUR_GALETTE_1ER": 77, "Salle": "Rédaction Ouest-France", "Etage": 1, "Typologie": "Service", "Hauteur": 1, "FID_BDTOPO_BATI_SI_JSONToFeature_ExportFeatures": 3, "ID": "BATIMENT0000000047197271", "NB_ETAGES": 1, "BATIMENT": "3 - La Galette", "HAUTEUR_1": 12, "Shape_Length": 0.0035845496530348539, "Shape_Area": 1.9502027608783777e-07 }, "geometry": { "type": "MultiPolygon", "coordinates": [ [ [ [ -1.62924864394924, 48.094132886030025 ], [ -1.629248643999972, 48.094132886000068 ], [ -1.629239573999939, 48.094125298000051 ], [ -1.629215096999928, 48.094103132000043 ], [ -1.629191890999948, 48.094081948000053 ], [ -1.629245523999941, 48.094051279000041 ], [ -1.629195400999947, 48.09400961800003 ], [ -1.629136051999978, 48.094043146000047 ], [ -1.629058608999969, 48.093981424000049 ], [ -1.629119036999953, 48.093946395000046 ], [ -1.629010063999942, 48.093863753000051 ], [ -1.628951227999949, 48.093896652000069 ], [ -1.628924810999933, 48.093875840000067 ], [ -1.628899059999981, 48.093855741000027 ], [ -1.628875380999943, 48.093836510000074 ], [ -1.628863075999959, 48.09382675300003 ], [ -1.628849635999927, 48.093816156000059 ], [ -1.62881639699998, 48.093834497000046 ], [ -1.628795664999927, 48.093846343000052 ], [ -1.628725303999943, 48.093885473000057 ], [ -1.62869475399998, 48.093903277000038 ], [ -1.628660851999939, 48.093920320000052 ], [ -1.62866005099994, 48.093920762000039 ], [ -1.628818488999968, 48.09404496500008 ], [ -1.628808272999947, 48.094050810000056 ], [ -1.628785964999963, 48.094063637000033 ], [ -1.628785917999949, 48.094063600000027 ], [ -1.628785853999943, 48.094063636000044 ], [ -1.628766596999981, 48.094048717000078 ], [ -1.628736613999934, 48.094064655000068 ], [ -1.62869337099994, 48.094030942000074 ], [ -1.628713697999956, 48.094019576000051 ], [ -1.628723892999972, 48.094014019000042 ], [ -1.628590631999941, 48.093907417000025 ], [ -1.628497312999968, 48.093958735000058 ], [ -1.628523898999958, 48.093979516000047 ], [ -1.628464889999975, 48.094013321000034 ], [ -1.628844385999969, 48.094314230000066 ], [ -1.628904471999931, 48.09428074300007 ], [ -1.628944892999925, 48.094312239000033 ], [ -1.62894489867484, 48.09431223564922 ], [ -1.628961883688342, 48.094325294799653 ], [ -1.629270623763561, 48.09415162850734 ], [ -1.62924864394924, 48.094132886030025 ] ], [ [ -1.628850369999952, 48.094029120000073 ], [ -1.628945483999928, 48.093975348000072 ], [ -1.628996823999955, 48.094016149000026 ], [ -1.628900898999973, 48.094068840000034 ], [ -1.628850369999952, 48.094029120000073 ] ], [ [ -1.629032761999952, 48.094172872000058 ], [ -1.62912760599994, 48.094119370000044 ], [ -1.629177594999931, 48.094160442000032 ], [ -1.629084101999979, 48.09421367300007 ], [ -1.629032761999952, 48.094172872000058 ] ], [ [ -1.62901506299994, 48.093944725000028 ], [ -1.629051266999966, 48.093923615000051 ], [ -1.629085887999963, 48.093951164000032 ], [ -1.62904989499998, 48.093972380000025 ], [ -1.62901506299994, 48.093944725000028 ] ] ], [ [ [ -1.628693492999957, 48.093902310000033 ], [ -1.62869475399998, 48.093903277000038 ], [ -1.628693515999942, 48.093902297000056 ], [ -1.628693492999957, 48.093902310000033 ] ] ] ] } },
{ "type": "Feature", "properties": { "OBJECTID": 106, "OBJECTID_1": 109, "FID_TOUR_GALETTE_1ER": 77, "Salle": "Rédaction Ouest-France", "Etage": 1, "Typologie": "Service", "Hauteur": 1, "FID_BDTOPO_BATI_SI_JSONToFeature_ExportFeatures": 3, "ID": "BATIMENT0000000047197271", "NB_ETAGES": 1, "BATIMENT": "3 - La Galette", "HAUTEUR_1": 12, "Shape_Length": 0.00017240932494582648, "Shape_Area": 1.7313077160985113e-09 }, "geometry": { "type": "Polygon", "coordinates": [ [ [ -1.62901506299994, 48.093944725000028 ], [ -1.62904989499998, 48.093972380000025 ], [ -1.629085887999963, 48.093951164000032 ], [ -1.629051266999966, 48.093923615000051 ], [ -1.62901506299994, 48.093944725000028 ] ] ] } },
{ "type": "Feature", "properties": { "OBJECTID": 123, "OBJECTID_1": 128, "FID_TOUR_GALETTE_1ER": null, "Salle": "Ascenseur", "Etage": 1, "Typologie": "Accès", "Hauteur": 1, "FID_BDTOPO_BATI_SI_JSONToFeature_ExportFeatures": null, "ID": null, "NB_ETAGES": null, "BATIMENT": null, "HAUTEUR_1": null, "Shape_Length": 9.545929732535571e-05, "Shape_Area": 5.3266861985754672e-10 }, "geometry": { "type": "Polygon", "coordinates": [ [ [ -1.629436738999971, 48.094127117000028 ], [ -1.629418795999925, 48.094112340000038 ], [ -1.629397579999932, 48.094124267000041 ], [ -1.62941626199995, 48.094139361000032 ], [ -1.629436738999971, 48.094127117000028 ] ] ] } }
]
}
