{
"type": "FeatureCollection",
"name": "CHEMINEMENT_5EMEE",
"features": [
{ "type": "Feature", "id": 0, "properties": { "FID": 0, "FID_TOUR_5": -1, "Shape_Leng": 0.0, "Shape_Area": 0.0, "Salle": " ", "Etage": 0, "Hauteur": 0, "Typologie": " " }, "geometry": { "type": "Polygon", "coordinates": [ [ [ -1.628952474322741, 48.094486964209835 ], [ -1.629048637364575, 48.094432704708581 ], [ -1.62932127024713, 48.094273253359468 ], [ -1.629573942123086, 48.094131712906105 ], [ -1.629633263483784, 48.094102338089527 ], [ -1.629520013333897, 48.094007636818141 ], [ -1.629357586429001, 48.094104164127117 ], [ -1.629317518981028, 48.0940922185221 ], [ -1.628871019674899, 48.09435585748583 ], [ -1.628902333337275, 48.094360034773914 ], [ -1.628835595247591, 48.094396912019285 ], [ -1.628952474322741, 48.094486964209835 ] ], [ [ -1.628841911961147, 48.094396059731345 ], [ -1.62887258704734, 48.0943786635873 ], [ -1.628914145610013, 48.094412036592495 ], [ -1.628928975427321, 48.094423576521052 ], [ -1.628898036774301, 48.094441112843739 ], [ -1.628841911961147, 48.094396059731345 ] ], [ [ -1.628938479952633, 48.094344349790425 ], [ -1.629149635950238, 48.094224645753911 ], [ -1.629178332340821, 48.094247696722455 ], [ -1.629172143229234, 48.094251203155608 ], [ -1.629163618369188, 48.094256031844239 ], [ -1.629211671824216, 48.094294609186939 ], [ -1.629225581640795, 48.094286678859717 ], [ -1.62923366232008, 48.094292107587236 ], [ -1.629255316563128, 48.094309526724196 ], [ -1.62904418547144, 48.094429224551796 ], [ -1.628938479952633, 48.094344349790425 ] ], [ [ -1.629328308433739, 48.094236313786816 ], [ -1.629387964075078, 48.094202504571626 ], [ -1.62941120227287, 48.094221170239024 ], [ -1.629351561375336, 48.094254978885509 ], [ -1.629328308433739, 48.094236313786816 ] ], [ [ -1.62927115367092, 48.094192760738828 ], [ -1.629297797412793, 48.09417765480481 ], [ -1.629316890719863, 48.094192981508989 ], [ -1.629290230018883, 48.094208078198477 ], [ -1.62927115367092, 48.094192760738828 ] ], [ [ -1.629254010953415, 48.094178995183562 ], [ -1.629275092028517, 48.094167066386085 ], [ -1.629290401996665, 48.094179356290212 ], [ -1.629269335746113, 48.094191300732646 ], [ -1.629254010953415, 48.094178995183562 ] ], [ [ -1.62929802877603, 48.094153864849851 ], [ -1.629330104428873, 48.094135686970013 ], [ -1.629385559576484, 48.094180205521091 ], [ -1.629352719981794, 48.094198817282965 ], [ -1.629335651763713, 48.094185549088976 ], [ -1.629336736290673, 48.094184934954569 ], [ -1.62929802877603, 48.094153864849851 ] ], [ [ -1.62938708685716, 48.094179515385456 ], [ -1.629322222173272, 48.094126809785308 ], [ -1.62934174403314, 48.094115744533006 ], [ -1.629393462136598, 48.094157232570566 ], [ -1.629399023367634, 48.09415408523455 ], [ -1.629412948482934, 48.094164851217627 ], [ -1.62938708685716, 48.094179515385456 ] ], [ [ -1.629342980809437, 48.094115040581187 ], [ -1.629388238666663, 48.094089398128283 ], [ -1.629416273643637, 48.09411191798133 ], [ -1.629393966413587, 48.094124563862358 ], [ -1.629394094017311, 48.094124668816249 ], [ -1.629397731210317, 48.094127588772189 ], [ -1.629374800927117, 48.094140587259261 ], [ -1.629342980809437, 48.094115040581187 ] ], [ [ -1.629466597528162, 48.094084587174464 ], [ -1.629454543331103, 48.094091596347283 ], [ -1.629461157004185, 48.094097220659222 ], [ -1.629425244254008, 48.094117537054252 ], [ -1.629390546163139, 48.094088076076787 ], [ -1.629437161996864, 48.09406165457515 ], [ -1.629519062760166, 48.09401486290065 ], [ -1.629549299072722, 48.094039425281352 ], [ -1.629466597528162, 48.094084587174464 ] ], [ [ -1.62947447077051, 48.094102406640708 ], [ -1.629502981320978, 48.094086248323912 ], [ -1.629523627988998, 48.094102825459771 ], [ -1.629495121694869, 48.094118986318115 ], [ -1.62947447077051, 48.094102406640708 ] ], [ [ -1.629504847120774, 48.094086074000032 ], [ -1.629533542479193, 48.094069829084326 ], [ -1.629554299325235, 48.09408649653021 ], [ -1.629525647582079, 48.094102747848289 ], [ -1.629504847120774, 48.094086074000032 ] ], [ [ -1.629537834503503, 48.094071561376026 ], [ -1.62955402686185, 48.094062286494776 ], [ -1.629561302673991, 48.094068142566492 ], [ -1.62957170903569, 48.09407703315857 ], [ -1.629555480336645, 48.094086185077195 ], [ -1.629537834503503, 48.094071561376026 ] ], [ [ -1.629504316648189, 48.094168384105366 ], [ -1.629470890363448, 48.09414233633705 ], [ -1.629476800109745, 48.094138974279666 ], [ -1.629482702926135, 48.094143042774249 ], [ -1.629524604023246, 48.094119524365375 ], [ -1.629541330279473, 48.09411004640922 ], [ -1.629577903735007, 48.094089316392164 ], [ -1.629598574558788, 48.094079386754693 ], [ -1.629624540109554, 48.094100232 ], [ -1.629504316648189, 48.094168384105366 ] ], [ [ -1.629450548997394, 48.094167022512124 ], [ -1.629479520679512, 48.09415059818474 ], [ -1.629502769692863, 48.094169264311198 ], [ -1.62947380439752, 48.094185684787206 ], [ -1.629450548997394, 48.094167022512124 ] ], [ [ -1.629420027500762, 48.094184325345871 ], [ -1.629449024443474, 48.09416789732937 ], [ -1.629472249395698, 48.094186565309066 ], [ -1.629443276271926, 48.094202988788652 ], [ -1.629420027500762, 48.094184325345871 ] ], [ [ -1.6293895096923, 48.094201624420052 ], [ -1.629418486933465, 48.094185201693776 ], [ -1.62944171953467, 48.094203864871204 ], [ -1.629412756093151, 48.094220291567332 ], [ -1.6293895096923, 48.094201624420052 ] ], [ [ -1.629398935621771, 48.094124948973636 ], [ -1.629417219191235, 48.094114585917204 ], [ -1.629435140332878, 48.094128973458638 ], [ -1.629416858102835, 48.094139336465098 ], [ -1.629398935621771, 48.094124948973636 ] ], [ [ -1.629425960294337, 48.094118000164343 ], [ -1.629447026165727, 48.094106052100138 ], [ -1.629466016475005, 48.09412138553585 ], [ -1.629445048565361, 48.094133345976587 ], [ -1.629425960294337, 48.094118000164343 ] ], [ [ -1.62922906062054, 48.094266383958967 ], [ -1.629276255620129, 48.094239321397446 ], [ -1.629318869318215, 48.094273509115524 ], [ -1.629271523222447, 48.094300352283099 ], [ -1.62922906062054, 48.094266383958967 ] ] ] } },
{ "type": "Feature", "id": 1, "properties": { "FID": 1, "FID_TOUR_5": 1, "Shape_Leng": 22.855889763499999, "Shape_Area": 27.518488430200001, "Salle": "Innovation R&D", "Etage": 5, "Hauteur": 1, "Typologie": "Secteur" }, "geometry": { "type": "Polygon", "coordinates": [ [ [ -1.629437161996864, 48.09406165457515 ], [ -1.629466597528162, 48.094084587174464 ], [ -1.629549299072722, 48.094039425281352 ], [ -1.629519062760166, 48.09401486290065 ], [ -1.629437161996864, 48.09406165457515 ] ] ] } },
{ "type": "Feature", "id": 2, "properties": { "FID": 2, "FID_TOUR_5": 2, "Shape_Leng": 17.560619740500002, "Shape_Area": 18.355725033, "Salle": "Communication Groupe", "Etage": 5, "Hauteur": 1, "Typologie": "Secteur" }, "geometry": { "type": "Polygon", "coordinates": [ [ [ -1.629437161996864, 48.09406165457515 ], [ -1.629390546163139, 48.094088076076787 ], [ -1.629425244254008, 48.094117537054252 ], [ -1.629461157004185, 48.094097220659222 ], [ -1.629454543331103, 48.094091596347283 ], [ -1.629466597528162, 48.094084587174464 ], [ -1.629437161996864, 48.09406165457515 ] ] ] } },
{ "type": "Feature", "id": 3, "properties": { "FID": 3, "FID_TOUR_5": 3, "Shape_Leng": 8.5390527489599997, "Shape_Area": 4.5502059961499999, "Salle": "Espace Repro", "Etage": 5, "Hauteur": 1, "Typologie": "Autre" }, "geometry": { "type": "Polygon", "coordinates": [ [ [ -1.629425960294337, 48.094118000164343 ], [ -1.629445048565361, 48.094133345976587 ], [ -1.629466016475005, 48.09412138553585 ], [ -1.629447026165727, 48.094106052100138 ], [ -1.629425960294337, 48.094118000164343 ] ] ] } },
{ "type": "Feature", "id": 4, "properties": { "FID": 4, "FID_TOUR_5": 4, "Shape_Leng": 7.7307538766999997, "Shape_Area": 3.7127740562899998, "Salle": "Ascenseur", "Etage": 5, "Hauteur": 1, "Typologie": "Se déplacer" }, "geometry": { "type": "Polygon", "coordinates": [ [ [ -1.629398935621771, 48.094124948973636 ], [ -1.629416858102835, 48.094139336465098 ], [ -1.629435140332878, 48.094128973458638 ], [ -1.629417219191235, 48.094114585917204 ], [ -1.629398935621771, 48.094124948973636 ] ] ] } },
{ "type": "Feature", "id": 5, "properties": { "FID": 5, "FID_TOUR_5": 5, "Shape_Leng": 16.218416379800001, "Shape_Area": 15.3594625942, "Salle": "Sanitaires femmes", "Etage": 5, "Hauteur": 1, "Typologie": "Toilettes" }, "geometry": { "type": "Polygon", "coordinates": [ [ [ -1.629342980809437, 48.094115040581187 ], [ -1.629374800927117, 48.094140587259261 ], [ -1.629397731210317, 48.094127588772189 ], [ -1.629394094017311, 48.094124668816249 ], [ -1.629393966413587, 48.094124563862358 ], [ -1.629416273643637, 48.09411191798133 ], [ -1.629388238666663, 48.094089398128283 ], [ -1.629342980809437, 48.094115040581187 ] ] ] } },
{ "type": "Feature", "id": 6, "properties": { "FID": 6, "FID_TOUR_5": 7, "Shape_Leng": 20.149099635599999, "Shape_Area": 15.512539754600001, "Salle": "Sanitaires hommes", "Etage": 5, "Hauteur": 1, "Typologie": "Toilettes" }, "geometry": { "type": "Polygon", "coordinates": [ [ [ -1.62938708685716, 48.094179515385456 ], [ -1.629412948482934, 48.094164851217627 ], [ -1.629399023367634, 48.09415408523455 ], [ -1.629393462136598, 48.094157232570566 ], [ -1.62934174403314, 48.094115744533006 ], [ -1.629322222173272, 48.094126809785308 ], [ -1.62938708685716, 48.094179515385456 ] ] ] } },
{ "type": "Feature", "id": 7, "properties": { "FID": 7, "FID_TOUR_5": 8, "Shape_Leng": 19.323206096, "Shape_Area": 20.328433769, "Salle": "Escaliers", "Etage": 5, "Hauteur": 1, "Typologie": "Se déplacer" }, "geometry": { "type": "Polygon", "coordinates": [ [ [ -1.62929802877603, 48.094153864849851 ], [ -1.629336736290673, 48.094184934954569 ], [ -1.629335651763713, 48.094185549088976 ], [ -1.629352719981794, 48.094198817282965 ], [ -1.629385559576484, 48.094180205521091 ], [ -1.629330104428873, 48.094135686970013 ], [ -1.62929802877603, 48.094153864849851 ] ] ] } },
{ "type": "Feature", "id": 8, "properties": { "FID": 8, "FID_TOUR_5": 9, "Shape_Leng": 7.6688018096099997, "Shape_Area": 3.6567283772299999, "Salle": "Ascenseur", "Etage": 5, "Hauteur": 1, "Typologie": "Se déplacer" }, "geometry": { "type": "Polygon", "coordinates": [ [ [ -1.629254010953415, 48.094178995183562 ], [ -1.629269335746113, 48.094191300732646 ], [ -1.629290401996665, 48.094179356290212 ], [ -1.629275092028517, 48.094167066386085 ], [ -1.629254010953415, 48.094178995183562 ] ] ] } },
{ "type": "Feature", "id": 9, "properties": { "FID": 9, "FID_TOUR_5": 10, "Shape_Leng": 9.6327210545700002, "Shape_Area": 5.7629025770600002, "Salle": "Ascenseur", "Etage": 5, "Hauteur": 1, "Typologie": "Se déplacer" }, "geometry": { "type": "Polygon", "coordinates": [ [ [ -1.62927115367092, 48.094192760738828 ], [ -1.629290230018883, 48.094208078198477 ], [ -1.629316890719863, 48.094192981508989 ], [ -1.629297797412793, 48.09417765480481 ], [ -1.62927115367092, 48.094192760738828 ] ] ] } },
{ "type": "Feature", "id": 10, "properties": { "FID": 10, "FID_TOUR_5": 12, "Shape_Leng": 19.052262355, "Shape_Area": 19.530593671399998, "Salle": "Escaliers extérieur (issue de Secours)", "Etage": 5, "Hauteur": 1, "Typologie": "Se déplacer" }, "geometry": { "type": "Polygon", "coordinates": [ [ [ -1.628841911961147, 48.094396059731345 ], [ -1.628898036774301, 48.094441112843739 ], [ -1.628928975427321, 48.094423576521052 ], [ -1.628914145610013, 48.094412036592495 ], [ -1.62887258704734, 48.0943786635873 ], [ -1.628841911961147, 48.094396059731345 ] ] ] } },
{ "type": "Feature", "id": 11, "properties": { "FID": 11, "FID_TOUR_5": 13, "Shape_Leng": 68.552645750899998, "Shape_Area": 244.904030326, "Salle": "Salle Panoramique", "Etage": 5, "Hauteur": 1, "Typologie": "Secteur" }, "geometry": { "type": "Polygon", "coordinates": [ [ [ -1.628938479952633, 48.094344349790425 ], [ -1.62904418547144, 48.094429224551796 ], [ -1.629255316563128, 48.094309526724196 ], [ -1.62923366232008, 48.094292107587236 ], [ -1.629225581640795, 48.094286678859717 ], [ -1.629211671824216, 48.094294609186939 ], [ -1.629163618369188, 48.094256031844239 ], [ -1.629172143229234, 48.094251203155608 ], [ -1.629178332340821, 48.094247696722455 ], [ -1.629149635950238, 48.094224645753911 ], [ -1.628938479952633, 48.094344349790425 ] ] ] } },
{ "type": "Feature", "id": 12, "properties": { "FID": 12, "FID_TOUR_5": 14, "Shape_Leng": 19.115840328800001, "Shape_Area": 22.812630510799998, "Salle": "Cuisine", "Etage": 5, "Hauteur": 1, "Typologie": "Secteur" }, "geometry": { "type": "Polygon", "coordinates": [ [ [ -1.62922906062054, 48.094266383958967 ], [ -1.629271523222447, 48.094300352283099 ], [ -1.629318869318215, 48.094273509115524 ], [ -1.629276255620129, 48.094239321397446 ], [ -1.62922906062054, 48.094266383958967 ] ] ] } },
{ "type": "Feature", "id": 13, "properties": { "FID": 13, "FID_TOUR_5": 15, "Shape_Leng": 17.0363857372, "Shape_Area": 15.7130246373, "Salle": "Sahara", "Etage": 5, "Hauteur": 1, "Typologie": "Réunion" }, "geometry": { "type": "Polygon", "coordinates": [ [ [ -1.629328308433739, 48.094236313786816 ], [ -1.629351561375336, 48.094254978885509 ], [ -1.62941120227287, 48.094221170239024 ], [ -1.629387964075078, 48.094202504571626 ], [ -1.629328308433739, 48.094236313786816 ] ] ] } },
{ "type": "Feature", "id": 14, "properties": { "FID": 14, "FID_TOUR_5": 16, "Shape_Leng": 11.053030405599999, "Shape_Area": 7.6315292101000001, "Salle": "Gobi", "Etage": 5, "Hauteur": 1, "Typologie": "Réunion" }, "geometry": { "type": "Polygon", "coordinates": [ [ [ -1.6293895096923, 48.094201624420052 ], [ -1.629412756093151, 48.094220291567332 ], [ -1.62944171953467, 48.094203864871204 ], [ -1.629418486933465, 48.094185201693776 ], [ -1.6293895096923, 48.094201624420052 ] ] ] } },
{ "type": "Feature", "id": 15, "properties": { "FID": 15, "FID_TOUR_5": 17, "Shape_Leng": 11.054693133400001, "Shape_Area": 7.6337726379599999, "Salle": "Danakil", "Etage": 5, "Hauteur": 1, "Typologie": "Réunion" }, "geometry": { "type": "Polygon", "coordinates": [ [ [ -1.629420027500762, 48.094184325345871 ], [ -1.629443276271926, 48.094202988788652 ], [ -1.629472249395698, 48.094186565309066 ], [ -1.629449024443474, 48.09416789732937 ], [ -1.629420027500762, 48.094184325345871 ] ] ] } },
{ "type": "Feature", "id": 16, "properties": { "FID": 16, "FID_TOUR_5": 19, "Shape_Leng": 11.053539515000001, "Shape_Area": 7.6322997162300004, "Salle": "Salle de réunion", "Etage": 5, "Hauteur": 1, "Typologie": "Réunion" }, "geometry": { "type": "Polygon", "coordinates": [ [ [ -1.629450548997394, 48.094167022512124 ], [ -1.62947380439752, 48.094185684787206 ], [ -1.629502769692863, 48.094169264311198 ], [ -1.629479520679512, 48.09415059818474 ], [ -1.629450548997394, 48.094167022512124 ] ] ] } },
{ "type": "Feature", "id": 17, "properties": { "FID": 17, "FID_TOUR_5": 20, "Shape_Leng": 30.927522009400001, "Shape_Area": 37.514093167200002, "Salle": "SI administratif et RH", "Etage": 5, "Hauteur": 1, "Typologie": "Secteur" }, "geometry": { "type": "Polygon", "coordinates": [ [ [ -1.629504316648189, 48.094168384105366 ], [ -1.629624540109554, 48.094100232 ], [ -1.629598574558788, 48.094079386754693 ], [ -1.629577903735007, 48.094089316392164 ], [ -1.629541330279473, 48.09411004640922 ], [ -1.629524604023246, 48.094119524365375 ], [ -1.629482702926135, 48.094143042774249 ], [ -1.629476800109745, 48.094138974279666 ], [ -1.629470890363448, 48.09414233633705 ], [ -1.629504316648189, 48.094168384105366 ] ] ] } },
{ "type": "Feature", "id": 18, "properties": { "FID": 18, "FID_TOUR_5": 21, "Shape_Leng": 7.35721958267, "Shape_Area": 3.33140832008, "Salle": "C.Pinel", "Etage": 5, "Hauteur": 1, "Typologie": "Bureau" }, "geometry": { "type": "Polygon", "coordinates": [ [ [ -1.629537834503503, 48.094071561376026 ], [ -1.629555480336645, 48.094086185077195 ], [ -1.62957170903569, 48.09407703315857 ], [ -1.629561302673991, 48.094068142566492 ], [ -1.62955402686185, 48.094062286494776 ], [ -1.629537834503503, 48.094071561376026 ] ] ] } },
{ "type": "Feature", "id": 19, "properties": { "FID": 19, "FID_TOUR_5": 22, "Shape_Leng": 10.4188402163, "Shape_Area": 6.7478188023600003, "Salle": "Atelier 5.3", "Etage": 5, "Hauteur": 1, "Typologie": "Atelier" }, "geometry": { "type": "Polygon", "coordinates": [ [ [ -1.629504847120774, 48.094086074000032 ], [ -1.629525647582079, 48.094102747848289 ], [ -1.629554299325235, 48.09408649653021 ], [ -1.629533542479193, 48.094069829084326 ], [ -1.629504847120774, 48.094086074000032 ] ] ] } },
{ "type": "Feature", "id": 20, "properties": { "FID": 20, "FID_TOUR_5": 24, "Shape_Leng": 10.3592298315, "Shape_Area": 6.6707070640200001, "Salle": "Atelier 5.2", "Etage": 5, "Hauteur": 1, "Typologie": "Atelier" }, "geometry": { "type": "Polygon", "coordinates": [ [ [ -1.62947447077051, 48.094102406640708 ], [ -1.629495121694869, 48.094118986318115 ], [ -1.629523627988998, 48.094102825459771 ], [ -1.629502981320978, 48.094086248323912 ], [ -1.62947447077051, 48.094102406640708 ] ] ] } }
]
}
