{"type":"FeatureCollection","features":[{"type":"Feature","id":1,"geometry":{"type":"Polygon","coordinates":[[[-1.6289524737114185,48.09448696516283],[-1.6290486365659733,48.094432705771929],[-1.6293212698648012,48.094273254206087],[-1.6295739416997264,48.0941317137301],[-1.6296332628478203,48.094102338680557],[-1.6295200122399442,48.094007638096215],[-1.629357586056793,48.094104165059278],[-1.6293175185001887,48.094092219197407],[-1.6288710198713707,48.094355857903224],[-1.62890233244723,48.094360036233759],[-1.6288355948081328,48.094396912806282],[-1.6289524737114185,48.09448696516283]],[[-1.6289547653137142,48.094344812085097],[-1.6291892022466914,48.094212158284392],[-1.6292805177919416,48.09428553662076],[-1.6290464285070079,48.094418193232158],[-1.6289547653137142,48.094344812085097]],[[-1.6292259271721294,48.094195237314786],[-1.6292753246312881,48.094166876288504],[-1.6292925183858333,48.094180581309864],[-1.6292981229748909,48.094177472150683],[-1.6293176271963377,48.094193370139863],[-1.6292624284170569,48.09422462911099],[-1.6292259271721294,48.094195237314786]],[[-1.6293197615934412,48.094191812560744],[-1.6292984194189331,48.094174886184547],[-1.6292928265079711,48.094177931744667],[-1.6292774545368061,48.094165709303546],[-1.629295981391244,48.094155297036544],[-1.6293342074015318,48.094186351433557],[-1.6293265708233065,48.094190097183692],[-1.6293261036993489,48.094189733588522],[-1.6293256374737222,48.094189993385072],[-1.629325131722223,48.094189525391307],[-1.6293238471313403,48.094190305380906],[-1.6293234967884056,48.094189941185775],[-1.6293197615934412,48.094191812560744]],[[-1.6293539721344033,48.094175969170401],[-1.6293366050050184,48.094185235448386],[-1.6292978247342214,48.094154465447083],[-1.6293305261054933,48.094135937678303],[-1.6293697806867911,48.094167435481275],[-1.6294061507776756,48.09414780133104],[-1.6294019430689046,48.094144389773675],[-1.6294127345304028,48.094138199050448],[-1.6294304537993833,48.094152519671688],[-1.6294059576398996,48.094166381894873],[-1.6293414280597678,48.094203065408891],[-1.6293264540423171,48.094190824973957],[-1.6293539721344033,48.094175969170401]],[[-1.6293531106500534,48.094150840892866],[-1.6293991672746733,48.094126374995014],[-1.6294122494401366,48.094137161063244],[-1.6293997646543432,48.094144331574398],[-1.6294042975532637,48.094147996328587],[-1.6293721207980967,48.09416544710691],[-1.6293531106500534,48.094150840892866]],[[-1.6293998895201396,48.094124249820723],[-1.6294423250358594,48.094100210505296],[-1.6294585531014583,48.094113224352633],[-1.629416063686846,48.094137263661977],[-1.6293998895201396,48.094124249820723]],[[-1.6294254986922603,48.094082951102699],[-1.629468447146023,48.094058932167727],[-1.6295526983398656,48.094126725990797],[-1.6294630123385501,48.094177318552738],[-1.6294168012036963,48.094140097426973],[-1.6294636887699645,48.094113526749069],[-1.6294254986922603,48.094082951102699]],[[-1.6293416768931306,48.094203946796881],[-1.6294314105051588,48.09415310766429],[-1.6294621292946032,48.094178000143764],[-1.6293728735862976,48.094228663454281],[-1.6293416768931306,48.094203946796881]]]},"properties":{"OBJECTID":1,"FID_Tour_Galette_Niveau_6":-1,"Salle":"Rooftop","Etage":6,"Typologie":"Repos","Hauteur":0,"FID_bati_ok":24,"ID":"BATIMENT0000000047197280","HAUTEUR_1":24,"Shape_Length":576.48354327317998,"Shape_Area":1241.8325404942079}},{"type":"Feature","id":2,"geometry":{"type":"Polygon","coordinates":[[[-1.6294254986922603,48.094082951102699],[-1.6294636887699645,48.094113526749069],[-1.6294168012036963,48.094140097426973],[-1.6294630123385501,48.094177318552738],[-1.6295526983398656,48.094126725990797],[-1.629468447146023,48.094058932167727],[-1.6294254986922603,48.094082951102699]]]},"properties":{"OBJECTID":2,"FID_Tour_Galette_Niveau_6":1,"Salle":"Salle horizon","Etage":6,"Typologie":"Réunion","Hauteur":1,"FID_bati_ok":24,"ID":"BATIMENT0000000047197280","HAUTEUR_1":24,"Shape_Length":55.52880954411949,"Shape_Area":146.69104282697273}},{"type":"Feature","id":3,"geometry":{"type":"Polygon","coordinates":[[[-1.6293531106500534,48.094150840892866],[-1.6293721207980967,48.09416544710691],[-1.6294042975532637,48.094147996328587],[-1.6293997646543432,48.094144331574398],[-1.6294122494401366,48.094137161063244],[-1.6293991672746733,48.094126374995014],[-1.6293531106500534,48.094150840892866]]]},"properties":{"OBJECTID":3,"FID_Tour_Galette_Niveau_6":2,"Salle":"Sanitaire","Etage":6,"Typologie":"Toilettes","Hauteur":1,"FID_bati_ok":24,"ID":"BATIMENT0000000047197280","HAUTEUR_1":24,"Shape_Length":19.329325038763891,"Shape_Area":19.224247829716816}},{"type":"Feature","id":4,"geometry":{"type":"Polygon","coordinates":[[[-1.6293416768931306,48.094203946796881],[-1.6293728735862976,48.094228663454281],[-1.6294621292946032,48.094178000143764],[-1.6294314105051588,48.09415310766429],[-1.6293416768931306,48.094203946796881]]]},"properties":{"OBJECTID":4,"FID_Tour_Galette_Niveau_6":3,"Salle":"Tisanerie","Etage":6,"Typologie":"Repos","Hauteur":1,"FID_bati_ok":24,"ID":"BATIMENT0000000047197280","HAUTEUR_1":24,"Shape_Length":36.902566528450222,"Shape_Area":70.336668969796818}},{"type":"Feature","id":5,"geometry":{"type":"Polygon","coordinates":[[[-1.6293697806867911,48.094167435481275],[-1.6293305261054933,48.094135937678303],[-1.6292978247342214,48.094154465447083],[-1.6293366050050184,48.094185235448386],[-1.6293539721344033,48.094175969170401],[-1.6293697806867911,48.094167435481275]]]},"properties":{"OBJECTID":5,"FID_Tour_Galette_Niveau_6":4,"Salle":"Escaliers","Etage":6,"Typologie":"Se déplacer","Hauteur":1,"FID_bati_ok":24,"ID":"BATIMENT0000000047197280","HAUTEUR_1":24,"Shape_Length":23.044681416668599,"Shape_Area":32.191630379849137}},{"type":"Feature","id":6,"geometry":{"type":"Polygon","coordinates":[[[-1.6293197615934412,48.094191812560744],[-1.6293234967884056,48.094189941185775],[-1.6293238471313403,48.094190305380906],[-1.629325131722223,48.094189525391307],[-1.6293256374737222,48.094189993385072],[-1.6293261036993489,48.094189733588522],[-1.6293265708233065,48.094190097183692],[-1.6293342074015318,48.094186351433557],[-1.629295981391244,48.094155297036544],[-1.6292774545368061,48.094165709303546],[-1.6292928265079711,48.094177931744667],[-1.6292984194189331,48.094174886184547],[-1.6293197615934412,48.094191812560744]]]},"properties":{"OBJECTID":6,"FID_Tour_Galette_Niveau_6":5,"Salle":null,"Etage":6,"Typologie":"Autre","Hauteur":1,"FID_bati_ok":24,"ID":"BATIMENT0000000047197280","HAUTEUR_1":24,"Shape_Length":18.631385310790979,"Shape_Area":14.314285897438932}},{"type":"Feature","id":7,"geometry":{"type":"Polygon","coordinates":[[[-1.6292259271721294,48.094195237314786],[-1.6292624284170569,48.09422462911099],[-1.6293176271963377,48.094193370139863],[-1.6292981229748909,48.094177472150683],[-1.6292925183858333,48.094180581309864],[-1.6292753246312881,48.094166876288504],[-1.6292259271721294,48.094195237314786]]]},"properties":{"OBJECTID":7,"FID_Tour_Galette_Niveau_6":6,"Salle":null,"Etage":6,"Typologie":"Autre","Hauteur":1,"FID_bati_ok":24,"ID":"BATIMENT0000000047197280","HAUTEUR_1":24,"Shape_Length":28.88872515484417,"Shape_Area":49.14237664868223}},{"type":"Feature","id":8,"geometry":{"type":"Polygon","coordinates":[[[-1.6293998895201396,48.094124249820723],[-1.629416063686846,48.094137263661977],[-1.6294585531014583,48.094113224352633],[-1.6294423250358594,48.094100210505296],[-1.6293998895201396,48.094124249820723]]]},"properties":{"OBJECTID":8,"FID_Tour_Galette_Niveau_6":7,"Salle":null,"Etage":6,"Typologie":"Autre","Hauteur":1,"FID_bati_ok":24,"ID":"BATIMENT0000000047197280","HAUTEUR_1":24,"Shape_Length":18.034665013281167,"Shape_Area":17.47854920063229}},{"type":"Feature","id":9,"geometry":{"type":"Polygon","coordinates":[[[-1.6293539721344033,48.094175969170401],[-1.6293264540423171,48.094190824973957],[-1.6293414280597678,48.094203065408891],[-1.6294059576398996,48.094166381894873],[-1.6294304537993833,48.094152519671688],[-1.6294127345304028,48.094138199050448],[-1.6294019430689046,48.094144389773675],[-1.6294061507776756,48.09414780133104],[-1.6293697806867911,48.094167435481275],[-1.62936985524695,48.094167495480484],[-1.6293539721344033,48.094175969170401]]]},"properties":{"OBJECTID":9,"FID_Tour_Galette_Niveau_6":8,"Salle":null,"Etage":6,"Typologie":"Autre","Hauteur":1,"FID_bati_ok":24,"ID":"BATIMENT0000000047197280","HAUTEUR_1":24,"Shape_Length":32.478804032288345,"Shape_Area":33.302292668938968}},{"type":"Feature","id":10,"geometry":{"type":"Polygon","coordinates":[[[-1.6289547653137142,48.094344812085097],[-1.6290464285070079,48.094418193232158],[-1.6292805177919416,48.09428553662076],[-1.6291892022466914,48.094212158284392],[-1.6289547653137142,48.094344812085097]]]},"properties":{"OBJECTID":10,"FID_Tour_Galette_Niveau_6":9,"Salle":null,"Etage":6,"Typologie":"Autre","Hauteur":1,"FID_bati_ok":24,"ID":"BATIMENT0000000047197280","HAUTEUR_1":24,"Shape_Length":100.20919155279182,"Shape_Area":544.11428064805}},{"type":"Feature","id":12,"geometry":{"type":"Polygon","coordinates":[[[-1.6293697806867911,48.094167435481275],[-1.6293539721344033,48.094175969170401],[-1.62936985524695,48.094167495480484],[-1.6293697806867911,48.094167435481275]]]},"properties":{"OBJECTID":12,"FID_Tour_Galette_Niveau_6":8,"Salle":null,"Etage":6,"Typologie":"Autre","Hauteur":1,"FID_bati_ok":24,"ID":"BATIMENT0000000047197280","HAUTEUR_1":24,"Shape_Length":4.5386122423653354,"Shape_Area":0.014701542434172626}}]}