{"type":"FeatureCollection","features":[{"type":"Feature","id":1,"geometry":{"type":"Polygon","coordinates":[[[-1.629520012999933,48.094007642000065],[-1.62944269999997,48.094053602000031],[-1.6295016409999334,48.094101397000031],[-1.6294462289999387,48.094133305000071],[-1.6294957739999631,48.094175422000035],[-1.6294985609999344,48.094173940000076],[-1.6296332369999504,48.094102348000035],[-1.629520012999933,48.094007642000065]]]},"properties":{"OBJECTID":1,"OBJECTID_1":1,"OBJECTID_12":1,"FID_TOUR_GALETTE_SOUSSOL":1,"Salle":"Archives","Etage":-1,"Typologie":"Secteur","Hauteur":1,"Shape_Length":0.00059808543120945089,"Shape_Area":1.621046874877492e-08}},{"type":"Feature","id":2,"geometry":{"type":"Polygon","coordinates":[[[-1.6293748959999448,48.094166723000058],[-1.629418161999979,48.094201953000038],[-1.6294622759999697,48.094176435000065],[-1.6294196649999435,48.094141765000074],[-1.6293748959999448,48.094166723000058]]]},"properties":{"OBJECTID":2,"OBJECTID_1":2,"OBJECTID_12":2,"FID_TOUR_GALETTE_SOUSSOL":2,"Salle":"Archives","Etage":-1,"Typologie":"Secteur","Hauteur":1,"Shape_Length":0.00021294755199171534,"Shape_Area":2.6369122869915509e-09}},{"type":"Feature","id":3,"geometry":{"type":"Polygon","coordinates":[[[-1.6291461279999453,48.094303438000054],[-1.629197971999929,48.094344856000077],[-1.6292895479999743,48.094291702000078],[-1.6291813009999601,48.09420569100007],[-1.6290876869999806,48.094257934000041],[-1.6291059299999802,48.094273470000076],[-1.629092453999931,48.094281343000034],[-1.629130962999966,48.094311787000038],[-1.6291461279999453,48.094303438000054]]]},"properties":{"OBJECTID":3,"OBJECTID_1":3,"OBJECTID_12":3,"FID_TOUR_GALETTE_SOUSSOL":3,"Salle":"Courrier","Etage":-1,"Typologie":"Secteur","Hauteur":1,"Shape_Length":0.00052367460046350261,"Shape_Area":1.45244861013392e-08}},{"type":"Feature","id":4,"geometry":{"type":"Polygon","coordinates":[[[-1.629130962999966,48.094311787000038],[-1.62908274199998,48.094338348000065],[-1.6291380089999734,48.094380418000071],[-1.6291983239999581,48.094345143000055],[-1.629197971999929,48.094344856000077],[-1.6291461279999453,48.094303438000054],[-1.6291312249999805,48.094311991000041],[-1.629130962999966,48.094311787000038]]]},"properties":{"OBJECTID":4,"OBJECTID_1":4,"OBJECTID_12":4,"FID_TOUR_GALETTE_SOUSSOL":4,"Salle":"Service social","Etage":-1,"Typologie":"Secteur","Hauteur":1,"Shape_Length":0.00027870870901977043,"Shape_Area":4.4739451966203211e-09}},{"type":"Feature","id":5,"geometry":{"type":"Polygon","coordinates":[[[-1.6288971679999804,48.094444298000042],[-1.6289524739999592,48.09448696100003],[-1.6291380089999734,48.094380418000071],[-1.62908274199998,48.094338348000065],[-1.629130962999966,48.094311787000038],[-1.629092453999931,48.094281343000034],[-1.6291059299999802,48.094273470000076],[-1.6290876869999806,48.094257934000041],[-1.629081719999931,48.094254100000057],[-1.6290541169999528,48.094269611000072],[-1.6290591829999244,48.094274572000074],[-1.6288725889999682,48.094376499000077],[-1.6289336509999544,48.094424774000061],[-1.6288971679999804,48.094444298000042]]]},"properties":{"OBJECTID":5,"OBJECTID_1":5,"OBJECTID_12":5,"FID_TOUR_GALETTE_SOUSSOL":5,"Salle":"Santé au travail","Etage":-1,"Typologie":"Secteur","Hauteur":1,"Shape_Length":0.0008746497288785244,"Shape_Area":2.9990735708105249e-08}},{"type":"Feature","id":6,"geometry":{"type":"Polygon","coordinates":[[[-1.6288725889999682,48.094376499000077],[-1.6288356379999414,48.094396910000057],[-1.6288971339999421,48.094444318000058],[-1.6288971679999804,48.094444298000042],[-1.6289336509999544,48.094424774000061],[-1.6288725889999682,48.094376499000077]]]},"properties":{"OBJECTID":6,"OBJECTID_1":6,"OBJECTID_12":6,"FID_TOUR_GALETTE_SOUSSOL":6,"Salle":"Escaliers","Etage":-1,"Typologie":"Se déplacer","Hauteur":1,"Shape_Length":0.00023911997635667887,"Shape_Area":2.9815779613847094e-09}},{"type":"Feature","id":7,"geometry":{"type":"Polygon","coordinates":[[[-1.6292952229999287,48.094210420000081],[-1.62932344099994,48.094193813000061],[-1.6293016209999678,48.094176655000069],[-1.6292957439999327,48.094180302000041],[-1.6292781129999412,48.09416598100006],[-1.6292553479999583,48.094179086000054],[-1.6292952229999287,48.094210420000081]]]},"properties":{"OBJECTID":7,"OBJECTID_1":7,"OBJECTID_12":7,"FID_TOUR_GALETTE_SOUSSOL":7,"Salle":"Ascenseurs","Etage":-1,"Typologie":"Se déplacer","Hauteur":1,"Shape_Length":0.00016711205857778403,"Shape_Area":1.3979923340948086e-09}},{"type":"Feature","id":8,"geometry":{"type":"Polygon","coordinates":[[[-1.6292666009999266,48.094122284000036],[-1.6292934009999271,48.094143478000035],[-1.629336164999927,48.094119327000044],[-1.6293089979999422,48.094097250000061],[-1.6292265579999707,48.094030260000068],[-1.6291643899999713,48.094065219000072],[-1.6292297539999367,48.094115929000054],[-1.6292474859999402,48.09410716800005],[-1.6292666009999266,48.094122284000036]]]},"properties":{"OBJECTID":8,"OBJECTID_1":8,"OBJECTID_12":8,"FID_TOUR_GALETTE_SOUSSOL":8,"Salle":"Courrier","Etage":-1,"Typologie":"Secteur","Hauteur":1,"Shape_Length":0.00042271174860716274,"Shape_Area":8.1060466191807483e-09}},{"type":"Feature","id":9,"geometry":{"type":"Polygon","coordinates":[[[-1.6289535849999766,48.094236031000037],[-1.628904744999943,48.094263595000029],[-1.6289446329999464,48.09429429100004],[-1.6289931169999363,48.094266756000081],[-1.6289535849999766,48.094236031000037]]]},"properties":{"OBJECTID":9,"OBJECTID_1":9,"OBJECTID_12":9,"FID_TOUR_GALETTE_SOUSSOL":9,"Salle":"Ariane","Etage":-1,"Typologie":"Réunion","Hauteur":1,"Shape_Length":0.00021223851709567841,"Shape_Area":2.588424996217569e-09}},{"type":"Feature","id":10,"geometry":{"type":"Polygon","coordinates":[[[-1.6289931169999363,48.094266756000081],[-1.629056736999928,48.094231296000032],[-1.6290307409999514,48.094210522000026],[-1.6289669799999729,48.094246420000047],[-1.6289931169999363,48.094266756000081]]]},"properties":{"OBJECTID":10,"OBJECTID_1":10,"OBJECTID_12":10,"FID_TOUR_GALETTE_SOUSSOL":10,"Salle":"Archives ventes","Etage":-1,"Typologie":"Autre","Hauteur":1,"Shape_Length":0.00021240006650846032,"Shape_Area":2.2391848818388096e-09}},{"type":"Feature","id":11,"geometry":{"type":"Polygon","coordinates":[[[-1.6288996189999807,48.094018652000045],[-1.6288943749999589,48.094021564000059],[-1.6289345909999611,48.094053271000064],[-1.6289010569999505,48.094072163000078],[-1.6289532629999712,48.094113234000076],[-1.6290523849999659,48.094057787000054],[-1.628959641999927,48.093985389000068],[-1.6288996189999807,48.094018652000045]]]},"properties":{"OBJECTID":11,"OBJECTID_1":11,"OBJECTID_12":11,"FID_TOUR_GALETTE_SOUSSOL":11,"Salle":"Photothèque","Etage":-1,"Typologie":"Secteur","Hauteur":1,"Shape_Length":0.00046197954217047426,"Shape_Area":1.0488161267482085e-08}},{"type":"Feature","id":12,"geometry":{"type":"Polygon","coordinates":[[[-1.6291128769999546,48.094023846000027],[-1.6291643899999713,48.094065219000072],[-1.6292265579999707,48.094030260000068],[-1.6291747569999302,48.093988723000052],[-1.6291128769999546,48.094023846000027]]]},"properties":{"OBJECTID":12,"OBJECTID_1":12,"OBJECTID_12":12,"FID_TOUR_GALETTE_SOUSSOL":12,"Salle":"CSSCT","Etage":-1,"Typologie":"Réunion","Hauteur":1,"Shape_Length":0.00027494453348520106,"Shape_Area":4.3813178588159752e-09}},{"type":"Feature","id":13,"geometry":{"type":"Polygon","coordinates":[[[-1.6290227189999769,48.093952225000066],[-1.6290872089999766,48.09400314700008],[-1.6291540009999608,48.093966608000073],[-1.6290873649999753,48.093914320000067],[-1.6290227189999769,48.093952225000066]]]},"properties":{"OBJECTID":13,"OBJECTID_1":13,"OBJECTID_12":13,"FID_TOUR_GALETTE_SOUSSOL":13,"Salle":"SNJ","Etage":-1,"Typologie":"Réunion","Hauteur":1,"Shape_Length":0.00031794490381058189,"Shape_Area":5.8318149811447673e-09}},{"type":"Feature","id":14,"geometry":{"type":"Polygon","coordinates":[[[-1.6288996189999807,48.094018652000045],[-1.6289752229999408,48.093976600000076],[-1.6289121379999756,48.093925869000032],[-1.6288348279999809,48.093967070000076],[-1.6288996189999807,48.094018652000045]]]},"properties":{"OBJECTID":14,"OBJECTID_1":14,"OBJECTID_12":14,"FID_TOUR_GALETTE_SOUSSOL":14,"Salle":"Annexe photothèque","Etage":-1,"Typologie":"Secteur","Hauteur":1,"Shape_Length":0.0003378847665085624,"Shape_Area":6.5727876765747088e-09}},{"type":"Feature","id":15,"geometry":{"type":"Polygon","coordinates":[[[-1.6290998929999319,48.094013389000054],[-1.629087740999978,48.094020292000039],[-1.6290088889999765,48.093957624000041],[-1.6289752429999567,48.093976808000036],[-1.6289596279999614,48.093985326000052],[-1.6291053519999537,48.094098560000077],[-1.6291643899999713,48.094065219000072],[-1.6291128469999308,48.094023910000033],[-1.6291106839999543,48.094022119000044],[-1.6290998929999319,48.094013389000054]]]},"properties":{"OBJECTID":15,"OBJECTID_1":15,"OBJECTID_12":15,"FID_TOUR_GALETTE_SOUSSOL":16,"Salle":"Archives DRH","Etage":-1,"Typologie":"Secteur","Hauteur":1,"Shape_Length":0.00050630659435631014,"Shape_Area":1.047306952463206e-08}},{"type":"Feature","id":16,"geometry":{"type":"Polygon","coordinates":[[[-1.6291106839999543,48.094022119000044],[-1.6291128389999585,48.094023863000075],[-1.6291128769999546,48.094023846000027],[-1.6291745159999778,48.093988726000077],[-1.6291540009999608,48.093966608000073],[-1.629087305999974,48.094003207000071],[-1.6290998929999319,48.094013389000054],[-1.6291000379999332,48.094013307000068],[-1.6291106839999543,48.094022119000044]]]},"properties":{"OBJECTID":16,"OBJECTID_1":16,"OBJECTID_12":16,"FID_TOUR_GALETTE_SOUSSOL":17,"Salle":"Stock promo","Etage":-1,"Typologie":"Secteur","Hauteur":1,"Shape_Length":0.00021017651631578284,"Shape_Area":2.1976255952564151e-09}},{"type":"Feature","id":17,"geometry":{"type":"Polygon","coordinates":[[[-1.6286978389999263,48.094116942000028],[-1.6286707409999508,48.094095432000074],[-1.6285950369999682,48.094136710000043],[-1.6288558489999332,48.094343656000035],[-1.6289446329999464,48.09429429100004],[-1.628904744999943,48.094263595000029],[-1.6289535849999766,48.094236031000037],[-1.628900668999961,48.094195513000045],[-1.6288536269999554,48.094222066000043],[-1.6288010379999491,48.094181141000035],[-1.6288494289999562,48.094153558000073],[-1.6288395969999669,48.094145544000071],[-1.6287976229999686,48.094112507000034],[-1.6287490569999363,48.094139832000053],[-1.6287228639999398,48.094119184000078],[-1.6287722889999259,48.094091197000068],[-1.628801555999928,48.094074618000036],[-1.6287376669999389,48.094023471000071],[-1.6287076359999446,48.094039861000056],[-1.6287601429999654,48.094081567000046],[-1.6286978389999263,48.094116942000028]]]},"properties":{"OBJECTID":17,"OBJECTID_1":17,"OBJECTID_12":17,"FID_TOUR_GALETTE_SOUSSOL":18,"Salle":null,"Etage":-1,"Typologie":"Secteur","Hauteur":1,"Shape_Length":0.0014051328482903057,"Shape_Area":4.0767895862501146e-08}},{"type":"Feature","id":18,"geometry":{"type":"Polygon","coordinates":[[[-1.6288272559999655,48.094201496000039],[-1.6288536269999554,48.094222066000043],[-1.628900668999961,48.094195513000045],[-1.6288747899999407,48.094174662000057],[-1.6288272559999655,48.094201496000039]]]},"properties":{"OBJECTID":18,"OBJECTID_1":18,"OBJECTID_12":18,"FID_TOUR_GALETTE_SOUSSOL":19,"Salle":"E. Delacroix","Etage":-1,"Typologie":"Bureau","Hauteur":1,"Shape_Length":0.00017528244759208286,"Shape_Area":1.6767258109796391e-09}},{"type":"Feature","id":19,"geometry":{"type":"Polygon","coordinates":[[[-1.6288010379999491,48.094181141000035],[-1.6288272299999562,48.094201505000058],[-1.6288272559999655,48.094201496000039],[-1.6288747899999407,48.094174662000057],[-1.6288596629999574,48.094161901000064],[-1.6288494289999562,48.094153558000073],[-1.6288010379999491,48.094181141000035]]]},"properties":{"OBJECTID":19,"OBJECTID_1":19,"OBJECTID_12":19,"FID_TOUR_GALETTE_SOUSSOL":20,"Salle":"Recettage","Etage":-1,"Typologie":"Secteur","Hauteur":1,"Shape_Length":0.00017648434457906236,"Shape_Area":1.6985106062714722e-09}},{"type":"Feature","id":20,"geometry":{"type":"Polygon","coordinates":[[[-1.6287228639999398,48.094119184000078],[-1.6287490569999363,48.094139832000053],[-1.6287976229999686,48.094112507000034],[-1.6287723569999457,48.094091264000042],[-1.6287228639999398,48.094119184000078]]]},"properties":{"OBJECTID":20,"OBJECTID_1":20,"OBJECTID_12":20,"FID_TOUR_GALETTE_SOUSSOL":21,"Salle":"M. Lebeau","Etage":-1,"Typologie":"Bureau","Hauteur":1,"Shape_Length":0.00017891284135742292,"Shape_Area":1.7376605065628867e-09}},{"type":"Feature","id":21,"geometry":{"type":"Polygon","coordinates":[[[-1.6287723569999457,48.094091264000042],[-1.6287976479999315,48.094112498000072],[-1.6288280349999695,48.094095577000076],[-1.628801555999928,48.094074618000036],[-1.6287722889999259,48.094091197000068],[-1.6287723569999457,48.094091264000042]]]},"properties":{"OBJECTID":21,"OBJECTID_1":21,"OBJECTID_12":21,"FID_TOUR_GALETTE_SOUSSOL":22,"Salle":"Apollon","Etage":-1,"Typologie":"Réunion","Hauteur":1,"Shape_Length":0.00013530570140678845,"Shape_Area":1.0645130537968341e-09}},{"type":"Feature","id":22,"geometry":{"type":"Polygon","coordinates":[[[-1.6287976479999315,48.094112498000072],[-1.6288369489999468,48.094143393000081],[-1.6289007939999465,48.094107911000037],[-1.6288732509999591,48.094085102000065],[-1.6288483099999667,48.094066378000036],[-1.6288148639999349,48.094085035000035],[-1.6288281259999735,48.094095593000077],[-1.6287976479999315,48.094112498000072]]]},"properties":{"OBJECTID":22,"OBJECTID_1":22,"OBJECTID_12":22,"FID_TOUR_GALETTE_SOUSSOL":23,"Salle":"Sofiouest","Etage":-1,"Typologie":"Secteur","Hauteur":1,"Shape_Length":0.00028008289771356437,"Shape_Area":3.9980940878239244e-09}},{"type":"Feature","id":23,"geometry":{"type":"Polygon","coordinates":[[[-1.6288596629999574,48.094161901000064],[-1.6288622289999353,48.094163992000063],[-1.6289269669999271,48.094127897000078],[-1.6289007939999465,48.094107911000037],[-1.6288369819999389,48.094143412000051],[-1.6288395969999669,48.094145544000071],[-1.6288496319999695,48.094153440000071],[-1.6288596629999574,48.094161901000064]]]},"properties":{"OBJECTID":23,"OBJECTID_1":23,"OBJECTID_12":23,"FID_TOUR_GALETTE_SOUSSOL":24,"Salle":"Relations publiques","Etage":-1,"Typologie":"Secteur","Hauteur":1,"Shape_Length":0.00021265027697777204,"Shape_Area":2.2212177064921647e-09}},{"type":"Feature","id":24,"geometry":{"type":"Polygon","coordinates":[[[-1.6289955989999498,48.09393054700007],[-1.6290227189999769,48.093952225000066],[-1.6290882119999424,48.093913742000041],[-1.6290620879999551,48.09389333300004],[-1.6289955989999498,48.09393054700007]]]},"properties":{"OBJECTID":24,"OBJECTID_1":24,"OBJECTID_12":24,"FID_TOUR_GALETTE_SOUSSOL":25,"Salle":"UASOF","Etage":-1,"Typologie":"Association/Syndicat","Hauteur":1,"Shape_Length":0.00022002759426697431,"Shape_Area":2.3962843761198537e-09}},{"type":"Feature","id":25,"geometry":{"type":"Polygon","coordinates":[[[-1.6290620879999551,48.09389333300004],[-1.6290234859999373,48.093863400000032],[-1.6289571029999479,48.093900094000048],[-1.6289955989999498,48.09393054700007],[-1.6290620879999551,48.09389333300004]]]},"properties":{"OBJECTID":25,"OBJECTID_1":25,"OBJECTID_12":25,"FID_TOUR_GALETTE_SOUSSOL":26,"Salle":"CTA Galette SS Nord","Etage":-1,"Typologie":"Association/Syndicat","Hauteur":1,"Shape_Length":0.00024997708706427834,"Shape_Area":3.4304418961788034e-09}},{"type":"Feature","id":26,"geometry":{"type":"Polygon","coordinates":[[[-1.6287085689999685,48.09408288700007],[-1.6287289039999564,48.094099259000075],[-1.6287601429999654,48.094081567000046],[-1.6287076359999446,48.094039861000056],[-1.6286773139999582,48.094057713000041],[-1.6287085689999685,48.09408288700007]]]},"properties":{"OBJECTID":26,"OBJECTID_1":26,"OBJECTID_12":26,"FID_TOUR_GALETTE_SOUSSOL":27,"Salle":"Atlantis","Etage":-1,"Typologie":"Réunion","Hauteur":1,"Shape_Length":0.00020438186424109539,"Shape_Area":2.206378250791744e-09}},{"type":"Feature","id":27,"geometry":{"type":"Polygon","coordinates":[[[-1.6286773139999582,48.094057713000041],[-1.6286768279999251,48.094057322000026],[-1.6286454779999531,48.094074563000049],[-1.6286978389999263,48.094116942000028],[-1.6287289039999564,48.094099259000075],[-1.6287085689999685,48.09408288700007],[-1.6286772839999344,48.094057731000078],[-1.6286773139999582,48.094057713000041]]]},"properties":{"OBJECTID":27,"OBJECTID_1":27,"OBJECTID_12":27,"FID_TOUR_GALETTE_SOUSSOL":28,"Salle":"F. Simonnet - J. Lossec - P. Trehorel ","Etage":-1,"Typologie":"Bureau","Hauteur":1,"Shape_Length":0.00020579526883435399,"Shape_Area":2.2267329443444147e-09}},{"type":"Feature","id":28,"geometry":{"type":"Polygon","coordinates":[[[-1.6285697739999705,48.09411728300006],[-1.6285941229999708,48.094137179000029],[-1.6286708639999574,48.094095241000048],[-1.6286437899999555,48.094073231000039],[-1.6285697739999705,48.09411728300006]]]},"properties":{"OBJECTID":28,"OBJECTID_1":28,"OBJECTID_12":28,"FID_TOUR_GALETTE_SOUSSOL":29,"Salle":"O. Pain","Etage":-1,"Typologie":"Bureau","Hauteur":1,"Shape_Length":0.00023992186889615797,"Shape_Area":2.6848716519712514e-09}},{"type":"Feature","id":30,"geometry":{"type":"Polygon","coordinates":[[[-1.6283864959999619,48.093972058000077],[-1.6285130229999254,48.094073006000031],[-1.6285902579999743,48.094031056000063],[-1.6284604019999733,48.093928001000052],[-1.6283864959999619,48.093972058000077]]]},"properties":{"OBJECTID":30,"OBJECTID_1":30,"OBJECTID_12":30,"FID_TOUR_GALETTE_SOUSSOL":31,"Salle":"Info locale","Etage":-1,"Typologie":"Secteur","Hauteur":1,"Shape_Length":0.00050157617236936867,"Shape_Area":1.3220987526536833e-08}},{"type":"Feature","id":31,"geometry":{"type":"Polygon","coordinates":[[[-1.6283040419999679,48.093804232000082],[-1.628228867999951,48.093846672000041],[-1.6283864489999473,48.093972035000036],[-1.6284603609999522,48.093927975000042],[-1.6283040419999679,48.093804232000082]]]},"properties":{"OBJECTID":31,"OBJECTID_1":31,"OBJECTID_12":31,"FID_TOUR_GALETTE_SOUSSOL":33,"Salle":"SIB","Etage":-1,"Typologie":"Secteur","Hauteur":1,"Shape_Length":0.0005731080467519232,"Shape_Area":1.6072641774523286e-08}},{"type":"Feature","id":32,"geometry":{"type":"Polygon","coordinates":[[[-1.6289021949999665,48.093856702000039],[-1.6289283479999312,48.093877617000032],[-1.6289931159999469,48.093840208000074],[-1.6289669489999596,48.093819585000062],[-1.6289021949999665,48.093856702000039]]]},"properties":{"OBJECTID":32,"OBJECTID_1":32,"OBJECTID_12":32,"FID_TOUR_GALETTE_SOUSSOL":34,"Salle":"SGC","Etage":-1,"Typologie":"Association/Syndicat","Hauteur":1,"Shape_Length":0.0002162372286118516,"Shape_Area":2.3198212875059348e-09}},{"type":"Feature","id":33,"geometry":{"type":"Polygon","coordinates":[[[-1.6289021949999665,48.093856702000039],[-1.6289671449999332,48.093819435000057],[-1.6288624999999683,48.093738097000028],[-1.6287976939999567,48.093774411000027],[-1.6289021949999665,48.093856702000039]]]},"properties":{"OBJECTID":33,"OBJECTID_1":33,"OBJECTID_12":33,"FID_TOUR_GALETTE_SOUSSOL":35,"Salle":"CGT","Etage":-1,"Typologie":"Association/Syndicat","Hauteur":1,"Shape_Length":0.00041471964435400681,"Shape_Area":9.1552540865204697e-09}},{"type":"Feature","id":34,"geometry":{"type":"Polygon","coordinates":[[[-1.6287187529999301,48.093712476000064],[-1.628745705999961,48.093733243000031],[-1.6288095879999673,48.093697170000041],[-1.6287835689999497,48.093676822000077],[-1.6287187529999301,48.093712476000064]]]},"properties":{"OBJECTID":34,"OBJECTID_1":34,"OBJECTID_12":34,"FID_TOUR_GALETTE_SOUSSOL":36,"Salle":"Mutuelle","Etage":-1,"Typologie":"Secteur","Hauteur":1,"Shape_Length":0.00021439462784922651,"Shape_Area":2.2727352271067329e-09}},{"type":"Feature","id":35,"geometry":{"type":"Polygon","coordinates":[[[-1.6287835689999497,48.093676822000077],[-1.6287838539999484,48.093676663000053],[-1.6287043839999455,48.093614851000041],[-1.6286403959999802,48.093650684000067],[-1.6287187529999301,48.093712476000064],[-1.6287835689999497,48.093676822000077]]]},"properties":{"OBJECTID":35,"OBJECTID_1":35,"OBJECTID_12":35,"FID_TOUR_GALETTE_SOUSSOL":37,"Salle":"CFDT","Etage":-1,"Typologie":"Association/Syndicat","Hauteur":1,"Shape_Length":0.00034810838486717873,"Shape_Area":6.8159696777345618e-09}},{"type":"Feature","id":36,"geometry":{"type":"Polygon","coordinates":[[[-1.6285890689999292,48.093609695000055],[-1.6286280889999603,48.093640832000062],[-1.6286914809999757,48.093604777000053],[-1.6286516779999261,48.093574500000045],[-1.6285890689999292,48.093609695000055]]]},"properties":{"OBJECTID":36,"OBJECTID_1":36,"OBJECTID_12":36,"FID_TOUR_GALETTE_SOUSSOL":38,"Salle":"Maquette SIT","Etage":-1,"Typologie":"Secteur","Hauteur":1,"Shape_Length":0.00024468174940557802,"Shape_Area":3.3385910434845991e-09}},{"type":"Feature","id":37,"geometry":{"type":"Polygon","coordinates":[[[-1.6285371079999322,48.093568604000041],[-1.6285890689999292,48.093609695000055],[-1.6286521969999512,48.09357418500008],[-1.6286002979999807,48.093533812000032],[-1.6285371079999322,48.093568604000041]]]},"properties":{"OBJECTID":37,"OBJECTID_1":37,"OBJECTID_12":37,"FID_TOUR_GALETTE_SOUSSOL":39,"Salle":"Salle Beniguet","Etage":-1,"Typologie":"Réunion","Hauteur":1,"Shape_Length":0.00027656333952785637,"Shape_Area":4.3979838203645445e-09}},{"type":"Feature","id":38,"geometry":{"type":"Polygon","coordinates":[[[-1.6285109709999688,48.093547774000058],[-1.6285371079999322,48.093568604000041],[-1.6286002979999807,48.093533812000032],[-1.6286003709999477,48.093533767000054],[-1.6285733979999577,48.09351281000005],[-1.6285109709999688,48.093547774000058]]]},"properties":{"OBJECTID":38,"OBJECTID_1":38,"OBJECTID_12":38,"FID_TOUR_GALETTE_SOUSSOL":40,"Salle":"F. Ory","Etage":-1,"Typologie":"Bureau","Hauteur":1,"Shape_Length":0.0002113518036165034,"Shape_Area":2.2399866506508195e-09}},{"type":"Feature","id":39,"geometry":{"type":"Polygon","coordinates":[[[-1.6284648579999725,48.093573774000049],[-1.628491161999932,48.093595156000049],[-1.6285226849999503,48.093577718000063],[-1.6284962639999776,48.09355628600008],[-1.6284648579999725,48.093573774000049]]]},"properties":{"OBJECTID":39,"OBJECTID_1":39,"OBJECTID_12":39,"FID_TOUR_GALETTE_SOUSSOL":41,"Salle":"Atelier l'erdre","Etage":-1,"Typologie":"Atelier","Hauteur":1,"Shape_Length":0.00013989029975846094,"Shape_Area":1.1339288877952959e-09}},{"type":"Feature","id":40,"geometry":{"type":"Polygon","coordinates":[[[-1.628305341999976,48.093555680000065],[-1.6283458199999359,48.093588191000038],[-1.6283308779999288,48.093597000000045],[-1.628393861999939,48.09364709700003],[-1.628491161999932,48.093595156000049],[-1.6284648369999672,48.093573783000068],[-1.6284648579999725,48.093573774000049],[-1.6284962639999776,48.09355628600008],[-1.6285226849999503,48.093577718000063],[-1.6285388049999483,48.093569996000042],[-1.6285109709999688,48.093547774000058],[-1.6285734049999405,48.093512776000068],[-1.6284944219999602,48.093451325000046],[-1.628305341999976,48.093555680000065]]]},"properties":{"OBJECTID":40,"OBJECTID_1":40,"OBJECTID_12":40,"FID_TOUR_GALETTE_SOUSSOL":42,"Salle":"SIT","Etage":-1,"Typologie":"Secteur","Hauteur":1,"Shape_Length":0.00080503905299844159,"Shape_Area":2.4788647920484188e-08}},{"type":"Feature","id":41,"geometry":{"type":"Polygon","coordinates":[[[-1.6282509279999431,48.093680348000078],[-1.6282478179999771,48.093677416000048],[-1.6282629369999313,48.09366852900007],[-1.6283016579999412,48.093698804000041],[-1.628393861999939,48.09364709700003],[-1.6283308779999288,48.093597000000045],[-1.6283458199999359,48.093588191000038],[-1.628305341999976,48.093555680000065],[-1.6281975039999566,48.093615416000034],[-1.6282314929999302,48.093643679000081],[-1.628188386999966,48.093666873000075],[-1.6282235719999676,48.093696041000044],[-1.6282240089999505,48.093695799000045],[-1.6282499189999271,48.093680953000046],[-1.6282509279999431,48.093680348000078]]]},"properties":{"OBJECTID":41,"OBJECTID_1":41,"OBJECTID_12":41,"FID_TOUR_GALETTE_SOUSSOL":43,"Salle":"SIRH","Etage":-1,"Typologie":"Secteur","Hauteur":1,"Shape_Length":0.00062009013479357822,"Shape_Area":1.5919798317678984e-08}},{"type":"Feature","id":42,"geometry":{"type":"Polygon","coordinates":[[[-1.6281975039999566,48.093615416000034],[-1.6281973559999301,48.093615294000074],[-1.6281622179999431,48.093635095000081],[-1.6281968759999472,48.09366228600004],[-1.6282314929999302,48.093643679000081],[-1.6281975039999566,48.093615416000034]]]},"properties":{"OBJECTID":42,"OBJECTID_1":42,"OBJECTID_12":42,"FID_TOUR_GALETTE_SOUSSOL":44,"Salle":"Atelier la dive","Etage":-1,"Typologie":"Atelier","Hauteur":1,"Shape_Length":0.00016808180016472378,"Shape_Area":1.6297636924962556e-09}},{"type":"Feature","id":43,"geometry":{"type":"Polygon","coordinates":[[[-1.6282235719999676,48.093696041000044],[-1.6282587829999784,48.093723606000026],[-1.6283016579999412,48.093698804000041],[-1.6282629369999313,48.09366852900007],[-1.6282478179999771,48.093677416000048],[-1.6282509279999431,48.093680348000078],[-1.628250947999959,48.093680363000033],[-1.6282499189999271,48.093680953000046],[-1.6282358859999704,48.093689339000036],[-1.6282240089999505,48.093695799000045],[-1.6282235719999676,48.093696041000044]]]},"properties":{"OBJECTID":43,"OBJECTID_1":43,"OBJECTID_12":43,"FID_TOUR_GALETTE_SOUSSOL":45,"Salle":"Salle Brehat","Etage":-1,"Typologie":"Réunion","Hauteur":1,"Shape_Length":0.00019679124036331295,"Shape_Area":2.1197080342779916e-09}},{"type":"Feature","id":44,"geometry":{"type":"Polygon","coordinates":[[[-1.6283040419999679,48.093804232000082],[-1.6282782429999543,48.093784138000046],[-1.6282025679999492,48.093825610000067],[-1.628228829999955,48.093846616000064],[-1.6283040419999679,48.093804232000082]]]},"properties":{"OBJECTID":44,"OBJECTID_1":44,"OBJECTID_12":44,"FID_TOUR_GALETTE_SOUSSOL":46,"Salle":"M. Le Nouy","Etage":-1,"Typologie":"Bureau","Hauteur":1,"Shape_Length":0.00023895661939057601,"Shape_Area":2.6417707308676775e-09}},{"type":"Feature","id":45,"geometry":{"type":"Polygon","coordinates":[[[-1.6285080969999512,48.093883823000056],[-1.6286116979999292,48.093825919000039],[-1.6283902709999438,48.093649189000075],[-1.6282588089999308,48.093723615000044],[-1.6282533819999685,48.093726722000042],[-1.6282876449999435,48.09375205300006],[-1.6282772109999541,48.093758730000047],[-1.6283915789999241,48.093849122000051],[-1.6284361079999599,48.093883301000062],[-1.6284774229999357,48.093860244000041],[-1.6285080969999512,48.093883823000056]]]},"properties":{"OBJECTID":45,"OBJECTID_1":45,"OBJECTID_12":45,"FID_TOUR_GALETTE_SOUSSOL":47,"Salle":"Vestiaires hommes","Etage":-1,"Typologie":"Vestiaires","Hauteur":1,"Shape_Length":0.00090222456791531501,"Shape_Area":4.181270780530794e-08}},{"type":"Feature","id":46,"geometry":{"type":"Polygon","coordinates":[[[-1.6285038889999441,48.093712461000052],[-1.6286185109999565,48.093804150000039],[-1.6287285329999577,48.093741156000078],[-1.628612253999961,48.093649476000053],[-1.6285038889999441,48.093712461000052]]]},"properties":{"OBJECTID":46,"OBJECTID_1":46,"OBJECTID_12":46,"FID_TOUR_GALETTE_SOUSSOL":49,"Salle":"Vestiaires femmes","Etage":-1,"Typologie":"Vestiaires","Hauteur":1,"Shape_Length":0.00054697635102683392,"Shape_Area":1.7283520720037337e-08}},{"type":"Feature","id":47,"geometry":{"type":"MultiPolygon","coordinates":[[[[-1.6288971339999421,48.094444318000058],[-1.6289524739999592,48.09448696100003],[-1.6288971679999804,48.094444298000042],[-1.6288971339999421,48.094444318000058]]],[[[-1.6291380089999734,48.094380418000071],[-1.6289524739999592,48.09448696100003],[-1.6290486369999257,48.094432706000077],[-1.6293212699999344,48.094273254000029],[-1.6294985609999344,48.094173940000076],[-1.6294957739999631,48.094175422000035],[-1.6294462289999387,48.094133305000071],[-1.6295016409999334,48.094101397000031],[-1.62944269999997,48.094053602000031],[-1.629520012999933,48.094007642000065],[-1.6293575859999692,48.094104165000033],[-1.6293175189999261,48.094092219000061],[-1.6293089979999422,48.094097250000061],[-1.629336164999927,48.094119327000044],[-1.6292934009999271,48.094143478000035],[-1.6292666009999266,48.094122284000036],[-1.6288710199999628,48.094355858000029],[-1.6289023329999281,48.094360036000069],[-1.6288355949999413,48.094396913000026],[-1.6288971339999421,48.094444318000058],[-1.6288356379999414,48.094396910000057],[-1.6288725889999682,48.094376499000077],[-1.6290591829999244,48.094274572000074],[-1.6290541169999528,48.094269611000072],[-1.629081719999931,48.094254100000057],[-1.6290876869999806,48.094257934000041],[-1.6291813009999601,48.09420569100007],[-1.6292895479999743,48.094291702000078],[-1.629197971999929,48.094344856000077],[-1.6291983239999581,48.094345143000055],[-1.6291380089999734,48.094380418000071]],[[-1.6292952229999287,48.094210420000081],[-1.6292553479999583,48.094179086000054],[-1.6292781129999412,48.09416598100006],[-1.6292957439999327,48.094180302000041],[-1.6293016209999678,48.094176655000069],[-1.62932344099994,48.094193813000061],[-1.6292952229999287,48.094210420000081]],[[-1.6293748959999448,48.094166723000058],[-1.6294196649999435,48.094141765000074],[-1.6294622759999697,48.094176435000065],[-1.629418161999979,48.094201953000038],[-1.6293748959999448,48.094166723000058]]],[[[-1.629520012999933,48.094007642000065],[-1.6296332369999504,48.094102348000035],[-1.6296332629999597,48.094102339000074],[-1.629520012999933,48.094007642000065]]]]},"properties":{"OBJECTID":47,"OBJECTID_1":47,"OBJECTID_12":47,"FID_TOUR_GALETTE_SOUSSOL":-1,"Salle":"","Etage":0,"Typologie":"","Hauteur":0,"Shape_Length":0.0037602870276479904,"Shape_Area":4.3225812395165234e-08}},{"type":"Feature","id":48,"geometry":{"type":"MultiPolygon","coordinates":[[[[-1.6285690349999413,48.094117519000065],[-1.6288609249999695,48.094348143000047],[-1.6288710199999628,48.094355858000029],[-1.6292666009999266,48.094122284000036],[-1.6292474859999402,48.09410716800005],[-1.6292297539999367,48.094115929000054],[-1.6291643899999713,48.094065219000072],[-1.6291053519999537,48.094098560000077],[-1.6289596279999614,48.093985326000052],[-1.6289752429999567,48.093976808000036],[-1.6290088889999765,48.093957624000041],[-1.629087740999978,48.094020292000039],[-1.6290998929999319,48.094013389000054],[-1.629087305999974,48.094003207000071],[-1.6291540009999608,48.093966608000073],[-1.6290872089999766,48.09400314700008],[-1.6290227189999769,48.093952225000066],[-1.6289955989999498,48.09393054700007],[-1.6289571029999479,48.093900094000048],[-1.6290234859999373,48.093863400000032],[-1.6290620879999551,48.09389333300004],[-1.6290882119999424,48.093913742000041],[-1.6290227189999769,48.093952225000066],[-1.6290873649999753,48.093914320000067],[-1.6291540009999608,48.093966608000073],[-1.6291745159999778,48.093988726000077],[-1.6291128769999546,48.094023846000027],[-1.6291747569999302,48.093988723000052],[-1.6292265579999707,48.094030260000068],[-1.6293089979999422,48.094097250000061],[-1.6293175189999261,48.094092219000061],[-1.6284944089999271,48.093451232000064],[-1.6281533829999262,48.093639560000042],[-1.6280972639999618,48.093593403000057],[-1.6279841059999285,48.09365246200008],[-1.6281538269999487,48.093787324000061],[-1.6283578469999611,48.09395057100005],[-1.628405559999976,48.093988357000057],[-1.6285397389999616,48.094094372000029],[-1.6285529689999407,48.094086920000052],[-1.6285812649999798,48.094110409000052],[-1.6285690349999413,48.094117519000065]],[[-1.6289446329999464,48.09429429100004],[-1.6288558489999332,48.094343656000035],[-1.6285950369999682,48.094136710000043],[-1.6286707409999508,48.094095432000074],[-1.6286978389999263,48.094116942000028],[-1.6286454779999531,48.094074563000049],[-1.6286768279999251,48.094057322000026],[-1.6286773139999582,48.094057713000041],[-1.6287076359999446,48.094039861000056],[-1.6287376669999389,48.094023471000071],[-1.628801555999928,48.094074618000036],[-1.6288280349999695,48.094095577000076],[-1.6287976479999315,48.094112498000072],[-1.6288281259999735,48.094095593000077],[-1.6288148639999349,48.094085035000035],[-1.6288483099999667,48.094066378000036],[-1.6288732509999591,48.094085102000065],[-1.6289007939999465,48.094107911000037],[-1.6289269669999271,48.094127897000078],[-1.6288622289999353,48.094163992000063],[-1.6288596629999574,48.094161901000064],[-1.6288747899999407,48.094174662000057],[-1.628900668999961,48.094195513000045],[-1.6289535849999766,48.094236031000037],[-1.6289931169999363,48.094266756000081],[-1.6289669799999729,48.094246420000047],[-1.6290307409999514,48.094210522000026],[-1.629056736999928,48.094231296000032],[-1.6289931169999363,48.094266756000081],[-1.6289446329999464,48.09429429100004]],[[-1.6285697739999705,48.09411728300006],[-1.6286437899999555,48.094073231000039],[-1.6286708639999574,48.094095241000048],[-1.6285941229999708,48.094137179000029],[-1.6285697739999705,48.09411728300006]],[[-1.6283864959999619,48.093972058000077],[-1.6284604019999733,48.093928001000052],[-1.6285902579999743,48.094031056000063],[-1.6285130229999254,48.094073006000031],[-1.6283864959999619,48.093972058000077]],[[-1.6283040419999679,48.093804232000082],[-1.6284603609999522,48.093927975000042],[-1.6283864489999473,48.093972035000036],[-1.628228867999951,48.093846672000041],[-1.6283040419999679,48.093804232000082],[-1.628228829999955,48.093846616000064],[-1.6282025679999492,48.093825610000067],[-1.6282782429999543,48.093784138000046],[-1.6283040419999679,48.093804232000082]],[[-1.6285080969999512,48.093883823000056],[-1.6284774229999357,48.093860244000041],[-1.6284361079999599,48.093883301000062],[-1.6283915789999241,48.093849122000051],[-1.6282772109999541,48.093758730000047],[-1.6282876449999435,48.09375205300006],[-1.6282533819999685,48.093726722000042],[-1.6282588089999308,48.093723615000044],[-1.6283902709999438,48.093649189000075],[-1.6286116979999292,48.093825919000039],[-1.6285080969999512,48.093883823000056]],[[-1.6283016579999412,48.093698804000041],[-1.6282587829999784,48.093723606000026],[-1.6282235719999676,48.093696041000044],[-1.628188386999966,48.093666873000075],[-1.6282314929999302,48.093643679000081],[-1.6281968759999472,48.09366228600004],[-1.6281622179999431,48.093635095000081],[-1.6281973559999301,48.093615294000074],[-1.6281975039999566,48.093615416000034],[-1.628305341999976,48.093555680000065],[-1.6284944219999602,48.093451325000046],[-1.6285734049999405,48.093512776000068],[-1.6285109709999688,48.093547774000058],[-1.6285733979999577,48.09351281000005],[-1.6286003709999477,48.093533767000054],[-1.6286002979999807,48.093533812000032],[-1.6286521969999512,48.09357418500008],[-1.6285890689999292,48.093609695000055],[-1.6286516779999261,48.093574500000045],[-1.6286914809999757,48.093604777000053],[-1.6286280889999603,48.093640832000062],[-1.6285890689999292,48.093609695000055],[-1.6285371079999322,48.093568604000041],[-1.6285109709999688,48.093547774000058],[-1.6285388049999483,48.093569996000042],[-1.6285226849999503,48.093577718000063],[-1.628491161999932,48.093595156000049],[-1.628393861999939,48.09364709700003],[-1.6283016579999412,48.093698804000041]],[[-1.6287187529999301,48.093712476000064],[-1.6286403959999802,48.093650684000067],[-1.6287043839999455,48.093614851000041],[-1.6287838539999484,48.093676663000053],[-1.6287835689999497,48.093676822000077],[-1.6288095879999673,48.093697170000041],[-1.628745705999961,48.093733243000031],[-1.6287187529999301,48.093712476000064]],[[-1.6285038889999441,48.093712461000052],[-1.628612253999961,48.093649476000053],[-1.6287285329999577,48.093741156000078],[-1.6286185109999565,48.093804150000039],[-1.6285038889999441,48.093712461000052]],[[-1.6289021949999665,48.093856702000039],[-1.6287976939999567,48.093774411000027],[-1.6288624999999683,48.093738097000028],[-1.6289671449999332,48.093819435000057],[-1.6289021949999665,48.093856702000039],[-1.6289669489999596,48.093819585000062],[-1.6289931159999469,48.093840208000074],[-1.6289283479999312,48.093877617000032],[-1.6289021949999665,48.093856702000039]],[[-1.6288996189999807,48.094018652000045],[-1.6288348279999809,48.093967070000076],[-1.6289121379999756,48.093925869000032],[-1.6289752229999408,48.093976600000076],[-1.6288996189999807,48.094018652000045],[-1.628959641999927,48.093985389000068],[-1.6290523849999659,48.094057787000054],[-1.6289532629999712,48.094113234000076],[-1.6289010569999505,48.094072163000078],[-1.6289345909999611,48.094053271000064],[-1.6288943749999589,48.094021564000059],[-1.6288996189999807,48.094018652000045]]],[[[-1.6288010379999491,48.094181141000035],[-1.6288536269999554,48.094222066000043],[-1.6288272559999655,48.094201496000039],[-1.6288272299999562,48.094201505000058],[-1.6288010379999491,48.094181141000035]]],[[[-1.6287976229999686,48.094112507000034],[-1.6288395969999669,48.094145544000071],[-1.6288369819999389,48.094143412000051],[-1.6289007939999465,48.094107911000037],[-1.6288369489999468,48.094143393000081],[-1.6287976479999315,48.094112498000072],[-1.6287723569999457,48.094091264000042],[-1.6287976229999686,48.094112507000034]]],[[[-1.6287722889999259,48.094091197000068],[-1.6287228639999398,48.094119184000078],[-1.6287723569999457,48.094091264000042],[-1.6287722889999259,48.094091197000068]]],[[[-1.6287289039999564,48.094099259000075],[-1.6286978389999263,48.094116942000028],[-1.6287601429999654,48.094081567000046],[-1.6287289039999564,48.094099259000075]]],[[[-1.6291106839999543,48.094022119000044],[-1.6291128469999308,48.094023910000033],[-1.6291643899999713,48.094065219000072],[-1.6291128769999546,48.094023846000027],[-1.6291128389999585,48.094023863000075],[-1.6291106839999543,48.094022119000044]]],[[[-1.6282509279999431,48.093680348000078],[-1.6282499189999271,48.093680953000046],[-1.628250947999959,48.093680363000033],[-1.6282509279999431,48.093680348000078]]],[[[-1.6284648579999725,48.093573774000049],[-1.6284648369999672,48.093573783000068],[-1.628491161999932,48.093595156000049],[-1.6284648579999725,48.093573774000049]]]]},"properties":{"OBJECTID":48,"OBJECTID_1":48,"OBJECTID_12":48,"FID_TOUR_GALETTE_SOUSSOL":-1,"Salle":"","Etage":0,"Typologie":"","Hauteur":0,"Shape_Length":0.013953336117318036,"Shape_Area":2.2650254343938276e-07}},{"type":"Feature","id":49,"geometry":{"type":"Polygon","coordinates":[[[-1.629130962999966,48.094311787000038],[-1.6291312249999805,48.094311991000041],[-1.6291461279999453,48.094303438000054],[-1.629130962999966,48.094311787000038]]]},"properties":{"OBJECTID":49,"OBJECTID_1":49,"OBJECTID_12":49,"FID_TOUR_GALETTE_SOUSSOL":3,"Salle":"Courrier","Etage":-1,"Typologie":"Secteur","Hauteur":1,"Shape_Length":3.4826343485695075e-05,"Shape_Area":2.6405490768356329e-12}},{"type":"Feature","id":50,"geometry":{"type":"Polygon","coordinates":[[[-1.629130962999966,48.094311787000038],[-1.6291312249999805,48.094311991000041],[-1.6291461279999453,48.094303438000054],[-1.629130962999966,48.094311787000038]]]},"properties":{"OBJECTID":50,"OBJECTID_1":50,"OBJECTID_12":50,"FID_TOUR_GALETTE_SOUSSOL":4,"Salle":"Service social","Etage":-1,"Typologie":"Secteur","Hauteur":1,"Shape_Length":3.4826343485695075e-05,"Shape_Area":2.6405490768356329e-12}},{"type":"Feature","id":51,"geometry":{"type":"Polygon","coordinates":[[[-1.6290998929999319,48.094013389000054],[-1.6291106839999543,48.094022119000044],[-1.6291000379999332,48.094013307000068],[-1.6290998929999319,48.094013389000054]]]},"properties":{"OBJECTID":51,"OBJECTID_1":51,"OBJECTID_12":51,"FID_TOUR_GALETTE_SOUSSOL":16,"Salle":"Archives DRH","Etage":-1,"Typologie":"Secteur","Hauteur":1,"Shape_Length":2.7866595617094664e-05,"Shape_Area":1.0753559276691354e-12}},{"type":"Feature","id":52,"geometry":{"type":"Polygon","coordinates":[[[-1.6290998929999319,48.094013389000054],[-1.6291106839999543,48.094022119000044],[-1.6291000379999332,48.094013307000068],[-1.6290998929999319,48.094013389000054]]]},"properties":{"OBJECTID":52,"OBJECTID_1":52,"OBJECTID_12":52,"FID_TOUR_GALETTE_SOUSSOL":17,"Salle":"Stock promo","Etage":-1,"Typologie":"Secteur","Hauteur":1,"Shape_Length":2.7866595617094664e-05,"Shape_Area":1.0753559276691354e-12}},{"type":"Feature","id":53,"geometry":{"type":"Polygon","coordinates":[[[-1.6288395969999669,48.094145544000071],[-1.6288494289999562,48.094153558000073],[-1.6288496319999695,48.094153440000071],[-1.6288395969999669,48.094145544000071]]]},"properties":{"OBJECTID":53,"OBJECTID_1":53,"OBJECTID_12":53,"FID_TOUR_GALETTE_SOUSSOL":18,"Salle":null,"Etage":-1,"Typologie":"Secteur","Hauteur":1,"Shape_Length":2.5688168394512373e-05,"Shape_Area":1.3935090657316723e-12}},{"type":"Feature","id":54,"geometry":{"type":"Polygon","coordinates":[[[-1.6288395969999669,48.094145544000071],[-1.6288494289999562,48.094153558000073],[-1.6288496319999695,48.094153440000071],[-1.6288395969999669,48.094145544000071]]]},"properties":{"OBJECTID":54,"OBJECTID_1":54,"OBJECTID_12":54,"FID_TOUR_GALETTE_SOUSSOL":24,"Salle":"Relations publiques","Etage":-1,"Typologie":"Secteur","Hauteur":1,"Shape_Length":2.5688168394512373e-05,"Shape_Area":1.3935090657316723e-12}},{"type":"Feature","id":55,"geometry":{"type":"Polygon","coordinates":[[[-1.6288494289999562,48.094153558000073],[-1.6288596629999574,48.094161901000064],[-1.6288496319999695,48.094153440000071],[-1.6288494289999562,48.094153558000073]]]},"properties":{"OBJECTID":55,"OBJECTID_1":55,"OBJECTID_12":55,"FID_TOUR_GALETTE_SOUSSOL":20,"Salle":"Recettage","Etage":-1,"Typologie":"Secteur","Hauteur":1,"Shape_Length":2.656146788446314e-05,"Shape_Area":1.4506205679456479e-12}},{"type":"Feature","id":56,"geometry":{"type":"Polygon","coordinates":[[[-1.6288494289999562,48.094153558000073],[-1.6288596629999574,48.094161901000064],[-1.6288496319999695,48.094153440000071],[-1.6288494289999562,48.094153558000073]]]},"properties":{"OBJECTID":56,"OBJECTID_1":56,"OBJECTID_12":56,"FID_TOUR_GALETTE_SOUSSOL":24,"Salle":"Relations publiques","Etage":-1,"Typologie":"Secteur","Hauteur":1,"Shape_Length":2.656146788446314e-05,"Shape_Area":1.4506205679456479e-12}},{"type":"Feature","id":57,"geometry":{"type":"Polygon","coordinates":[[[-1.6286773139999582,48.094057713000041],[-1.6286772839999344,48.094057731000078],[-1.6287085689999685,48.09408288700007],[-1.6286773139999582,48.094057713000041]]]},"properties":{"OBJECTID":57,"OBJECTID_1":57,"OBJECTID_12":57,"FID_TOUR_GALETTE_SOUSSOL":27,"Salle":"Atlantis","Etage":-1,"Typologie":"Réunion","Hauteur":1,"Shape_Length":8.0311766862689626e-05,"Shape_Area":6.589058785609771e-13}},{"type":"Feature","id":58,"geometry":{"type":"Polygon","coordinates":[[[-1.6286773139999582,48.094057713000041],[-1.6286772839999344,48.094057731000078],[-1.6287085689999685,48.09408288700007],[-1.6286773139999582,48.094057713000041]]]},"properties":{"OBJECTID":58,"OBJECTID_1":58,"OBJECTID_12":58,"FID_TOUR_GALETTE_SOUSSOL":28,"Salle":"F. Simonnet - J. Lossec - P. Trehorel ","Etage":-1,"Typologie":"Bureau","Hauteur":1,"Shape_Length":8.0311766862689626e-05,"Shape_Area":6.589058785609771e-13}},{"type":"Feature","id":59,"geometry":{"type":"Polygon","coordinates":[[[-1.6282499189999271,48.093680953000046],[-1.6282240089999505,48.093695799000045],[-1.6282358859999704,48.093689339000036],[-1.6282499189999271,48.093680953000046]]]},"properties":{"OBJECTID":59,"OBJECTID_1":59,"OBJECTID_12":59,"FID_TOUR_GALETTE_SOUSSOL":43,"Salle":"SIRH","Etage":-1,"Typologie":"Secteur","Hauteur":1,"Shape_Length":5.972982435450085e-05,"Shape_Area":4.4736711053867307e-12}},{"type":"Feature","id":60,"geometry":{"type":"Polygon","coordinates":[[[-1.6282499189999271,48.093680953000046],[-1.6282240089999505,48.093695799000045],[-1.6282358859999704,48.093689339000036],[-1.6282499189999271,48.093680953000046]]]},"properties":{"OBJECTID":60,"OBJECTID_1":60,"OBJECTID_12":60,"FID_TOUR_GALETTE_SOUSSOL":45,"Salle":"Salle Brehat","Etage":-1,"Typologie":"Réunion","Hauteur":1,"Shape_Length":5.972982435450085e-05,"Shape_Area":4.4736711053867307e-12}},{"type":"Feature","id":61,"geometry":{"type":"Polygon","coordinates":[[[-1.6294407959999262,48.094128720000072],[-1.6294221599999332,48.094113218000075],[-1.6294003899999439,48.094125587000065],[-1.6294190259999368,48.094141419000039],[-1.6294407959999262,48.094128720000072]]]},"properties":{"OBJECTID":61,"OBJECTID_1":61,"OBJECTID_12":null,"FID_TOUR_GALETTE_SOUSSOL":null,"Salle":"Ascenseur","Etage":-1,"Typologie":"Se déplacer","Hauteur":1,"Shape_Length":9.8935388039423782e-05,"Shape_Area":5.7465421302295876e-10}}]}