{
"type": "FeatureCollection",
"name": "TOUR_GALETTE_RDC",
"crs": { "type": "name", "properties": { "name": "urn:ogc:def:crs:OGC:1.3:CRS84" } },
"features": [
{ "type": "Feature", "properties": { "OBJECTID": 1, "OBJECTID_1": 1, "OBJECTID_12": 1, "FID_TOUR_GALETTE_RDC": 1, "Salle": "Salle de conférence", "Etage": 0, "Hauteur": 1, "Typologie": "Salles de réunion", "Shape_Length": 0.00057145400457576955, "Shape_Area": 1.8980448005561637e-08 }, "geometry": { "type": "Polygon", "coordinates": [ [ [ -1.629402476999928, 48.094084572000042 ], [ -1.62951323599998, 48.094173437000052 ], [ -1.629637948999971, 48.094103942000061 ], [ -1.629555800999981, 48.094037565000065 ], [ -1.629525710999928, 48.094013251000035 ], [ -1.629402476999928, 48.094084572000042 ] ] ] } },
{ "type": "Feature", "properties": { "OBJECTID": 2, "OBJECTID_1": 2, "OBJECTID_12": 2, "FID_TOUR_GALETTE_RDC": 2, "Salle": "Hall d'entrée", "Etage": 0, "Hauteur": 0, "Typologie": "Autre", "Shape_Length": 0.0012752166966029568, "Shape_Area": 3.1582153104246089e-08 }, "geometry": { "type": "Polygon", "coordinates": [ [ [ -1.629180156999951, 48.094287699000063 ], [ -1.629229075999945, 48.094260638000037 ], [ -1.629237587999967, 48.094267137000031 ], [ -1.629249304999973, 48.094260224000038 ], [ -1.629295135999939, 48.094296155000052 ], [ -1.629392594999956, 48.094241317000069 ], [ -1.62951323599998, 48.094173437000052 ], [ -1.629402476999928, 48.094084572000042 ], [ -1.629323844999931, 48.094128428000033 ], [ -1.62933424299996, 48.094136791000039 ], [ -1.629382968999948, 48.094175968000059 ], [ -1.629349809999951, 48.094194579000032 ], [ -1.629305779999925, 48.094219294000027 ], [ -1.629296497999974, 48.094211963000078 ], [ -1.629246320999926, 48.094172357000048 ], [ -1.62918386299998, 48.094207580000045 ], [ -1.629218588999947, 48.094237259000067 ], [ -1.629187350999928, 48.094255016000034 ], [ -1.62914114299997, 48.094219599000041 ], [ -1.629144130999975, 48.094217884000045 ], [ -1.629147119999971, 48.094219987000031 ], [ -1.629149942999959, 48.094218461000025 ], [ -1.629130214999975, 48.094202814000028 ], [ -1.62912855899998, 48.094201500000054 ], [ -1.629087325999933, 48.094224746000066 ], [ -1.629089712999928, 48.094226728000081 ], [ -1.629106749999949, 48.094240887000069 ], [ -1.629114939999965, 48.094236400000057 ], [ -1.629157718999977, 48.094270417000075 ], [ -1.629179739999927, 48.094287927000039 ], [ -1.629180156999951, 48.094287699000063 ] ] ] } },
{ "type": "Feature", "properties": { "OBJECTID": 3, "OBJECTID_1": 3, "OBJECTID_12": 3, "FID_TOUR_GALETTE_RDC": 3, "Salle": "Entrée", "Etage": 0, "Hauteur": 0, "Typologie": "Autre", "Shape_Length": 0.00038149811785991847, "Shape_Area": 8.2648207881988382e-09 }, "geometry": { "type": "Polygon", "coordinates": [ [ [ -1.629295135999939, 48.094296155000052 ], [ -1.629361480999933, 48.094346347000055 ], [ -1.629454019999969, 48.094293926000034 ], [ -1.629391638999948, 48.094241888000056 ], [ -1.629295135999939, 48.094296155000052 ] ] ] } },
{ "type": "Feature", "properties": { "OBJECTID": 4, "OBJECTID_1": 4, "OBJECTID_12": 4, "FID_TOUR_GALETTE_RDC": 4, "Salle": "Accueil", "Etage": 0, "Hauteur": 1, "Typologie": "Autre", "Shape_Length": 0.00027691485417642101, "Shape_Area": 4.2777737562977373e-09 }, "geometry": { "type": "Polygon", "coordinates": [ [ [ -1.629180156999951, 48.094287699000063 ], [ -1.629229674999976, 48.094326823000074 ], [ -1.629233802999977, 48.094330082000056 ], [ -1.629294879999975, 48.094296296000039 ], [ -1.629295135999939, 48.094296155000052 ], [ -1.629249304999973, 48.094260224000038 ], [ -1.629237587999967, 48.094267137000031 ], [ -1.629229075999945, 48.094260638000037 ], [ -1.629180156999951, 48.094287699000063 ] ] ] } },
{ "type": "Feature", "properties": { "OBJECTID": 5, "OBJECTID_1": 5, "OBJECTID_12": 5, "FID_TOUR_GALETTE_RDC": 5, "Salle": "DSN", "Etage": 0, "Hauteur": 1, "Typologie": "Service", "Shape_Length": 0.00086478196480708699, "Shape_Area": 3.5134193094375293e-08 }, "geometry": { "type": "Polygon", "coordinates": [ [ [ -1.62898443399996, 48.094468932000041 ], [ -1.628985569999941, 48.094469833000062 ], [ -1.629233802999977, 48.094330082000056 ], [ -1.629229674999976, 48.094326823000074 ], [ -1.629180156999951, 48.094287699000063 ], [ -1.629179739999927, 48.094287927000039 ], [ -1.629157696999926, 48.09427043900007 ], [ -1.629095432999975, 48.094306590000031 ], [ -1.629056606999939, 48.094273846000078 ], [ -1.628899374999946, 48.094362646000036 ], [ -1.628903049999963, 48.094365370000048 ], [ -1.628874319999966, 48.094381553000062 ], [ -1.628931508999926, 48.094426941000052 ], [ -1.62898443399996, 48.094468932000041 ] ] ] } },
{ "type": "Feature", "properties": { "OBJECTID": 6, "OBJECTID_1": 6, "OBJECTID_12": 6, "FID_TOUR_GALETTE_RDC": 6, "Salle": "Ascenseurs", "Etage": 0, "Hauteur": 1, "Typologie": "Accès", "Shape_Length": 0.00016580653370697022, "Shape_Area": 1.3894037059137089e-09 }, "geometry": { "type": "Polygon", "coordinates": [ [ [ -1.629296497999974, 48.094211963000078 ], [ -1.629324674999964, 48.094196302000057 ], [ -1.629303039999968, 48.094178614000043 ], [ -1.629297297999926, 48.094181721000041 ], [ -1.629280047999941, 48.094167619000075 ], [ -1.629257028999973, 48.094180793000078 ], [ -1.629296497999974, 48.094211963000078 ] ] ] } },
{ "type": "Feature", "properties": { "OBJECTID": 7, "OBJECTID_1": 7, "OBJECTID_12": 7, "FID_TOUR_GALETTE_RDC": 7, "Salle": "Escaliers", "Etage": 0, "Hauteur": 1, "Typologie": "Accès", "Shape_Length": 0.00020282833917676106, "Shape_Area": 2.2487050394788113e-09 }, "geometry": { "type": "Polygon", "coordinates": [ [ [ -1.62933424299996, 48.094136791000039 ], [ -1.629299944999957, 48.094156672000054 ], [ -1.629349809999951, 48.094194579000032 ], [ -1.629382968999948, 48.094175968000059 ], [ -1.62933424299996, 48.094136791000039 ] ] ] } },
{ "type": "Feature", "properties": { "OBJECTID": 8, "OBJECTID_1": 8, "OBJECTID_12": 8, "FID_TOUR_GALETTE_RDC": 9, "Salle": "Escaliers", "Etage": 0, "Hauteur": 1, "Typologie": "Accès", "Shape_Length": 0.00022024689614169867, "Shape_Area": 2.4911403159817517e-09 }, "geometry": { "type": "Polygon", "coordinates": [ [ [ -1.628874319999966, 48.094381553000062 ], [ -1.628842328999951, 48.094398554000065 ], [ -1.628899883999964, 48.094445558000075 ], [ -1.628931508999926, 48.094426941000052 ], [ -1.628874319999966, 48.094381553000062 ] ] ] } },
{ "type": "Feature", "properties": { "OBJECTID": 9, "OBJECTID_1": 9, "OBJECTID_12": 9, "FID_TOUR_GALETTE_RDC": 10, "Salle": "Sanitaires hommes", "Etage": 0, "Hauteur": 1, "Typologie": "Toilettes", "Shape_Length": 0.00024503415534228145, "Shape_Area": 3.3287124251700776e-09 }, "geometry": { "type": "Polygon", "coordinates": [ [ [ -1.629082336999943, 48.09425850100007 ], [ -1.629084724999927, 48.094260772000041 ], [ -1.629058742999973, 48.09427557500004 ], [ -1.629095432999975, 48.094306590000031 ], [ -1.629157696999926, 48.09427043900007 ], [ -1.629157718999977, 48.094270417000075 ], [ -1.629117429999951, 48.094238525000037 ], [ -1.629082336999943, 48.09425850100007 ] ] ] } },
{ "type": "Feature", "properties": { "OBJECTID": 10, "OBJECTID_1": 10, "OBJECTID_12": 10, "FID_TOUR_GALETTE_RDC": 11, "Salle": "Sanitaires femmes", "Etage": 0, "Hauteur": 1, "Typologie": "Toilettes", "Shape_Length": 0.00029111715103206958, "Shape_Area": 4.209558863183833e-09 }, "geometry": { "type": "Polygon", "coordinates": [ [ [ -1.629056606999939, 48.094273846000078 ], [ -1.629058704999977, 48.094275577000076 ], [ -1.629084663999947, 48.094260778000034 ], [ -1.629082336999943, 48.09425850100007 ], [ -1.629117451999946, 48.09423842700005 ], [ -1.629114939999965, 48.094236400000057 ], [ -1.629106749999949, 48.094240887000069 ], [ -1.629089381999961, 48.094226924000054 ], [ -1.629054676999942, 48.094198997000035 ], [ -1.628999402999966, 48.09423029800007 ], [ -1.629036210999971, 48.094258319000062 ], [ -1.629056606999939, 48.094273846000078 ] ] ] } },
{ "type": "Feature", "properties": { "OBJECTID": 11, "OBJECTID_1": 11, "OBJECTID_12": 11, "FID_TOUR_GALETTE_RDC": 12, "Salle": "Atelier brique", "Etage": 0, "Hauteur": 1, "Typologie": "Atelier", "Shape_Length": 0.00015957887121531732, "Shape_Area": 1.4614774651768502e-09 }, "geometry": { "type": "Polygon", "coordinates": [ [ [ -1.629130988999975, 48.094202357000029 ], [ -1.629149942999959, 48.094218461000025 ], [ -1.629189597999925, 48.094196003000036 ], [ -1.629169274999924, 48.09417975100007 ], [ -1.629162280999935, 48.094174159000033 ], [ -1.629123598999968, 48.094196079000028 ], [ -1.629130988999975, 48.094202357000029 ] ] ] } },
{ "type": "Feature", "properties": { "OBJECTID": 12, "OBJECTID_1": 12, "OBJECTID_12": 12, "FID_TOUR_GALETTE_RDC": 13, "Salle": "Atelier indigo", "Etage": 0, "Hauteur": 1, "Typologie": "Atelier", "Shape_Length": 0.00015871425077700898, "Shape_Area": 1.4372279286746508e-09 }, "geometry": { "type": "Polygon", "coordinates": [ [ [ -1.629162280999935, 48.094174159000033 ], [ -1.629135390999977, 48.094152469000051 ], [ -1.629096278999953, 48.094174489000068 ], [ -1.629123598999968, 48.094196079000028 ], [ -1.629162280999935, 48.094174159000033 ] ] ] } },
{ "type": "Feature", "properties": { "OBJECTID": 13, "OBJECTID_1": 13, "OBJECTID_12": 13, "FID_TOUR_GALETTE_RDC": 14, "Salle": "Atelier grey", "Etage": 0, "Hauteur": 1, "Typologie": "Atelier", "Shape_Length": 0.0001590187081932506, "Shape_Area": 1.4283971243733138e-09 }, "geometry": { "type": "Polygon", "coordinates": [ [ [ -1.629076770999973, 48.094080561000055 ], [ -1.629103360999977, 48.094101187000035 ], [ -1.629143033999981, 48.094078538000076 ], [ -1.629117151999935, 48.09405765300005 ], [ -1.629076770999973, 48.094080561000055 ] ] ] } },
{ "type": "Feature", "properties": { "OBJECTID": 14, "OBJECTID_1": 14, "OBJECTID_12": 14, "FID_TOUR_GALETTE_RDC": 15, "Salle": "Espace repro", "Etage": 0, "Hauteur": 1, "Typologie": "Autre", "Shape_Length": 0.00015711520311036706, "Shape_Area": 1.413247565200664e-09 }, "geometry": { "type": "Polygon", "coordinates": [ [ [ -1.629053923999948, 48.094057947000067 ], [ -1.629054698999937, 48.094058812000071 ], [ -1.629053020999947, 48.094060127000034 ], [ -1.629076770999973, 48.094080561000055 ], [ -1.629117151999935, 48.09405765300005 ], [ -1.629091050999932, 48.094036863000042 ], [ -1.629053923999948, 48.094057947000067 ] ] ] } },
{ "type": "Feature", "properties": { "OBJECTID": 15, "OBJECTID_1": 15, "OBJECTID_12": 15, "FID_TOUR_GALETTE_RDC": 16, "Salle": "Atelier moutarde", "Etage": 0, "Hauteur": 1, "Typologie": "Atelier", "Shape_Length": 0.00016004421440374986, "Shape_Area": 1.4277590786253456e-09 }, "geometry": { "type": "Polygon", "coordinates": [ [ [ -1.629064660999973, 48.094016185000044 ], [ -1.629024543999947, 48.094039166000073 ], [ -1.629049058999954, 48.094058646000065 ], [ -1.629052184999978, 48.094056321000039 ], [ -1.629053923999948, 48.094057947000067 ], [ -1.629091050999932, 48.094036863000042 ], [ -1.629064660999973, 48.094016185000044 ] ] ] } },
{ "type": "Feature", "properties": { "OBJECTID": 16, "OBJECTID_1": 16, "OBJECTID_12": 16, "FID_TOUR_GALETTE_RDC": 17, "Salle": "Atelier saphyr", "Etage": 0, "Hauteur": 1, "Typologie": "Atelier", "Shape_Length": 0.00015758358087118152, "Shape_Area": 1.4159230296109104e-09 }, "geometry": { "type": "Polygon", "coordinates": [ [ [ -1.629064660999973, 48.094016185000044 ], [ -1.629038583999943, 48.093995410000048 ], [ -1.628999482999973, 48.094017479000058 ], [ -1.629024524999977, 48.094039137000038 ], [ -1.629064660999973, 48.094016185000044 ] ] ] } },
{ "type": "Feature", "properties": { "OBJECTID": 17, "OBJECTID_1": 17, "OBJECTID_12": 17, "FID_TOUR_GALETTE_RDC": 18, "Salle": "Cuisine", "Etage": 0, "Hauteur": 1, "Typologie": "Pause", "Shape_Length": 0.00029970469423710484, "Shape_Area": 4.5684090024448725e-09 }, "geometry": { "type": "Polygon", "coordinates": [ [ [ -1.62894096499997, 48.094143820000056 ], [ -1.628975781999941, 48.094175599000039 ], [ -1.629066120999937, 48.094124719000035 ], [ -1.629029291999927, 48.094094429000052 ], [ -1.62894096499997, 48.094143820000056 ] ] ] } },
{ "type": "Feature", "properties": { "OBJECTID": 18, "OBJECTID_1": 18, "OBJECTID_12": 18, "FID_TOUR_GALETTE_RDC": 19, "Salle": "Olivier Porte", "Etage": 0, "Hauteur": 1, "Typologie": "Bureau", "Shape_Length": 0.00015943759103991984, "Shape_Area": 1.4347016198823027e-09 }, "geometry": { "type": "Polygon", "coordinates": [ [ [ -1.628903283999932, 48.094249227000034 ], [ -1.628929083999935, 48.094270112000061 ], [ -1.628969652999956, 48.094246787000031 ], [ -1.628943388999971, 48.094226352000078 ], [ -1.628903283999932, 48.094249227000034 ] ] ] } },
{ "type": "Feature", "properties": { "OBJECTID": 19, "OBJECTID_1": 19, "OBJECTID_12": 19, "FID_TOUR_GALETTE_RDC": 20, "Salle": "Atelier prune", "Etage": 0, "Hauteur": 1, "Typologie": "Atelier", "Shape_Length": 0.00015982870273802669, "Shape_Area": 1.450524655340092e-09 }, "geometry": { "type": "Polygon", "coordinates": [ [ [ -1.628877003999946, 48.094228117000057 ], [ -1.628903283999932, 48.094249227000034 ], [ -1.62894336599993, 48.094226341000081 ], [ -1.628917089999959, 48.094205142000078 ], [ -1.628877003999946, 48.094228117000057 ] ] ] } },
{ "type": "Feature", "properties": { "OBJECTID": 20, "OBJECTID_1": 20, "OBJECTID_12": 20, "FID_TOUR_GALETTE_RDC": 21, "Salle": "Espace réunion", "Etage": 0, "Hauteur": 1, "Typologie": "Salles de réunion", "Shape_Length": 0.00020315551227908024, "Shape_Area": 2.4194451867044407e-09 }, "geometry": { "type": "Polygon", "coordinates": [ [ [ -1.628877003999946, 48.094228117000057 ], [ -1.628916980999975, 48.094205098000032 ], [ -1.628878585999928, 48.094169627000042 ], [ -1.628834538999968, 48.09419444200006 ], [ -1.628877003999946, 48.094228117000057 ] ] ] } },
{ "type": "Feature", "properties": { "OBJECTID": 21, "OBJECTID_1": 21, "OBJECTID_12": 21, "FID_TOUR_GALETTE_RDC": 22, "Salle": "Bibliothèque geluck", "Etage": 0, "Hauteur": 1, "Typologie": "Bibliothèque", "Shape_Length": 0.0001597329537441068, "Shape_Area": 1.4361457714170415e-09 }, "geometry": { "type": "Polygon", "coordinates": [ [ [ -1.628798373999928, 48.094166174000065 ], [ -1.628824239999972, 48.094186800000045 ], [ -1.628865041999973, 48.09416402100004 ], [ -1.628838591999966, 48.094143253000027 ], [ -1.628798373999928, 48.094166174000065 ] ] ] } },
{ "type": "Feature", "properties": { "OBJECTID": 22, "OBJECTID_1": 22, "OBJECTID_12": 22, "FID_TOUR_GALETTE_RDC": 23, "Salle": "Atelier Ocre", "Etage": 0, "Hauteur": 1, "Typologie": "Atelier", "Shape_Length": 0.00016014409385386761, "Shape_Area": 1.4517058404569176e-09 }, "geometry": { "type": "Polygon", "coordinates": [ [ [ -1.628838591999966, 48.094143253000027 ], [ -1.62881250099997, 48.094122132000052 ], [ -1.628772003999927, 48.094145324000067 ], [ -1.628798373999928, 48.094166174000065 ], [ -1.628838591999966, 48.094143253000027 ] ] ] } },
{ "type": "Feature", "properties": { "OBJECTID": 23, "OBJECTID_1": 23, "OBJECTID_12": 23, "FID_TOUR_GALETTE_RDC": 24, "Salle": "Petit labo", "Etage": 0, "Hauteur": 1, "Typologie": "Salles de réunion", "Shape_Length": 0.00023526924070025018, "Shape_Area": 3.1518220525417587e-09 }, "geometry": { "type": "Polygon", "coordinates": [ [ [ -1.628934524999977, 48.094053970000061 ], [ -1.628986499999939, 48.094095568000057 ], [ -1.629031052999949, 48.094070337000062 ], [ -1.628978872999937, 48.094028971000057 ], [ -1.628934524999977, 48.094053970000061 ] ] ] } },
{ "type": "Feature", "properties": { "OBJECTID": 24, "OBJECTID_1": 24, "OBJECTID_12": 24, "FID_TOUR_GALETTE_RDC": 25, "Salle": "Grand labo", "Etage": 0, "Hauteur": 1, "Typologie": "Salles de réunion", "Shape_Length": 0.00036853032964137024, "Shape_Area": 7.2564087175500621e-09 }, "geometry": { "type": "Polygon", "coordinates": [ [ [ -1.628934524999977, 48.094053970000061 ], [ -1.62883192399994, 48.094111794000071 ], [ -1.628883490999954, 48.094153215000063 ], [ -1.628986499999939, 48.094095568000057 ], [ -1.628934524999977, 48.094053970000061 ] ] ] } },
{ "type": "Feature", "properties": { "OBJECTID": 25, "OBJECTID_1": 25, "OBJECTID_12": 25, "FID_TOUR_GALETTE_RDC": 26, "Salle": "Bibliothèque chaunu", "Etage": 0, "Hauteur": 1, "Typologie": "Bibliothèque", "Shape_Length": 0.00022746042151701942, "Shape_Area": 2.8928879703603949e-09 }, "geometry": { "type": "Polygon", "coordinates": [ [ [ -1.628892773999951, 48.09393521100003 ], [ -1.628945469999962, 48.093977021000057 ], [ -1.628986146999978, 48.093953955000075 ], [ -1.628933793999977, 48.093912713000066 ], [ -1.628892773999951, 48.09393521100003 ] ] ] } },
{ "type": "Feature", "properties": { "OBJECTID": 26, "OBJECTID_1": 26, "OBJECTID_12": 26, "FID_TOUR_GALETTE_RDC": 27, "Salle": "Espace repro", "Etage": 0, "Hauteur": 1, "Typologie": "Autre", "Shape_Length": 0.00015735845569433485, "Shape_Area": 1.398687918294334e-09 }, "geometry": { "type": "Polygon", "coordinates": [ [ [ -1.628933793999977, 48.093912713000066 ], [ -1.628908396999975, 48.093891717000076 ], [ -1.62886857999996, 48.09391521200007 ], [ -1.628892773999951, 48.09393521100003 ], [ -1.628933793999977, 48.093912713000066 ] ] ] } },
{ "type": "Feature", "properties": { "OBJECTID": 27, "OBJECTID_1": 27, "OBJECTID_12": 27, "FID_TOUR_GALETTE_RDC": 28, "Salle": "Support informatique", "Etage": 0, "Hauteur": 1, "Typologie": "Service", "Shape_Length": 0.00062050365133477854, "Shape_Area": 2.2145313734335973e-08 }, "geometry": { "type": "Polygon", "coordinates": [ [ [ -1.62842481499996, 48.093982284000049 ], [ -1.628556608999929, 48.094087233000039 ], [ -1.628679876999968, 48.094017711000049 ], [ -1.62854652599998, 48.093912186000068 ], [ -1.62842481499996, 48.093982284000049 ] ] ] } },
{ "type": "Feature", "properties": { "OBJECTID": 28, "OBJECTID_1": 28, "OBJECTID_12": 28, "FID_TOUR_GALETTE_RDC": 29, "Salle": "Atelier pervanche", "Etage": 0, "Hauteur": 1, "Typologie": "Atelier", "Shape_Length": 0.00016051696880311318, "Shape_Area": 1.4571566855878609e-09 }, "geometry": { "type": "Polygon", "coordinates": [ [ [ -1.628759493999951, 48.093829546000052 ], [ -1.628785701999959, 48.09385052500005 ], [ -1.628826300999947, 48.093827489000034 ], [ -1.628799768999954, 48.093806469000072 ], [ -1.628759493999951, 48.093829546000052 ] ] ] } },
{ "type": "Feature", "properties": { "OBJECTID": 29, "OBJECTID_1": 29, "OBJECTID_12": 29, "FID_TOUR_GALETTE_RDC": 30, "Salle": "Atelier grenat", "Etage": 0, "Hauteur": 1, "Typologie": "Atelier", "Shape_Length": 0.0001697375176769462, "Shape_Area": 1.5248702879467712e-09 }, "geometry": { "type": "Polygon", "coordinates": [ [ [ -1.628745121999941, 48.093796305000069 ], [ -1.62872968399995, 48.09380541400003 ], [ -1.628759493999951, 48.093829546000052 ], [ -1.628799768999954, 48.093806469000072 ], [ -1.628773824999939, 48.093785546000049 ], [ -1.628749439999979, 48.093799721000039 ], [ -1.628748343999973, 48.093798847000073 ], [ -1.628745121999941, 48.093796305000069 ] ] ] } },
{ "type": "Feature", "properties": { "OBJECTID": 30, "OBJECTID_1": 30, "OBJECTID_12": 30, "FID_TOUR_GALETTE_RDC": 31, "Salle": "Escaliers", "Etage": 0, "Hauteur": 1, "Typologie": "Accès", "Shape_Length": 0.00025540749169937667, "Shape_Area": 2.467120357381257e-09 }, "geometry": { "type": "Polygon", "coordinates": [ [ [ -1.628736222999976, 48.094023588000027 ], [ -1.628815256999928, 48.09408712700008 ], [ -1.628838382999959, 48.094073974000025 ], [ -1.628758708999953, 48.094010938000054 ], [ -1.628736222999976, 48.094023588000027 ] ] ] } },
{ "type": "Feature", "properties": { "OBJECTID": 31, "OBJECTID_1": 31, "OBJECTID_12": 31, "FID_TOUR_GALETTE_RDC": 32, "Salle": "Salle de pause", "Etage": 0, "Hauteur": 1, "Typologie": "Pause", "Shape_Length": 0.00023638424934079521, "Shape_Area": 2.0995546202590587e-09 }, "geometry": { "type": "Polygon", "coordinates": [ [ [ -1.628865834999942, 48.09395188600007 ], [ -1.628888099999926, 48.09396965500008 ], [ -1.628852970999958, 48.093989953000062 ], [ -1.628880913999978, 48.094014042000026 ], [ -1.62892721999998, 48.093988742000079 ], [ -1.628874405999966, 48.093946574000029 ], [ -1.628865834999942, 48.09395188600007 ] ] ] } },
{ "type": "Feature", "properties": { "OBJECTID": 32, "OBJECTID_1": 32, "OBJECTID_12": 32, "FID_TOUR_GALETTE_RDC": 33, "Salle": "Salle hoedic", "Etage": 0, "Hauteur": 1, "Typologie": "Salles de réunion", "Shape_Length": 0.00016900711303178366, "Shape_Area": 1.610597532308489e-09 }, "geometry": { "type": "Polygon", "coordinates": [ [ [ -1.628555127999959, 48.093837834000055 ], [ -1.628525410999941, 48.093855139000027 ], [ -1.62856411599995, 48.093886410000039 ], [ -1.62859427799998, 48.093868945000054 ], [ -1.628555127999959, 48.093837834000055 ] ] ] } },
{ "type": "Feature", "properties": { "OBJECTID": 33, "OBJECTID_1": 33, "OBJECTID_12": 33, "FID_TOUR_GALETTE_RDC": 34, "Salle": "Salle ouessant", "Etage": 0, "Hauteur": 1, "Typologie": "Salles de réunion", "Shape_Length": 0.00027586522288948153, "Shape_Area": 4.0642664990346792e-09 }, "geometry": { "type": "Polygon", "coordinates": [ [ [ -1.628555127999959, 48.093837834000055 ], [ -1.62859427799998, 48.093868945000054 ], [ -1.628670844999931, 48.093825477000053 ], [ -1.628632363999941, 48.093794633000073 ], [ -1.628555127999959, 48.093837834000055 ] ] ] } },
{ "type": "Feature", "properties": { "OBJECTID": 34, "OBJECTID_1": 34, "OBJECTID_12": 34, "FID_TOUR_GALETTE_RDC": 35, "Salle": "Escaliers", "Etage": 0, "Hauteur": 1, "Typologie": "Accès", "Shape_Length": 0.00023129208090513334, "Shape_Area": 2.9644751358151414e-09 }, "geometry": { "type": "Polygon", "coordinates": [ [ [ -1.628748343999973, 48.093798847000073 ], [ -1.628749439999979, 48.093799721000039 ], [ -1.628783257999942, 48.093779913000049 ], [ -1.628719341999954, 48.093727834000049 ], [ -1.628699152999957, 48.093738741000038 ], [ -1.628696735999938, 48.093758137000066 ], [ -1.628745121999941, 48.093796305000069 ], [ -1.628745157999958, 48.093796284000064 ], [ -1.628748343999973, 48.093798847000073 ] ] ] } },
{ "type": "Feature", "properties": { "OBJECTID": 35, "OBJECTID_1": 35, "OBJECTID_12": 35, "FID_TOUR_GALETTE_RDC": 36, "Salle": "Sanitaires femmes", "Etage": 0, "Hauteur": 1, "Typologie": "Toilettes", "Shape_Length": 0.00015430148917036258, "Shape_Area": 1.4733195428909223e-09 }, "geometry": { "type": "Polygon", "coordinates": [ [ [ -1.62862249799997, 48.093729842000073 ], [ -1.628661799999975, 48.093760921000069 ], [ -1.628675813999962, 48.093753008000078 ], [ -1.628678450999928, 48.093733293000071 ], [ -1.628651127999944, 48.093712143000062 ], [ -1.628624302999924, 48.093728769000052 ], [ -1.62862249799997, 48.093729842000073 ] ] ] } },
{ "type": "Feature", "properties": { "OBJECTID": 36, "OBJECTID_1": 36, "OBJECTID_12": 36, "FID_TOUR_GALETTE_RDC": 37, "Salle": "Sanitaires hommes", "Etage": 0, "Hauteur": 1, "Typologie": "Toilettes", "Shape_Length": 0.0001862736030805403, "Shape_Area": 1.995490465363543e-09 }, "geometry": { "type": "Polygon", "coordinates": [ [ [ -1.62862249799997, 48.093729842000073 ], [ -1.628584949999947, 48.093751222000037 ], [ -1.62862397899994, 48.093781961000047 ], [ -1.628661799999975, 48.093760921000069 ], [ -1.62862249799997, 48.093729842000073 ] ] ] } },
{ "type": "Feature", "properties": { "OBJECTID": 37, "OBJECTID_1": 37, "OBJECTID_12": 37, "FID_TOUR_GALETTE_RDC": 38, "Salle": "Salle segal", "Etage": 0, "Hauteur": 1, "Typologie": "Salles de réunion", "Shape_Length": 0.00024220651076611697, "Shape_Area": 3.3034367701143236e-09 }, "geometry": { "type": "Polygon", "coordinates": [ [ [ -1.628503424999963, 48.09379619200007 ], [ -1.628541766999945, 48.09382793900005 ], [ -1.628604295999935, 48.09379300900008 ], [ -1.628564924999978, 48.093761710000081 ], [ -1.628503424999963, 48.09379619200007 ] ] ] } },
{ "type": "Feature", "properties": { "OBJECTID": 38, "OBJECTID_1": 38, "OBJECTID_12": 38, "FID_TOUR_GALETTE_RDC": 39, "Salle": "Salle molène", "Etage": 0, "Hauteur": 1, "Typologie": "Salles de réunion", "Shape_Length": 0.00017024861329548158, "Shape_Area": 1.6384027141535513e-09 }, "geometry": { "type": "Polygon", "coordinates": [ [ [ -1.62847249999993, 48.093813534000049 ], [ -1.628511200999981, 48.093845116000068 ], [ -1.628541766999945, 48.09382793900005 ], [ -1.628503424999963, 48.09379619200007 ], [ -1.62847249999993, 48.093813534000049 ] ] ] } },
{ "type": "Feature", "properties": { "OBJECTID": 39, "OBJECTID_1": 39, "OBJECTID_12": 39, "FID_TOUR_GALETTE_RDC": 40, "Salle": "Gestion de parc", "Etage": 0, "Hauteur": 1, "Typologie": "Service", "Shape_Length": 0.00054700363439514959, "Shape_Area": 1.5586972759788534e-08 }, "geometry": { "type": "Polygon", "coordinates": [ [ [ -1.628293696999947, 48.093878275000066 ], [ -1.628399293999962, 48.093961516000036 ], [ -1.628520685999945, 48.093893269000034 ], [ -1.628454996999949, 48.093841298000029 ], [ -1.62842369599997, 48.09385908400003 ], [ -1.628384350999966, 48.093828259000077 ], [ -1.628353287999971, 48.093845400000077 ], [ -1.628293696999947, 48.093878275000066 ] ] ] } },
{ "type": "Feature", "properties": { "OBJECTID": 40, "OBJECTID_1": 40, "OBJECTID_12": 40, "FID_TOUR_GALETTE_RDC": 41, "Salle": "Bureau Touchais", "Etage": 0, "Hauteur": 1, "Typologie": "Bureau", "Shape_Length": 0.0001723293557256132, "Shape_Area": 1.6777872734357936e-09 }, "geometry": { "type": "Polygon", "coordinates": [ [ [ -1.628384350999966, 48.093828259000077 ], [ -1.62842369599997, 48.09385908400003 ], [ -1.628454996999949, 48.093841298000029 ], [ -1.628416085999959, 48.093810181000038 ], [ -1.628384350999966, 48.093828259000077 ] ] ] } },
{ "type": "Feature", "properties": { "OBJECTID": 41, "OBJECTID_1": 41, "OBJECTID_12": 41, "FID_TOUR_GALETTE_RDC": 42, "Salle": "Distributeurs", "Etage": 0, "Hauteur": 1, "Typologie": "Pause", "Shape_Length": 0.00021204728974147182, "Shape_Area": 2.2751209508215043e-09 }, "geometry": { "type": "Polygon", "coordinates": [ [ [ -1.628326915999935, 48.093823733000079 ], [ -1.628353287999971, 48.093845400000077 ], [ -1.628416085999959, 48.093810181000038 ], [ -1.62839024799996, 48.093788754000059 ], [ -1.628326915999935, 48.093823733000079 ] ] ] } },
{ "type": "Feature", "properties": { "OBJECTID": 42, "OBJECTID_1": 42, "OBJECTID_12": 42, "FID_TOUR_GALETTE_RDC": 43, "Salle": "Cafétéria", "Etage": 0, "Hauteur": 1, "Typologie": "Pause", "Shape_Length": 0.00061528454707389932, "Shape_Area": 1.4765640393816596e-08 }, "geometry": { "type": "Polygon", "coordinates": [ [ [ -1.628163349999966, 48.093775009000069 ], [ -1.628293696999947, 48.093878275000066 ], [ -1.628353287999971, 48.093845400000077 ], [ -1.628326896999965, 48.093823739000072 ], [ -1.628326915999935, 48.093823733000079 ], [ -1.62839024799996, 48.093788754000059 ], [ -1.628337009999939, 48.093747225000072 ], [ -1.628274511999962, 48.093783 ], [ -1.628232535999928, 48.093748899000047 ], [ -1.628216532999943, 48.093757931000027 ], [ -1.628207359999976, 48.093750278000073 ], [ -1.628163349999966, 48.093775009000069 ] ] ] } },
{ "type": "Feature", "properties": { "OBJECTID": 43, "OBJECTID_1": 43, "OBJECTID_12": 43, "FID_TOUR_GALETTE_RDC": 44, "Salle": "Info locale", "Etage": 0, "Hauteur": 1, "Typologie": "Service", "Shape_Length": 0.00033047089142271898, "Shape_Area": 5.3871666109006579e-09 }, "geometry": { "type": "Polygon", "coordinates": [ [ [ -1.628118085999972, 48.093679196000039 ], [ -1.628073265999944, 48.093704456000069 ], [ -1.628163349999966, 48.093775009000069 ], [ -1.628207359999976, 48.093750278000073 ], [ -1.628195158999972, 48.093740558000036 ], [ -1.628118085999972, 48.093679196000039 ] ] ] } },
{ "type": "Feature", "properties": { "OBJECTID": 44, "OBJECTID_1": 44, "OBJECTID_12": 44, "FID_TOUR_GALETTE_RDC": 45, "Salle": "Escaliers", "Etage": 0, "Hauteur": 1, "Typologie": "Accès", "Shape_Length": 0.00024481681749257919, "Shape_Area": 2.1808030388284551e-09 }, "geometry": { "type": "Polygon", "coordinates": [ [ [ -1.628118085999972, 48.093679196000039 ], [ -1.628195158999972, 48.093740558000036 ], [ -1.628215660999956, 48.093728827000064 ], [ -1.628138364999927, 48.093666970000072 ], [ -1.628118085999972, 48.093679196000039 ] ] ] } },
{ "type": "Feature", "properties": { "OBJECTID": 45, "OBJECTID_1": 45, "OBJECTID_12": 45, "FID_TOUR_GALETTE_RDC": 46, "Salle": "C Duprat", "Etage": 0, "Hauteur": 1, "Typologie": "Bureau", "Shape_Length": 0.00023462872407874124, "Shape_Area": 3.1312984264275496e-09 }, "geometry": { "type": "Polygon", "coordinates": [ [ [ -1.628759480999975, 48.09372404700008 ], [ -1.628744832999928, 48.093733558000054 ], [ -1.628782108999928, 48.093763078000052 ], [ -1.628842219999967, 48.093729272000076 ], [ -1.628804291999927, 48.093698299000039 ], [ -1.628759480999975, 48.09372404700008 ] ] ] } },
{ "type": "Feature", "properties": { "OBJECTID": 46, "OBJECTID_1": 46, "OBJECTID_12": 46, "FID_TOUR_GALETTE_RDC": 47, "Salle": "N Le Gal - C Besnard", "Etage": 0, "Hauteur": 1, "Typologie": "Bureau", "Shape_Length": 0.00023703862524616747, "Shape_Area": 2.9130378917476548e-09 }, "geometry": { "type": "Polygon", "coordinates": [ [ [ -1.628804291999927, 48.093698299000039 ], [ -1.628764573999945, 48.093667570000036 ], [ -1.628705623999963, 48.093700740000031 ], [ -1.628730996999934, 48.093721852000044 ], [ -1.628746326999931, 48.093713346000072 ], [ -1.628759480999975, 48.09372404700008 ], [ -1.628760628999942, 48.093723305000026 ], [ -1.628804291999927, 48.093698299000039 ] ] ] } },
{ "type": "Feature", "properties": { "OBJECTID": 47, "OBJECTID_1": 47, "OBJECTID_12": 47, "FID_TOUR_GALETTE_RDC": 48, "Salle": "Atelier Le Scoff", "Etage": 0, "Hauteur": 1, "Typologie": "Atelier", "Shape_Length": 0.0001735846141682218, "Shape_Area": 1.6238241919604081e-09 }, "geometry": { "type": "Polygon", "coordinates": [ [ [ -1.628604328999927, 48.093704421000041 ], [ -1.628629951999926, 48.09372525200007 ], [ -1.628651127999944, 48.093712143000062 ], [ -1.628652360999979, 48.093712972000048 ], [ -1.628676682999981, 48.093699156000071 ], [ -1.62865026999998, 48.093678573000034 ], [ -1.628604328999927, 48.093704421000041 ] ] ] } },
{ "type": "Feature", "properties": { "OBJECTID": 48, "OBJECTID_1": 48, "OBJECTID_12": 48, "FID_TOUR_GALETTE_RDC": 49, "Salle": "C Poinsaint", "Etage": 0, "Hauteur": 1, "Typologie": "Bureau", "Shape_Length": 0.00017162496905542013, "Shape_Area": 1.6200650494035582e-09 }, "geometry": { "type": "Polygon", "coordinates": [ [ [ -1.628578564999941, 48.093683905000034 ], [ -1.628604328999927, 48.093704421000041 ], [ -1.628650252999932, 48.093678554000064 ], [ -1.628624388999924, 48.09365772600006 ], [ -1.628578564999941, 48.093683905000034 ] ] ] } },
{ "type": "Feature", "properties": { "OBJECTID": 49, "OBJECTID_1": 49, "OBJECTID_12": 49, "FID_TOUR_GALETTE_RDC": 50, "Salle": "Gestion de parc", "Etage": 0, "Hauteur": 1, "Typologie": "Service", "Shape_Length": 0.00055985977590237252, "Shape_Area": 1.2727305457962197e-08 }, "geometry": { "type": "Polygon", "coordinates": [ [ [ -1.628407730999925, 48.093761819000065 ], [ -1.62847249999993, 48.093813534000049 ], [ -1.628503330999933, 48.093796118000057 ], [ -1.628564585999925, 48.093761441000026 ], [ -1.628564924999978, 48.093761710000081 ], [ -1.628629951999926, 48.09372525200007 ], [ -1.628564135999966, 48.093673748000072 ], [ -1.628500066999948, 48.093709815000068 ], [ -1.628512822999937, 48.09372028000007 ], [ -1.628512802999978, 48.093720287000053 ], [ -1.628450563999934, 48.09375559700004 ], [ -1.628437476999977, 48.093744991000051 ], [ -1.628407730999925, 48.093761819000065 ] ] ] } },
{ "type": "Feature", "properties": { "OBJECTID": 50, "OBJECTID_1": 50, "OBJECTID_12": 50, "FID_TOUR_GALETTE_RDC": 51, "Salle": "C Thubert", "Etage": 0, "Hauteur": 1, "Typologie": "Bureau", "Shape_Length": 0.00020864298792208321, "Shape_Area": 1.9369483719669648e-09 }, "geometry": { "type": "Polygon", "coordinates": [ [ [ -1.628564135999966, 48.093673748000072 ], [ -1.628577747999941, 48.093684382000049 ], [ -1.628578564999941, 48.093683905000034 ], [ -1.628624388999924, 48.09365772600006 ], [ -1.628597737999939, 48.093637154000078 ], [ -1.628551042999959, 48.093663324000033 ], [ -1.628536211999972, 48.093671642000061 ], [ -1.628549311999961, 48.093681802000049 ], [ -1.628564135999966, 48.093673748000072 ] ] ] } },
{ "type": "Feature", "properties": { "OBJECTID": 51, "OBJECTID_1": 51, "OBJECTID_12": 51, "FID_TOUR_GALETTE_RDC": 52, "Salle": "Convivialité", "Etage": 0, "Hauteur": 1, "Typologie": "Pause", "Shape_Length": 0.00027708563252876238, "Shape_Area": 4.4476666295950482e-09 }, "geometry": { "type": "Polygon", "coordinates": [ [ [ -1.628398205999929, 48.093712695000079 ], [ -1.628450563999934, 48.09375559700004 ], [ -1.628512802999978, 48.093720287000053 ], [ -1.628485753999939, 48.093699229000038 ], [ -1.628459175999978, 48.093678547000081 ], [ -1.628398205999929, 48.093712695000079 ] ] ] } },
{ "type": "Feature", "properties": { "OBJECTID": 52, "OBJECTID_1": 52, "OBJECTID_12": 52, "FID_TOUR_GALETTE_RDC": 53, "Salle": "Atelier l'odet", "Etage": 0, "Hauteur": 1, "Typologie": "Atelier", "Shape_Length": 0.00017191493740235407, "Shape_Area": 1.6606387505532649e-09 }, "geometry": { "type": "Polygon", "coordinates": [ [ [ -1.628398205999929, 48.093712695000079 ], [ -1.628367233999938, 48.093731184000035 ], [ -1.628407730999925, 48.093761819000065 ], [ -1.62843750899998, 48.093744928000035 ], [ -1.628398205999929, 48.093712695000079 ] ] ] } },
{ "type": "Feature", "properties": { "OBJECTID": 53, "OBJECTID_1": 53, "OBJECTID_12": 53, "FID_TOUR_GALETTE_RDC": 54, "Salle": "Atelier leguer", "Etage": 0, "Hauteur": 1, "Typologie": "Atelier", "Shape_Length": 0.00013644954386730942, "Shape_Area": 1.0700275634842261e-09 }, "geometry": { "type": "Polygon", "coordinates": [ [ [ -1.628459175999978, 48.093678547000081 ], [ -1.628485753999939, 48.093699229000038 ], [ -1.628515978999928, 48.093682084000079 ], [ -1.628490170999953, 48.093661829000041 ], [ -1.628459175999978, 48.093678547000081 ] ] ] } },
{ "type": "Feature", "properties": { "OBJECTID": 54, "OBJECTID_1": 54, "OBJECTID_12": 54, "FID_TOUR_GALETTE_RDC": 55, "Salle": "Atelier le couesnon", "Etage": 0, "Hauteur": 1, "Typologie": "Atelier", "Shape_Length": 0.00014783651467357805, "Shape_Area": 1.2619673729773001e-09 }, "geometry": { "type": "Polygon", "coordinates": [ [ [ -1.628522983999972, 48.093641110000078 ], [ -1.628489793999961, 48.093661280000049 ], [ -1.628515978999928, 48.093682084000079 ], [ -1.628551042999959, 48.093663324000033 ], [ -1.628522983999972, 48.093641110000078 ] ] ] } },
{ "type": "Feature", "properties": { "OBJECTID": 55, "OBJECTID_1": 55, "OBJECTID_12": 55, "FID_TOUR_GALETTE_RDC": 56, "Salle": "S Messager", "Etage": 0, "Hauteur": 1, "Typologie": "Bureau", "Shape_Length": 0.00017827890020244289, "Shape_Area": 1.7571677519261692e-09 }, "geometry": { "type": "Polygon", "coordinates": [ [ [ -1.628522983999972, 48.093641110000078 ], [ -1.628551042999959, 48.093663324000033 ], [ -1.628597737999939, 48.093637154000078 ], [ -1.628570165999975, 48.093615300000067 ], [ -1.628522983999972, 48.093641110000078 ] ] ] } },
{ "type": "Feature", "properties": { "OBJECTID": 56, "OBJECTID_1": 56, "OBJECTID_12": 56, "FID_TOUR_GALETTE_RDC": 57, "Salle": "Salle belle ile", "Etage": 0, "Hauteur": 1, "Typologie": "Salles de réunion", "Shape_Length": 0.00020785547824931632, "Shape_Area": 2.2019137536881294e-09 }, "geometry": { "type": "Polygon", "coordinates": [ [ [ -1.62834145599993, 48.093710527000042 ], [ -1.628314470999953, 48.09368962700006 ], [ -1.628253918999974, 48.093724010000074 ], [ -1.628280477999965, 48.09374517100008 ], [ -1.62834145599993, 48.093710527000042 ] ] ] } },
{ "type": "Feature", "properties": { "OBJECTID": 57, "OBJECTID_1": 57, "OBJECTID_12": 57, "FID_TOUR_GALETTE_RDC": 58, "Salle": "Atelier le touques", "Etage": 0, "Hauteur": 1, "Typologie": "Atelier", "Shape_Length": 0.0001999548294123395, "Shape_Area": 2.0858283355845431e-09 }, "geometry": { "type": "Polygon", "coordinates": [ [ [ -1.62834145599993, 48.093710527000042 ], [ -1.62835423699994, 48.093719954000051 ], [ -1.628384431999962, 48.09370302800005 ], [ -1.628331489999937, 48.093662632000076 ], [ -1.628302818999941, 48.093679129000066 ], [ -1.62834145599993, 48.093710527000042 ] ] ] } },
{ "type": "Feature", "properties": { "OBJECTID": 58, "OBJECTID_1": 58, "OBJECTID_12": 58, "FID_TOUR_GALETTE_RDC": 60, "Salle": "M Gerard", "Etage": 0, "Hauteur": 1, "Typologie": "Bureau", "Shape_Length": 0.00020827744065297736, "Shape_Area": 2.2924156473134709e-09 }, "geometry": { "type": "Polygon", "coordinates": [ [ [ -1.628331489999937, 48.093662632000076 ], [ -1.628384431999962, 48.09370302800005 ], [ -1.628416638999965, 48.093685770000036 ], [ -1.628363730999979, 48.093643558000053 ], [ -1.628331489999937, 48.093662632000076 ] ] ] } },
{ "type": "Feature", "properties": { "OBJECTID": 59, "OBJECTID_1": 59, "OBJECTID_12": 59, "FID_TOUR_GALETTE_RDC": -1, "Salle": "Entrée", "Etage": 0, "Hauteur": 0, "Typologie": "Autre", "Shape_Length": 0.00084053920066399438, "Shape_Area": 3.0310134072904317e-09 }, "geometry": { "type": "Polygon", "coordinates": [ [ [ -1.629294879999975, 48.094296296000039 ], [ -1.629328715999975, 48.094324535000055 ], [ -1.629322325999965, 48.094328392000079 ], [ -1.629364281999926, 48.094361897000056 ], [ -1.629479771999968, 48.094297863000065 ], [ -1.62943497599997, 48.094262667000066 ], [ -1.629425982999976, 48.094267528000046 ], [ -1.629392594999956, 48.094241317000069 ], [ -1.629295135999939, 48.094296155000052 ], [ -1.629391638999948, 48.094241888000056 ], [ -1.629454019999969, 48.094293926000034 ], [ -1.629361480999933, 48.094346347000055 ], [ -1.629295135999939, 48.094296155000052 ], [ -1.629294879999975, 48.094296296000039 ] ] ] } },
{ "type": "Feature", "properties": { "OBJECTID": 60, "OBJECTID_1": 60, "OBJECTID_12": 60, "FID_TOUR_GALETTE_RDC": -1, "Salle": null, "Etage": 0, "Hauteur": 0, "Typologie": "", "Shape_Length": 0.0028743184693571255, "Shape_Area": 1.8773544128006455e-08 }, "geometry": { "type": "MultiPolygon", "coordinates": [ [ [ [ -1.628871019999963, 48.094355858000029 ], [ -1.628902332999928, 48.094360036000069 ], [ -1.628835594999941, 48.094396913000026 ], [ -1.628952473999959, 48.094486965000044 ], [ -1.62898443399996, 48.094468932000041 ], [ -1.628931508999926, 48.094426941000052 ], [ -1.628899883999964, 48.094445558000075 ], [ -1.628842328999951, 48.094398554000065 ], [ -1.628874319999966, 48.094381553000062 ], [ -1.628903049999963, 48.094365370000048 ], [ -1.628899374999946, 48.094362646000036 ], [ -1.629056606999939, 48.094273846000078 ], [ -1.629036210999971, 48.094258319000062 ], [ -1.628871019999963, 48.094355858000029 ] ] ], [ [ [ -1.629056606999939, 48.094273846000078 ], [ -1.629095432999975, 48.094306590000031 ], [ -1.629058742999973, 48.09427557500004 ], [ -1.629084724999927, 48.094260772000041 ], [ -1.629082336999943, 48.09425850100007 ], [ -1.629084663999947, 48.094260778000034 ], [ -1.629058704999977, 48.094275577000076 ], [ -1.629056606999939, 48.094273846000078 ] ] ], [ [ [ -1.629157696999926, 48.09427043900007 ], [ -1.629179739999927, 48.094287927000039 ], [ -1.629157718999977, 48.094270417000075 ], [ -1.629157696999926, 48.09427043900007 ] ] ], [ [ [ -1.629082336999943, 48.09425850100007 ], [ -1.629117429999951, 48.094238525000037 ], [ -1.629157718999977, 48.094270417000075 ], [ -1.629114939999965, 48.094236400000057 ], [ -1.629117451999946, 48.09423842700005 ], [ -1.629082336999943, 48.09425850100007 ] ] ], [ [ [ -1.629149942999959, 48.094218461000025 ], [ -1.629147119999971, 48.094219987000031 ], [ -1.629144130999975, 48.094217884000045 ], [ -1.62914114299997, 48.094219599000041 ], [ -1.629187350999928, 48.094255016000034 ], [ -1.629218588999947, 48.094237259000067 ], [ -1.62918386299998, 48.094207580000045 ], [ -1.629246320999926, 48.094172357000048 ], [ -1.629296497999974, 48.094211963000078 ], [ -1.629257028999973, 48.094180793000078 ], [ -1.629280047999941, 48.094167619000075 ], [ -1.629297297999926, 48.094181721000041 ], [ -1.629303039999968, 48.094178614000043 ], [ -1.629324674999964, 48.094196302000057 ], [ -1.629296497999974, 48.094211963000078 ], [ -1.629305779999925, 48.094219294000027 ], [ -1.629349809999951, 48.094194579000032 ], [ -1.629299944999957, 48.094156672000054 ], [ -1.62933424299996, 48.094136791000039 ], [ -1.629323844999931, 48.094128428000033 ], [ -1.629402476999928, 48.094084572000042 ], [ -1.629525710999928, 48.094013251000035 ], [ -1.629555800999981, 48.094037565000065 ], [ -1.629520012999933, 48.094007638000051 ], [ -1.629357585999969, 48.094104165000033 ], [ -1.629317518999926, 48.094092219000061 ], [ -1.629169274999924, 48.09417975100007 ], [ -1.629189597999925, 48.094196003000036 ], [ -1.629149942999959, 48.094218461000025 ] ] ], [ [ [ -1.629089381999961, 48.094226924000054 ], [ -1.629106749999949, 48.094240887000069 ], [ -1.629089712999928, 48.094226728000081 ], [ -1.629089381999961, 48.094226924000054 ] ] ], [ [ [ -1.629130214999975, 48.094202814000028 ], [ -1.629149942999959, 48.094218461000025 ], [ -1.629130988999975, 48.094202357000029 ], [ -1.629130214999975, 48.094202814000028 ] ] ] ] } },
{ "type": "Feature", "properties": { "OBJECTID": 61, "OBJECTID_1": 61, "OBJECTID_12": 61, "FID_TOUR_GALETTE_RDC": -1, "Salle": "Open Space", "Etage": 0, "Hauteur": 0, "Typologie": "Bureau", "Shape_Length": 0.011745918151329396, "Shape_Area": 3.4449078998654773e-07 }, "geometry": { "type": "MultiPolygon", "coordinates": [ [ [ [ -1.629317518999926, 48.094092219000061 ], [ -1.628494408999927, 48.093451232000064 ], [ -1.628153382999926, 48.093639560000042 ], [ -1.628097263999962, 48.093593403000057 ], [ -1.627984105999928, 48.09365246200008 ], [ -1.628153826999949, 48.093787324000061 ], [ -1.628357846999961, 48.09395057100005 ], [ -1.628405559999976, 48.093988357000057 ], [ -1.628860924999969, 48.094348143000047 ], [ -1.628871019999963, 48.094355858000029 ], [ -1.629036210999971, 48.094258319000062 ], [ -1.628999402999966, 48.09423029800007 ], [ -1.629054676999942, 48.094198997000035 ], [ -1.629089381999961, 48.094226924000054 ], [ -1.629089712999928, 48.094226728000081 ], [ -1.629087325999933, 48.094224746000066 ], [ -1.62912855899998, 48.094201500000054 ], [ -1.629130214999975, 48.094202814000028 ], [ -1.629130988999975, 48.094202357000029 ], [ -1.629123598999968, 48.094196079000028 ], [ -1.629096278999953, 48.094174489000068 ], [ -1.629135390999977, 48.094152469000051 ], [ -1.629162280999935, 48.094174159000033 ], [ -1.629169274999924, 48.09417975100007 ], [ -1.629317518999926, 48.094092219000061 ] ], [ [ -1.628865834999942, 48.09395188600007 ], [ -1.628874405999966, 48.093946574000029 ], [ -1.62892721999998, 48.093988742000079 ], [ -1.628880913999978, 48.094014042000026 ], [ -1.628852970999958, 48.093989953000062 ], [ -1.628888099999926, 48.09396965500008 ], [ -1.628865834999942, 48.09395188600007 ] ], [ [ -1.628933793999977, 48.093912713000066 ], [ -1.628986146999978, 48.093953955000075 ], [ -1.628945469999962, 48.093977021000057 ], [ -1.628892773999951, 48.09393521100003 ], [ -1.62886857999996, 48.09391521200007 ], [ -1.628908396999975, 48.093891717000076 ], [ -1.628933793999977, 48.093912713000066 ] ], [ [ -1.62842481499996, 48.093982284000049 ], [ -1.62854652599998, 48.093912186000068 ], [ -1.628679876999968, 48.094017711000049 ], [ -1.628556608999929, 48.094087233000039 ], [ -1.62842481499996, 48.093982284000049 ] ], [ [ -1.628454996999949, 48.093841298000029 ], [ -1.628520685999945, 48.093893269000034 ], [ -1.628399293999962, 48.093961516000036 ], [ -1.628293696999947, 48.093878275000066 ], [ -1.628163349999966, 48.093775009000069 ], [ -1.628073265999944, 48.093704456000069 ], [ -1.628118085999972, 48.093679196000039 ], [ -1.628138364999927, 48.093666970000072 ], [ -1.628215660999956, 48.093728827000064 ], [ -1.628195158999972, 48.093740558000036 ], [ -1.628207359999976, 48.093750278000073 ], [ -1.628216532999943, 48.093757931000027 ], [ -1.628232535999928, 48.093748899000047 ], [ -1.628274511999962, 48.093783 ], [ -1.628337009999939, 48.093747225000072 ], [ -1.62839024799996, 48.093788754000059 ], [ -1.628416085999959, 48.093810181000038 ], [ -1.628454996999949, 48.093841298000029 ] ], [ [ -1.62859427799998, 48.093868945000054 ], [ -1.62856411599995, 48.093886410000039 ], [ -1.628525410999941, 48.093855139000027 ], [ -1.628555127999959, 48.093837834000055 ], [ -1.628632363999941, 48.093794633000073 ], [ -1.628670844999931, 48.093825477000053 ], [ -1.62859427799998, 48.093868945000054 ] ], [ [ -1.628541766999945, 48.09382793900005 ], [ -1.628511200999981, 48.093845116000068 ], [ -1.62847249999993, 48.093813534000049 ], [ -1.628407730999925, 48.093761819000065 ], [ -1.628367233999938, 48.093731184000035 ], [ -1.628398205999929, 48.093712695000079 ], [ -1.628459175999978, 48.093678547000081 ], [ -1.628490170999953, 48.093661829000041 ], [ -1.628515978999928, 48.093682084000079 ], [ -1.628489793999961, 48.093661280000049 ], [ -1.628522983999972, 48.093641110000078 ], [ -1.628570165999975, 48.093615300000067 ], [ -1.628597737999939, 48.093637154000078 ], [ -1.628624388999924, 48.09365772600006 ], [ -1.628650252999932, 48.093678554000064 ], [ -1.628604328999927, 48.093704421000041 ], [ -1.62865026999998, 48.093678573000034 ], [ -1.628676682999981, 48.093699156000071 ], [ -1.628652360999979, 48.093712972000048 ], [ -1.628651127999944, 48.093712143000062 ], [ -1.628678450999928, 48.093733293000071 ], [ -1.628675813999962, 48.093753008000078 ], [ -1.628661799999975, 48.093760921000069 ], [ -1.62862397899994, 48.093781961000047 ], [ -1.628584949999947, 48.093751222000037 ], [ -1.62862249799997, 48.093729842000073 ], [ -1.628624302999924, 48.093728769000052 ], [ -1.628651127999944, 48.093712143000062 ], [ -1.628629951999926, 48.09372525200007 ], [ -1.628564924999978, 48.093761710000081 ], [ -1.628604295999935, 48.09379300900008 ], [ -1.628541766999945, 48.09382793900005 ] ], [ [ -1.62834145599993, 48.093710527000042 ], [ -1.628280477999965, 48.09374517100008 ], [ -1.628253918999974, 48.093724010000074 ], [ -1.628314470999953, 48.09368962700006 ], [ -1.62834145599993, 48.093710527000042 ], [ -1.628302818999941, 48.093679129000066 ], [ -1.628331489999937, 48.093662632000076 ], [ -1.628363730999979, 48.093643558000053 ], [ -1.628416638999965, 48.093685770000036 ], [ -1.628384431999962, 48.09370302800005 ], [ -1.62835423699994, 48.093719954000051 ], [ -1.62834145599993, 48.093710527000042 ] ], [ [ -1.628759480999975, 48.09372404700008 ], [ -1.628746326999931, 48.093713346000072 ], [ -1.628730996999934, 48.093721852000044 ], [ -1.628705623999963, 48.093700740000031 ], [ -1.628764573999945, 48.093667570000036 ], [ -1.628804291999927, 48.093698299000039 ], [ -1.628842219999967, 48.093729272000076 ], [ -1.628782108999928, 48.093763078000052 ], [ -1.628744832999928, 48.093733558000054 ], [ -1.628759480999975, 48.09372404700008 ] ], [ [ -1.628745121999941, 48.093796305000069 ], [ -1.628696735999938, 48.093758137000066 ], [ -1.628699152999957, 48.093738741000038 ], [ -1.628719341999954, 48.093727834000049 ], [ -1.628783257999942, 48.093779913000049 ], [ -1.628749439999979, 48.093799721000039 ], [ -1.628773824999939, 48.093785546000049 ], [ -1.628799768999954, 48.093806469000072 ], [ -1.628826300999947, 48.093827489000034 ], [ -1.628785701999959, 48.09385052500005 ], [ -1.628759493999951, 48.093829546000052 ], [ -1.62872968399995, 48.09380541400003 ], [ -1.628745121999941, 48.093796305000069 ] ], [ [ -1.628736222999976, 48.094023588000027 ], [ -1.628758708999953, 48.094010938000054 ], [ -1.628838382999959, 48.094073974000025 ], [ -1.628815256999928, 48.09408712700008 ], [ -1.628736222999976, 48.094023588000027 ] ], [ [ -1.629064660999973, 48.094016185000044 ], [ -1.629024524999977, 48.094039137000038 ], [ -1.628999482999973, 48.094017479000058 ], [ -1.629038583999943, 48.093995410000048 ], [ -1.629064660999973, 48.094016185000044 ], [ -1.629091050999932, 48.094036863000042 ], [ -1.629117151999935, 48.09405765300005 ], [ -1.629143033999981, 48.094078538000076 ], [ -1.629103360999977, 48.094101187000035 ], [ -1.629076770999973, 48.094080561000055 ], [ -1.629053020999947, 48.094060127000034 ], [ -1.629054698999937, 48.094058812000071 ], [ -1.629053923999948, 48.094057947000067 ], [ -1.629052184999978, 48.094056321000039 ], [ -1.629049058999954, 48.094058646000065 ], [ -1.629024543999947, 48.094039166000073 ], [ -1.629064660999973, 48.094016185000044 ] ], [ [ -1.628934524999977, 48.094053970000061 ], [ -1.628978872999937, 48.094028971000057 ], [ -1.629031052999949, 48.094070337000062 ], [ -1.628986499999939, 48.094095568000057 ], [ -1.628883490999954, 48.094153215000063 ], [ -1.62883192399994, 48.094111794000071 ], [ -1.628934524999977, 48.094053970000061 ] ], [ [ -1.62894096499997, 48.094143820000056 ], [ -1.629029291999927, 48.094094429000052 ], [ -1.629066120999937, 48.094124719000035 ], [ -1.628975781999941, 48.094175599000039 ], [ -1.62894096499997, 48.094143820000056 ] ], [ [ -1.628877003999946, 48.094228117000057 ], [ -1.628834538999968, 48.09419444200006 ], [ -1.628878585999928, 48.094169627000042 ], [ -1.628916980999975, 48.094205098000032 ], [ -1.628877003999946, 48.094228117000057 ], [ -1.628917089999959, 48.094205142000078 ], [ -1.62894336599993, 48.094226341000081 ], [ -1.628903283999932, 48.094249227000034 ], [ -1.628943388999971, 48.094226352000078 ], [ -1.628969652999956, 48.094246787000031 ], [ -1.628929083999935, 48.094270112000061 ], [ -1.628903283999932, 48.094249227000034 ], [ -1.628877003999946, 48.094228117000057 ] ], [ [ -1.628838591999966, 48.094143253000027 ], [ -1.628865041999973, 48.09416402100004 ], [ -1.628824239999972, 48.094186800000045 ], [ -1.628798373999928, 48.094166174000065 ], [ -1.628772003999927, 48.094145324000067 ], [ -1.62881250099997, 48.094122132000052 ], [ -1.628838591999966, 48.094143253000027 ] ] ], [ [ [ -1.628326915999935, 48.093823733000079 ], [ -1.628326896999965, 48.093823739000072 ], [ -1.628353287999971, 48.093845400000077 ], [ -1.628326915999935, 48.093823733000079 ] ] ], [ [ [ -1.628416085999959, 48.093810181000038 ], [ -1.628353287999971, 48.093845400000077 ], [ -1.628384350999966, 48.093828259000077 ], [ -1.628416085999959, 48.093810181000038 ] ] ], [ [ [ -1.628398205999929, 48.093712695000079 ], [ -1.62843750899998, 48.093744928000035 ], [ -1.628407730999925, 48.093761819000065 ], [ -1.628437476999977, 48.093744991000051 ], [ -1.628450563999934, 48.09375559700004 ], [ -1.628398205999929, 48.093712695000079 ] ] ], [ [ [ -1.628564135999966, 48.093673748000072 ], [ -1.628629951999926, 48.09372525200007 ], [ -1.628604328999927, 48.093704421000041 ], [ -1.628578564999941, 48.093683905000034 ], [ -1.628577747999941, 48.093684382000049 ], [ -1.628564135999966, 48.093673748000072 ] ] ], [ [ [ -1.628485753999939, 48.093699229000038 ], [ -1.628512802999978, 48.093720287000053 ], [ -1.628512822999937, 48.09372028000007 ], [ -1.628500066999948, 48.093709815000068 ], [ -1.628564135999966, 48.093673748000072 ], [ -1.628549311999961, 48.093681802000049 ], [ -1.628536211999972, 48.093671642000061 ], [ -1.628551042999959, 48.093663324000033 ], [ -1.628515978999928, 48.093682084000079 ], [ -1.628485753999939, 48.093699229000038 ] ] ] ] } },
{ "type": "Feature", "properties": { "OBJECTID": 70, "OBJECTID_1": 70, "OBJECTID_12": null, "FID_TOUR_GALETTE_RDC": null, "Salle": "Ascenseur", "Etage": 0, "Hauteur": 1, "Typologie": "Accès", "Shape_Length": 9.7213373401479136e-05, "Shape_Area": 5.5121049423596277e-10 }, "geometry": { "type": "Polygon", "coordinates": [ [ [ -1.629442610999945, 48.094128555000054 ], [ -1.629424468999957, 48.094113382000046 ], [ -1.629402698999968, 48.09412509200007 ], [ -1.629421664999938, 48.094140760000073 ], [ -1.629442610999945, 48.094128555000054 ] ] ] } }
]
}
