{
"type": "FeatureCollection",
"name": "TOUR_GALETTE_5EME",
"features": [
{ "type": "Feature", "id": 1, "properties": { "OBJECTID": 1, "FID": 0, "FID_TOUR_5": -1, "Shape_Leng": 0.0, "Salle": null, "Etage": 0, "Hauteur": 0, "Typologie": null, "Shape_Length": 0.0057035544792801334, "Shape_Area": 4.4110811600052996e-08 }, "geometry": { "type": "Polygon", "coordinates": [ [ [ -1.628952473999959, 48.094486964000055 ], [ -1.629048636999926, 48.094432705000031 ], [ -1.629321269999934, 48.09427325300004 ], [ -1.629573941999979, 48.094131713000081 ], [ -1.62963326299996, 48.094102338000027 ], [ -1.629520012999933, 48.094007637000061 ], [ -1.629357588999937, 48.094104163000054 ], [ -1.62890232999996, 48.094360036000069 ], [ -1.628835594999941, 48.094396912000036 ], [ -1.628952473999959, 48.094486964000055 ] ], [ [ -1.628898036999942, 48.094441113000073 ], [ -1.628841911999928, 48.094396060000065 ], [ -1.628872586999933, 48.094378664000033 ], [ -1.628914145999943, 48.094412037000041 ], [ -1.628928974999951, 48.094423577000043 ], [ -1.628898036999942, 48.094441113000073 ] ], [ [ -1.628938479999931, 48.094344350000028 ], [ -1.629149635999966, 48.094224646000043 ], [ -1.629178331999981, 48.094247697000071 ], [ -1.629172142999948, 48.094251203000056 ], [ -1.62916361799995, 48.094256032000033 ], [ -1.62921167199994, 48.094294609000031 ], [ -1.629225581999947, 48.094286679000049 ], [ -1.629233661999933, 48.094292108000047 ], [ -1.629255316999945, 48.094309527000064 ], [ -1.629044184999941, 48.094429225000056 ], [ -1.628938479999931, 48.094344350000028 ] ], [ [ -1.62932830799997, 48.094236314000057 ], [ -1.629387963999932, 48.094202505000055 ], [ -1.629411201999972, 48.094221170000026 ], [ -1.629351560999964, 48.094254979000027 ], [ -1.62932830799997, 48.094236314000057 ] ], [ [ -1.629292178999947, 48.094180840000035 ], [ -1.629297796999936, 48.094177655000067 ], [ -1.629316890999974, 48.094192982000038 ], [ -1.629290229999924, 48.094208078000065 ], [ -1.629271156999948, 48.094192763000081 ], [ -1.629269335999936, 48.09419130100008 ], [ -1.629254010999944, 48.09417899500005 ], [ -1.629275091999943, 48.094167066000068 ], [ -1.629290400999935, 48.094179356000041 ], [ -1.629292178999947, 48.094180840000035 ] ], [ [ -1.629335651999952, 48.094185549000031 ], [ -1.629336735999971, 48.094184935000044 ], [ -1.629298028999926, 48.094153865000067 ], [ -1.629330103999962, 48.094135687000062 ], [ -1.629385559999946, 48.094180206000033 ], [ -1.629352719999929, 48.094198817000063 ], [ -1.629335651999952, 48.094185549000031 ] ], [ [ -1.629322221999928, 48.094126810000034 ], [ -1.62934174399993, 48.094115745000067 ], [ -1.629393461999939, 48.094157233000033 ], [ -1.629399022999962, 48.094154085000071 ], [ -1.629412947999924, 48.094164851000073 ], [ -1.629387086999941, 48.094179515000064 ], [ -1.629322221999928, 48.094126810000034 ] ], [ [ -1.629342980999979, 48.094115041000066 ], [ -1.629388238999979, 48.094089398000051 ], [ -1.629416273999936, 48.094111918000067 ], [ -1.629393965999952, 48.094124564000026 ], [ -1.629394093999963, 48.094124669000053 ], [ -1.629397730999926, 48.094127589000038 ], [ -1.629374800999926, 48.094140587000027 ], [ -1.629342980999979, 48.094115041000066 ] ], [ [ -1.629390545999968, 48.094088076000048 ], [ -1.629437161999931, 48.094061655000075 ], [ -1.629519062999975, 48.094014863000041 ], [ -1.629549298999962, 48.094039425000062 ], [ -1.629466597999965, 48.094084587000054 ], [ -1.629454542999952, 48.094091596000055 ], [ -1.62946115699998, 48.094097221000027 ], [ -1.629425243999947, 48.094117537000045 ], [ -1.629390545999968, 48.094088076000048 ] ], [ [ -1.629554026999926, 48.094062286000053 ], [ -1.629561302999946, 48.094068143000072 ], [ -1.629571708999947, 48.094077033000076 ], [ -1.629555479999965, 48.094086185000037 ], [ -1.629537834999951, 48.094071561000078 ], [ -1.629554026999926, 48.094062286000053 ] ], [ [ -1.629598574999932, 48.094079387000079 ], [ -1.629624539999952, 48.094100232000073 ], [ -1.629504316999942, 48.094168384000056 ], [ -1.629470889999936, 48.094142336000061 ], [ -1.629476799999964, 48.094138974000032 ], [ -1.629482702999951, 48.094143043000031 ], [ -1.629524603999926, 48.094119524000064 ], [ -1.629541329999938, 48.094110046000026 ], [ -1.629577903999973, 48.094089316000066 ], [ -1.629598574999932, 48.094079387000079 ] ], [ [ -1.629502769999931, 48.094169264000072 ], [ -1.629473803999929, 48.09418568500007 ], [ -1.629450548999955, 48.094167023000068 ], [ -1.629479520999951, 48.094150598000056 ], [ -1.629502769999931, 48.094169264000072 ] ], [ [ -1.629472248999946, 48.09418656500003 ], [ -1.629443275999961, 48.094202989000053 ], [ -1.62942002799997, 48.094184325000072 ], [ -1.629449023999939, 48.094167897000034 ], [ -1.629472248999946, 48.09418656500003 ] ], [ [ -1.629441719999932, 48.094203865000054 ], [ -1.629412755999965, 48.094220292000045 ], [ -1.629389509999953, 48.09420162400005 ], [ -1.629418486999953, 48.094185202000062 ], [ -1.629441719999932, 48.094203865000054 ] ], [ [ -1.629416857999956, 48.094139336000069 ], [ -1.629398935999973, 48.094124949000047 ], [ -1.629417218999947, 48.094114586000046 ], [ -1.629435139999941, 48.094128973000068 ], [ -1.629416857999956, 48.094139336000069 ] ], [ [ -1.629425959999935, 48.094118 ], [ -1.62944702599998, 48.094106052000029 ], [ -1.629466015999981, 48.09412138600004 ], [ -1.629445048999969, 48.094133346000035 ], [ -1.629425959999935, 48.094118 ] ], [ [ -1.62947447099998, 48.094102407000037 ], [ -1.629502980999973, 48.094086248000053 ], [ -1.629523627999959, 48.09410282500005 ], [ -1.62949512199998, 48.094118986000069 ], [ -1.62947447099998, 48.094102407000037 ] ], [ [ -1.629504846999964, 48.094086074000074 ], [ -1.629533541999933, 48.094069829000034 ], [ -1.629554298999949, 48.094086497000035 ], [ -1.629525647999969, 48.094102748000068 ], [ -1.629504846999964, 48.094086074000074 ] ], [ [ -1.629318868999974, 48.094273509000061 ], [ -1.629271522999943, 48.094300352000062 ], [ -1.629229060999933, 48.094266384000036 ], [ -1.629276255999969, 48.094239321000032 ], [ -1.629318868999974, 48.094273509000061 ] ] ] } },
{ "type": "Feature", "id": 2, "properties": { "OBJECTID": 2, "FID": 1, "FID_TOUR_5": 1, "Shape_Leng": 22.855889763499999, "Salle": "Innovation R&D", "Etage": 5, "Hauteur": 1, "Typologie": "Service", "Shape_Length": 0.00026482355685657986, "Shape_Area": 3.32617162036653e-09 }, "geometry": { "type": "Polygon", "coordinates": [ [ [ -1.629437161999931, 48.094061655000075 ], [ -1.629466597999965, 48.094084587000054 ], [ -1.629549298999962, 48.094039425000062 ], [ -1.629519062999975, 48.094014863000041 ], [ -1.629437161999931, 48.094061655000075 ] ] ] } },
{ "type": "Feature", "id": 3, "properties": { "OBJECTID": 3, "FID": 2, "FID_TOUR_5": 2, "Shape_Leng": 17.560619740500002, "Salle": "Communication Groupe", "Etage": 5, "Hauteur": 1, "Typologie": "Service", "Shape_Length": 0.00020030340791383935, "Shape_Area": 2.218687272182047e-09 }, "geometry": { "type": "Polygon", "coordinates": [ [ [ -1.629437161999931, 48.094061655000075 ], [ -1.629390545999968, 48.094088076000048 ], [ -1.629425243999947, 48.094117537000045 ], [ -1.62946115699998, 48.094097221000027 ], [ -1.629454542999952, 48.094091596000055 ], [ -1.629466597999965, 48.094084587000054 ], [ -1.629437161999931, 48.094061655000075 ] ] ] } },
{ "type": "Feature", "id": 4, "properties": { "OBJECTID": 4, "FID": 3, "FID_TOUR_5": 3, "Shape_Leng": 8.5390527489599997, "Salle": "Espace Repro", "Etage": 5, "Hauteur": 1, "Typologie": "Autre", "Shape_Length": 9.7257355027537758e-05, "Shape_Area": 5.4999129376375827e-10 }, "geometry": { "type": "Polygon", "coordinates": [ [ [ -1.629425959999935, 48.094118 ], [ -1.629445048999969, 48.094133346000035 ], [ -1.629466015999981, 48.09412138600004 ], [ -1.62944702599998, 48.094106052000029 ], [ -1.629425959999935, 48.094118 ] ] ] } },
{ "type": "Feature", "id": 5, "properties": { "OBJECTID": 5, "FID": 4, "FID_TOUR_5": 4, "Shape_Leng": 7.7307538766999997, "Salle": "Ascenseur", "Etage": 5, "Hauteur": 1, "Typologie": "Accès", "Shape_Length": 8.7994261917396583e-05, "Shape_Area": 4.4875083200912689e-10 }, "geometry": { "type": "Polygon", "coordinates": [ [ [ -1.629398935999973, 48.094124949000047 ], [ -1.629416857999956, 48.094139336000069 ], [ -1.629435139999941, 48.094128973000068 ], [ -1.629417218999947, 48.094114586000046 ], [ -1.629398935999973, 48.094124949000047 ] ] ] } },
{ "type": "Feature", "id": 6, "properties": { "OBJECTID": 6, "FID": 5, "FID_TOUR_5": 5, "Shape_Leng": 16.218416379800001, "Salle": "Sanitaires femmes", "Etage": 5, "Hauteur": 1, "Typologie": "Toilettes", "Shape_Length": 0.00018561398418958579, "Shape_Area": 1.8565202997490998e-09 }, "geometry": { "type": "Polygon", "coordinates": [ [ [ -1.629342980999979, 48.094115041000066 ], [ -1.629374800999926, 48.094140587000027 ], [ -1.629397730999926, 48.094127589000038 ], [ -1.629394093999963, 48.094124669000053 ], [ -1.629393965999952, 48.094124564000026 ], [ -1.629416273999936, 48.094111918000067 ], [ -1.629388238999979, 48.094089398000051 ], [ -1.629342980999979, 48.094115041000066 ] ] ] } },
{ "type": "Feature", "id": 7, "properties": { "OBJECTID": 7, "FID": 6, "FID_TOUR_5": 7, "Shape_Leng": 20.149099635599999, "Salle": "Sanitaires hommes", "Etage": 5, "Hauteur": 1, "Typologie": "Toilettes", "Shape_Length": 0.0002260410236258807, "Shape_Area": 1.8749810696972938e-09 }, "geometry": { "type": "Polygon", "coordinates": [ [ [ -1.629387086999941, 48.094179515000064 ], [ -1.629412947999924, 48.094164851000073 ], [ -1.629399022999962, 48.094154085000071 ], [ -1.629393461999939, 48.094157233000033 ], [ -1.62934174399993, 48.094115745000067 ], [ -1.629322221999928, 48.094126810000034 ], [ -1.629387086999941, 48.094179515000064 ] ] ] } },
{ "type": "Feature", "id": 8, "properties": { "OBJECTID": 8, "FID": 7, "FID_TOUR_5": 8, "Shape_Leng": 19.323206096, "Salle": "Escaliers", "Etage": 5, "Hauteur": 1, "Typologie": "Accès", "Shape_Length": 0.00021822836461020054, "Shape_Area": 2.4571292719987273e-09 }, "geometry": { "type": "Polygon", "coordinates": [ [ [ -1.629298028999926, 48.094153865000067 ], [ -1.629336735999971, 48.094184935000044 ], [ -1.629335651999952, 48.094185549000031 ], [ -1.629352719999929, 48.094198817000063 ], [ -1.629385559999946, 48.094180206000033 ], [ -1.629330103999962, 48.094135687000062 ], [ -1.629298028999926, 48.094153865000067 ] ] ] } },
{ "type": "Feature", "id": 11, "properties": { "OBJECTID": 11, "FID": 10, "FID_TOUR_5": 12, "Shape_Leng": 19.052262355, "Salle": "Escaliers extérieur (issue de Secours)", "Etage": 5, "Hauteur": 1, "Typologie": "Accès", "Shape_Length": 0.00021488768599444195, "Shape_Area": 2.3606961425607995e-09 }, "geometry": { "type": "Polygon", "coordinates": [ [ [ -1.628841911999928, 48.094396060000065 ], [ -1.628898036999942, 48.094441113000073 ], [ -1.628928974999951, 48.094423577000043 ], [ -1.628914145999943, 48.094412037000041 ], [ -1.628872586999933, 48.094378664000033 ], [ -1.628841911999928, 48.094396060000065 ] ] ] } },
{ "type": "Feature", "id": 12, "properties": { "OBJECTID": 12, "FID": 11, "FID_TOUR_5": 13, "Shape_Leng": 68.552645750899998, "Salle": "Salle Panoramique", "Etage": 5, "Hauteur": 1, "Typologie": "Service", "Shape_Length": 0.00078986992215630846, "Shape_Area": 2.9602152721225775e-08 }, "geometry": { "type": "Polygon", "coordinates": [ [ [ -1.628938479999931, 48.094344350000028 ], [ -1.629044184999941, 48.094429225000056 ], [ -1.629255316999945, 48.094309527000064 ], [ -1.629233661999933, 48.094292108000047 ], [ -1.629225581999947, 48.094286679000049 ], [ -1.62921167199994, 48.094294609000031 ], [ -1.62916361799995, 48.094256032000033 ], [ -1.629172142999948, 48.094251203000056 ], [ -1.629178331999981, 48.094247697000071 ], [ -1.629149635999966, 48.094224646000043 ], [ -1.628938479999931, 48.094344350000028 ] ] ] } },
{ "type": "Feature", "id": 13, "properties": { "OBJECTID": 13, "FID": 12, "FID_TOUR_5": 14, "Shape_Leng": 19.115840328800001, "Salle": "Cuisine", "Etage": 5, "Hauteur": 1, "Typologie": "Service", "Shape_Length": 0.0002178389960302978, "Shape_Area": 2.7573973392396652e-09 }, "geometry": { "type": "Polygon", "coordinates": [ [ [ -1.629229060999933, 48.094266384000036 ], [ -1.629271522999943, 48.094300352000062 ], [ -1.629318868999974, 48.094273509000061 ], [ -1.629276255999969, 48.094239321000032 ], [ -1.629229060999933, 48.094266384000036 ] ] ] } },
{ "type": "Feature", "id": 14, "properties": { "OBJECTID": 14, "FID": 13, "FID_TOUR_5": 15, "Shape_Leng": 17.0363857372, "Salle": "Sahara", "Etage": 5, "Hauteur": 1, "Typologie": "Salles de réunion", "Shape_Length": 0.00019675089663943995, "Shape_Area": 1.8992463605707566e-09 }, "geometry": { "type": "Polygon", "coordinates": [ [ [ -1.62932830799997, 48.094236314000057 ], [ -1.629351560999964, 48.094254979000027 ], [ -1.629411201999972, 48.094221170000026 ], [ -1.629387963999932, 48.094202505000055 ], [ -1.62932830799997, 48.094236314000057 ] ] ] } },
{ "type": "Feature", "id": 15, "properties": { "OBJECTID": 15, "FID": 14, "FID_TOUR_5": 16, "Shape_Leng": 11.053030405599999, "Salle": "Gobi", "Etage": 5, "Hauteur": 1, "Typologie": "Salles de réunion", "Shape_Length": 0.00012621953175723306, "Shape_Area": 9.2244603467711012e-10 }, "geometry": { "type": "Polygon", "coordinates": [ [ [ -1.629389509999953, 48.09420162400005 ], [ -1.629412755999965, 48.094220292000045 ], [ -1.629441719999932, 48.094203865000054 ], [ -1.629418486999953, 48.094185202000062 ], [ -1.629389509999953, 48.09420162400005 ] ] ] } },
{ "type": "Feature", "id": 16, "properties": { "OBJECTID": 16, "FID": 15, "FID_TOUR_5": 17, "Shape_Leng": 11.054693133400001, "Salle": "Danakil", "Etage": 5, "Hauteur": 1, "Typologie": "Salles de réunion", "Shape_Length": 0.00012624132052922645, "Shape_Area": 9.2270742591928699e-10 }, "geometry": { "type": "Polygon", "coordinates": [ [ [ -1.62942002799997, 48.094184325000072 ], [ -1.629443275999961, 48.094202989000053 ], [ -1.629472248999946, 48.09418656500003 ], [ -1.629449023999939, 48.094167897000034 ], [ -1.62942002799997, 48.094184325000072 ] ] ] } },
{ "type": "Feature", "id": 17, "properties": { "OBJECTID": 17, "FID": 16, "FID_TOUR_5": 19, "Shape_Leng": 11.053539515000001, "Salle": "Salle de réunion", "Etage": 5, "Hauteur": 1, "Typologie": "Salles de réunion", "Shape_Length": 0.00012623305738885515, "Shape_Area": 9.2254501199755669e-10 }, "geometry": { "type": "Polygon", "coordinates": [ [ [ -1.629450548999955, 48.094167023000068 ], [ -1.629473803999929, 48.09418568500007 ], [ -1.629502769999931, 48.094169264000072 ], [ -1.629479520999951, 48.094150598000056 ], [ -1.629450548999955, 48.094167023000068 ] ] ] } },
{ "type": "Feature", "id": 18, "properties": { "OBJECTID": 18, "FID": 17, "FID_TOUR_5": 20, "Shape_Leng": 30.927522009400001, "Salle": "SI administratif et RH", "Etage": 5, "Hauteur": 1, "Typologie": "Service", "Shape_Length": 0.00036008748440238792, "Shape_Area": 4.5344149186828628e-09 }, "geometry": { "type": "Polygon", "coordinates": [ [ [ -1.629504316999942, 48.094168384000056 ], [ -1.629624539999952, 48.094100232000073 ], [ -1.629598574999932, 48.094079387000079 ], [ -1.629577903999973, 48.094089316000066 ], [ -1.629541329999938, 48.094110046000026 ], [ -1.629524603999926, 48.094119524000064 ], [ -1.629482702999951, 48.094143043000031 ], [ -1.629476799999964, 48.094138974000032 ], [ -1.629470889999936, 48.094142336000061 ], [ -1.629504316999942, 48.094168384000056 ] ] ] } },
{ "type": "Feature", "id": 19, "properties": { "OBJECTID": 19, "FID": 18, "FID_TOUR_5": 21, "Shape_Leng": 7.35721958267, "Salle": "C.Pinel", "Etage": 5, "Hauteur": 1, "Typologie": "Bureau", "Shape_Length": 8.3236237727652234e-05, "Shape_Area": 4.0266980358032209e-10 }, "geometry": { "type": "Polygon", "coordinates": [ [ [ -1.629537834999951, 48.094071561000078 ], [ -1.629555479999965, 48.094086185000037 ], [ -1.629571708999947, 48.094077033000076 ], [ -1.629561302999946, 48.094068143000072 ], [ -1.629554026999926, 48.094062286000053 ], [ -1.629537834999951, 48.094071561000078 ] ] ] } },
{ "type": "Feature", "id": 20, "properties": { "OBJECTID": 20, "FID": 19, "FID_TOUR_5": 22, "Shape_Leng": 10.4188402163, "Salle": "Atelier 5.3", "Etage": 5, "Hauteur": 1, "Typologie": "Atelier", "Shape_Length": 0.00011919321976516772, "Shape_Area": 8.1562477543360848e-10 }, "geometry": { "type": "Polygon", "coordinates": [ [ [ -1.629504846999964, 48.094086074000074 ], [ -1.629525647999969, 48.094102748000068 ], [ -1.629554298999949, 48.094086497000035 ], [ -1.629533541999933, 48.094069829000034 ], [ -1.629504846999964, 48.094086074000074 ] ] ] } },
{ "type": "Feature", "id": 21, "properties": { "OBJECTID": 21, "FID": 20, "FID_TOUR_5": 24, "Shape_Leng": 10.3592298315, "Salle": "Atelier 5.2", "Etage": 5, "Hauteur": 1, "Typologie": "Atelier", "Shape_Length": 0.00011850014076389333, "Shape_Area": 8.0629346408038975e-10 }, "geometry": { "type": "Polygon", "coordinates": [ [ [ -1.62947447099998, 48.094102407000037 ], [ -1.62949512199998, 48.094118986000069 ], [ -1.629523627999959, 48.09410282500005 ], [ -1.629502980999973, 48.094086248000053 ], [ -1.62947447099998, 48.094102407000037 ] ] ] } },
{ "type": "Feature", "id": 23, "properties": { "OBJECTID": 23, "FID": 8, "FID_TOUR_5": 8, "Shape_Leng": null, "Salle": "Ascenseurs", "Etage": 5, "Hauteur": 1, "Typologie": "Accès", "Shape_Length": 0.00015419960044102738, "Shape_Area": 1.1905416927312267e-09 }, "geometry": { "type": "Polygon", "coordinates": [ [ [ -1.629316890999974, 48.094192982000038 ], [ -1.629297796999936, 48.094177656000056 ], [ -1.629292178999947, 48.094180840000035 ], [ -1.629275091999943, 48.094167066000068 ], [ -1.629254010999944, 48.09417899500005 ], [ -1.629290229999924, 48.094208078000065 ], [ -1.629316890999974, 48.094192982000038 ] ] ] } }
]
}
