{"type":"FeatureCollection","features":[{"type":"Feature","id":1,"geometry":{"type":"Polygon","coordinates":[[[-1.6288743005187707,48.09437778213514],[-1.6289070225513091,48.094403233096095],[-1.629058310523249,48.094319070699839],[-1.6290276105984103,48.094294333686221],[-1.6290264436868807,48.094293397100635],[-1.6288743005187707,48.09437778213514]]]},"properties":{"OBJECTID":1,"FID_Tour_3eme":1,"Salle":"DRH Ouest-France","Etage":3,"Hauteur":0,"Typologie":"Secteur","Shape_Length":55.082219100918984,"Shape_Area":122.45019119176688}},{"type":"Feature","id":2,"geometry":{"type":"Polygon","coordinates":[[[-1.6290576053457611,48.094275650570168],[-1.629093847875891,48.094303848939013],[-1.6291864273507575,48.094253060904421],[-1.6291495497117128,48.094223447727572],[-1.6290576053457611,48.094275650570168]]]},"properties":{"OBJECTID":2,"FID_Tour_3eme":2,"Salle":"DRH Ouest-France","Etage":3,"Hauteur":0,"Typologie":"Secteur","Shape_Length":39.383807394161344,"Shape_Area":84.410730307179023}},{"type":"Feature","id":3,"geometry":{"type":"Polygon","coordinates":[[[-1.629106319186995,48.094355987501075],[-1.6291347266112077,48.094379045713616],[-1.6292418093863459,48.094318629706827],[-1.629213189959718,48.094295747264475],[-1.629106319186995,48.094355987501075]]]},"properties":{"OBJECTID":3,"FID_Tour_3eme":3,"Salle":"DRH Ouest-France","Etage":3,"Hauteur":0,"Typologie":"Secteur","Shape_Length":41.117758774399547,"Shape_Area":77.506579022559251}},{"type":"Feature","id":4,"geometry":{"type":"Polygon","coordinates":[[[-1.6289747941512989,48.094440063438448],[-1.6289966528571047,48.094457283721916],[-1.6291038290570075,48.094396820407887],[-1.6290509299648965,48.094354154531437],[-1.6290421165936402,48.094347060848285],[-1.6289344032011728,48.094408243608193],[-1.6289747941512989,48.094440063438448]]]},"properties":{"OBJECTID":4,"FID_Tour_3eme":4,"Salle":"DRH Ouest-France","Etage":3,"Hauteur":0,"Typologie":"Secteur","Shape_Length":52.842425621787612,"Shape_Area":168.42971053334824}},{"type":"Feature","id":5,"geometry":{"type":"Polygon","coordinates":[[[-1.6294402723854253,48.094128464769668],[-1.6294967853999593,48.09417377439906],[-1.6296263215656148,48.094100298104294],[-1.6295190258897647,48.094014151031914],[-1.6293892390941522,48.094087458851703],[-1.6294179753017692,48.094110551984258],[-1.6294403056231177,48.094128446169897],[-1.6294402723854253,48.094128464769668]]]},"properties":{"OBJECTID":5,"FID_Tour_3eme":5,"Salle":"Administration et paie","Etage":3,"Hauteur":0,"Typologie":"Secteur","Shape_Length":75.237131575610306,"Shape_Area":353.75582553780032}},{"type":"Feature","id":6,"geometry":{"type":"Polygon","coordinates":[[[-1.6294503829239571,48.094166783289694],[-1.6294750578481965,48.0941863340338],[-1.6294895386905741,48.094177970744184],[-1.6294651395491435,48.094158220199454],[-1.6294503829239571,48.094166783289694]]]},"properties":{"OBJECTID":6,"FID_Tour_3eme":6,"Salle":"Atelier 3.5","Etage":3,"Hauteur":1,"Typologie":"Atelier","Shape_Length":12.836630831429391,"Shape_Area":9.1826621502921348}},{"type":"Feature","id":7,"geometry":{"type":"Polygon","coordinates":[[[-1.629403925650732,48.094192776147835],[-1.6294290955466721,48.094212349081729],[-1.6294739789715158,48.094186967025387],[-1.6294493624377877,48.094166957887445],[-1.629403925650732,48.094192776147835]]]},"properties":{"OBJECTID":7,"FID_Tour_3eme":7,"Salle":"Simoun","Etage":3,"Hauteur":1,"Typologie":"Réunion","Shape_Length":21.804205944446011,"Shape_Area":28.406061461664319}},{"type":"Feature","id":8,"geometry":{"type":"Polygon","coordinates":[[[-1.6293732140477974,48.094210088912845],[-1.6293978754972804,48.094230039234866],[-1.6294290955466721,48.094212349081729],[-1.629403925650732,48.094192776147835],[-1.6293732140477974,48.094210088912845]]]},"properties":{"OBJECTID":8,"FID_Tour_3eme":8,"Salle":"Sirocco","Etage":3,"Hauteur":1,"Typologie":"Réunion","Shape_Length":17.643564597080506,"Shape_Area":19.443993444511552}},{"type":"Feature","id":9,"geometry":{"type":"Polygon","coordinates":[[[-1.6293337034466602,48.094262301968904],[-1.6293367954478697,48.094264796732006],[-1.6293640682998818,48.09424927975941],[-1.6293978754972804,48.094230039234866],[-1.6293732140477974,48.094210088912845],[-1.6293123621704493,48.094244890822878],[-1.6293337034466602,48.094262301968904]]]},"properties":{"OBJECTID":9,"FID_Tour_3eme":9,"Salle":"Alize","Etage":3,"Hauteur":1,"Typologie":"Réunion","Shape_Length":26.452685431280251,"Shape_Area":38.388386630350354}},{"type":"Feature","id":10,"geometry":{"type":"Polygon","coordinates":[[[-1.6292562021938413,48.094266273910144],[-1.629288246896635,48.094291994922152],[-1.6293114288208652,48.094279011119582],[-1.6293367810748161,48.094264812931776],[-1.6293337034466602,48.094262301968904],[-1.6293122220332688,48.094244971221691],[-1.6293123621704493,48.094244890822878],[-1.6292961071553709,48.094231630412331],[-1.6292748808635218,48.094243925436757],[-1.6292630787973221,48.094234395173117],[-1.6292357736059482,48.094249783152087],[-1.6292560620566607,48.094266161711779],[-1.6292562021938413,48.094266273910144]]]},"properties":{"OBJECTID":10,"FID_Tour_3eme":10,"Salle":"Zephir","Etage":3,"Hauteur":1,"Typologie":"Réunion","Shape_Length":32.528900553007119,"Shape_Area":58.440046273366754}},{"type":"Feature","id":11,"geometry":{"type":"Polygon","coordinates":[[[-1.629213189959718,48.094295747264475],[-1.6292418848448353,48.094318608107166],[-1.629288246896635,48.094291994922152],[-1.6292610917239092,48.0942702296513],[-1.6292281163664895,48.094287787186488],[-1.629213189959718,48.094295747264475]]]},"properties":{"OBJECTID":11,"FID_Tour_3eme":11,"Salle":"Atelier 3.4","Etage":3,"Hauteur":1,"Typologie":"Atelier","Shape_Length":23.319972702127746,"Shape_Area":33.020498733240252}},{"type":"Feature","id":12,"geometry":{"type":"Polygon","coordinates":[[[-1.6290509299648965,48.094354154531437],[-1.6291038604980728,48.094396803008209],[-1.6291347266112077,48.094379045713616],[-1.629106319186995,48.094355987501075],[-1.6290821679805632,48.094336378022412],[-1.6290509299648965,48.094354154531437]]]},"properties":{"OBJECTID":12,"FID_Tour_3eme":12,"Salle":"Atelier 3.3","Etage":3,"Hauteur":1,"Typologie":"Atelier","Shape_Length":27.545022823941402,"Shape_Area":41.961546080736191}},{"type":"Feature","id":13,"geometry":{"type":"Polygon","coordinates":[[[-1.6290276105984103,48.094294333686221],[-1.6290653838577944,48.094324614011626],[-1.6290972686605047,48.094306511097514],[-1.629093847875891,48.094303848939013],[-1.6290936053307745,48.094303982136957],[-1.6290576053457611,48.094275650570168],[-1.6290264436868807,48.094293397100635],[-1.6290276105984103,48.094294333686221]]]},"properties":{"OBJECTID":13,"FID_Tour_3eme":13,"Salle":"F. Greffier","Etage":3,"Hauteur":1,"Typologie":"Bureau","Shape_Length":22.802262125774888,"Shape_Area":31.116381092647632}},{"type":"Feature","id":14,"geometry":{"type":"Polygon","coordinates":[[[-1.6293942373204024,48.094123986423909],[-1.6294148024521877,48.09414031882423],[-1.6294165730316001,48.094141794205967],[-1.6294402723854253,48.094128464769668],[-1.6294179483523232,48.094110566984064],[-1.6293942373204024,48.094123986423909]]]},"properties":{"OBJECTID":14,"FID_Tour_3eme":14,"Salle":"Ascenseur","Etage":3,"Hauteur":1,"Typologie":"Se déplacer","Shape_Length":14.663129084507812,"Shape_Area":13.379677021328467}},{"type":"Feature","id":15,"geometry":{"type":"Polygon","coordinates":[[[-1.6293498524605146,48.094120742862934],[-1.6293756511771562,48.094141163013802],[-1.6293990199509494,48.094127837177311],[-1.6293942373204024,48.094123986423909],[-1.6293942256422735,48.094123975624036],[-1.6294179483523232,48.094110566984064],[-1.6293891717205033,48.094087495451284],[-1.6293415484340457,48.094114111142105],[-1.6293498524605146,48.094120742862934]]]},"properties":{"OBJECTID":15,"FID_Tour_3eme":15,"Salle":"Sanitaires femmes","Etage":3,"Hauteur":1,"Typologie":"Toilettes","Shape_Length":25.527574142692423,"Shape_Area":37.563787579614548}},{"type":"Feature","id":16,"geometry":{"type":"Polygon","coordinates":[[[-1.6293498524605146,48.094120742862934],[-1.6293414846536516,48.094114120142009],[-1.629320722790802,48.094125955000095],[-1.6293879715712809,48.094180395912289],[-1.6294152156772193,48.094165045112078],[-1.6293996640430348,48.094152451872553],[-1.629393746840254,48.094155485434172],[-1.6293756511771562,48.094141163013802],[-1.6293755146332307,48.094141240412803],[-1.6293498524605146,48.094120742862934]]]},"properties":{"OBJECTID":16,"FID_Tour_3eme":16,"Salle":"Sanitaires hommes","Etage":3,"Hauteur":1,"Typologie":"Toilettes","Shape_Length":31.361626545925066,"Shape_Area":38.719880365927587}},{"type":"Feature","id":17,"geometry":{"type":"Polygon","coordinates":[[[-1.6292935586349053,48.094152451872553],[-1.6293528725964894,48.094200433244644],[-1.6293879401302493,48.094180431311848],[-1.6293288857817931,48.094132616119055],[-1.6292935586349053,48.094152451872553]]]},"properties":{"OBJECTID":17,"FID_Tour_3eme":17,"Salle":"Escaliers","Etage":3,"Hauteur":1,"Typologie":"Se déplacer","Shape_Length":30.972471394559232,"Shape_Area":53.151512952700664}},{"type":"Feature","id":18,"geometry":{"type":"Polygon","coordinates":[[[-1.6292924285542902,48.094210453707831],[-1.6293223541313644,48.094193392339584],[-1.6292984849959546,48.094174038395614],[-1.6292922318232592,48.094177626348682],[-1.6292744460789266,48.094163458132471],[-1.6292499328514647,48.094176603362065],[-1.6292924285542902,48.094210453707831]]]},"properties":{"OBJECTID":18,"FID_Tour_3eme":18,"Salle":"Ascenseurs","Etage":3,"Hauteur":1,"Typologie":"Se déplacer","Shape_Length":23.42047489918631,"Shape_Area":29.331849840699491}},{"type":"Feature","id":19,"geometry":{"type":"Polygon","coordinates":[[[-1.6291794025252553,48.094206046168246],[-1.6292191835192857,48.09423793032277],[-1.6292624050608657,48.094213658263698],[-1.6292243443406105,48.094180769107389],[-1.6291794025252553,48.094206046168246]]]},"properties":{"OBJECTID":19,"FID_Tour_3eme":19,"Salle":"Cafétéria","Etage":3,"Hauteur":1,"Typologie":"Repos","Shape_Length":26.672083188897741,"Shape_Area":44.37822138293992}},{"type":"Feature","id":20,"geometry":{"type":"Polygon","coordinates":[[[-1.6292357044356716,48.09424982155155],[-1.6292031854223772,48.094267926885593],[-1.6292281163664895,48.094287787186488],[-1.6292610602828776,48.094270204451661],[-1.6292562021938413,48.094266273910144],[-1.6292560620566607,48.094266161711779],[-1.6292357044356716,48.09424982155155]]]},"properties":{"OBJECTID":20,"FID_Tour_3eme":20,"Salle":"Réserve 3","Etage":3,"Hauteur":1,"Typologie":"Autre","Shape_Length":18.143539588786581,"Shape_Area":20.549630261786085}},{"type":"Feature","id":21,"geometry":{"type":"Polygon","coordinates":[[[-1.6291493323194151,48.094299245210451],[-1.6291597914042877,48.09430770147889],[-1.6291853888983128,48.094293637696943],[-1.6291745165884088,48.094284906030346],[-1.6291493323194151,48.094299245210451]]]},"properties":{"OBJECTID":21,"FID_Tour_3eme":21,"Salle":"Box 3.2","Etage":3,"Hauteur":1,"Typologie":"Autre","Shape_Length":11.094552296642899,"Shape_Area":6.8588170195709672}},{"type":"Feature","id":22,"geometry":{"type":"Polygon","coordinates":[[[-1.6288743005187707,48.09437778213514],[-1.6288742340434521,48.094377726336077],[-1.6288405571017657,48.094396697410048],[-1.6288992548190406,48.094441947404128],[-1.6289002312877858,48.094441396014197],[-1.6289002510507218,48.094441385214381],[-1.6289328697769943,48.094423005746343],[-1.6289071033996811,48.094403292495031],[-1.628907025246267,48.094403231896095],[-1.6288743005187707,48.09437778213514]]]},"properties":{"OBJECTID":22,"FID_Tour_3eme":22,"Salle":"Escaliers","Etage":3,"Hauteur":1,"Typologie":"Se déplacer","Shape_Length":29.756791843279327,"Shape_Area":48.78857455876463}},{"type":"Feature","id":23,"geometry":{"type":"Polygon","coordinates":[[[-1.6288991910386803,48.09444195700393],[-1.6289146528413549,48.094454232778453],[-1.6289165680495334,48.094453090999536],[-1.628948130357019,48.094435283325289],[-1.6289328545056436,48.09442296614705],[-1.6289325841127171,48.094423117944309],[-1.6289326613678341,48.09442317794322],[-1.6288991910386803,48.09444195700393]]]},"properties":{"OBJECTID":23,"FID_Tour_3eme":23,"Salle":"Espace repro","Etage":3,"Hauteur":1,"Typologie":"Autre","Shape_Length":15.143090847572106,"Shape_Area":13.018399963144738}},{"type":"Feature","id":24,"geometry":{"type":"Polygon","coordinates":[[[-1.6289145558233018,48.094454243578255],[-1.6289305799713261,48.094465904961311],[-1.6289632759527153,48.094447410904117],[-1.6289626085044722,48.094446871514002],[-1.6289481420351481,48.094435313924762],[-1.6289165680495334,48.094453090999536],[-1.6289145558233018,48.094454243578255]]]},"properties":{"OBJECTID":24,"FID_Tour_3eme":24,"Salle":"Atelier 3.1","Etage":3,"Hauteur":1,"Typologie":"Atelier","Shape_Length":14.927161990134959,"Shape_Area":12.71952872584416}},{"type":"Feature","id":25,"geometry":{"type":"Polygon","coordinates":[[[-1.6289626085044722,48.094446871514002],[-1.6289633478179499,48.094447428303781],[-1.628930570089858,48.094465933160777],[-1.6289517667373028,48.094482600246124],[-1.6289966528571047,48.094457283721916],[-1.6289747941512989,48.094440063438448],[-1.6289626085044722,48.094446871514002]]]},"properties":{"OBJECTID":25,"FID_Tour_3eme":25,"Salle":"Atelier 3.2","Etage":3,"Hauteur":1,"Typologie":"Atelier","Shape_Length":20.617728237752598,"Shape_Area":24.064040859429166}},{"type":"Feature","id":26,"geometry":{"type":"MultiPolygon","coordinates":[[[[-1.6293640682998818,48.09424927975941],[-1.6295739416997264,48.0941317137301],[-1.6296332628478203,48.094102338680557],[-1.6295200131382748,48.094007638096215],[-1.629357585158496,48.094104165059278],[-1.6289023342438576,48.094360036833763],[-1.6288355948081328,48.094396912806282],[-1.6289524737114185,48.09448696516283],[-1.6290486374642703,48.094432705771929],[-1.6293114288208652,48.094279011119582],[-1.629288246896635,48.094291994922152],[-1.6292418848448353,48.094318608107166],[-1.629213189959718,48.094295747264475],[-1.6292418093863459,48.094318629706827],[-1.6291347266112077,48.094379045713616],[-1.6291038604980728,48.094396803008209],[-1.6291038290570075,48.094396820407887],[-1.6289966627385726,48.094457298721672],[-1.6289966528571047,48.094457283721916],[-1.6289517667373028,48.094482600246124],[-1.628930570089858,48.094465933160777],[-1.6289633478179499,48.094447428303781],[-1.6289626085044722,48.094446871514002],[-1.6289632759527153,48.094447410904117],[-1.6289305799713261,48.094465904961311],[-1.6289155682246306,48.094453653789145],[-1.6289155897841943,48.094453641789379],[-1.6289002528473493,48.094441386414339],[-1.6288992548190406,48.094441947404128],[-1.6288421605945513,48.094395961222837],[-1.6288742340434521,48.094377726336077],[-1.6288743005187707,48.09437778213514],[-1.6290264436868807,48.094293397100635],[-1.6290576053457611,48.094275650570168],[-1.6291495497117128,48.094223447727572],[-1.6291864273507575,48.094253060904421],[-1.629093847875891,48.094303848939013],[-1.6290972686605047,48.094306511097514],[-1.6290653838577944,48.094324614011626],[-1.6290276105984103,48.094294333686221],[-1.629058310523249,48.094319070699839],[-1.6289070225513091,48.094403233096095],[-1.6289325841127171,48.094423117944309],[-1.6289328545056436,48.09442296614705],[-1.628948130357019,48.094435283325289],[-1.6289165680495334,48.094453090999536],[-1.6289481420351481,48.094435313924762],[-1.6289626085044722,48.094446871514002],[-1.6289747941512989,48.094440063438448],[-1.6289344032011728,48.094408243608193],[-1.6290421165936402,48.094347060848285],[-1.6290509299648965,48.094354154531437],[-1.6290821679805632,48.094336378022412],[-1.629106319186995,48.094355987501075],[-1.629213189959718,48.094295747264475],[-1.6292281163664895,48.094287787186488],[-1.6292031854223772,48.094267926885593],[-1.6292357044356716,48.09424982155155],[-1.6292356864693629,48.094249807751744],[-1.6292630787973221,48.094234395173117],[-1.6292748808635218,48.094243925436757],[-1.6292961071553709,48.094231630412331],[-1.6293123621704493,48.094244890822878],[-1.6293732140477974,48.094210088912845],[-1.629403925650732,48.094192776147835],[-1.6294493624377877,48.094166957887445],[-1.6294739789715158,48.094186967025387],[-1.6294290955466721,48.094212349081729],[-1.6293978754972804,48.094230039234866],[-1.6293640682998818,48.09424927975941]],[[-1.6294503829239571,48.094166783289694],[-1.6294651395491435,48.094158220199454],[-1.6294895386905741,48.094177970744184],[-1.6294750578481965,48.0941863340338],[-1.6294503829239571,48.094166783289694]],[[-1.6293892390941522,48.094087458851703],[-1.6295190258897647,48.094014151031914],[-1.6296263215656148,48.094100298104294],[-1.6294967853999593,48.09417377439906],[-1.6294402723854253,48.094128464769668],[-1.6294165730316001,48.094141794205967],[-1.6294148024521877,48.09414031882423],[-1.6293942373204024,48.094123986423909],[-1.6293990199509494,48.094127837177311],[-1.6293756511771562,48.094141163013802],[-1.629393746840254,48.094155485434172],[-1.6293996640430348,48.094152451872553],[-1.6294152156772193,48.094165045112078],[-1.6293879715712809,48.094180395912289],[-1.629320722790802,48.094125955000095],[-1.6293414846536516,48.094114120142009],[-1.6293498524605146,48.094120742862934],[-1.6293415484340457,48.094114111142105],[-1.6293891717205033,48.094087495451284],[-1.6293892390941522,48.094087458851703]],[[-1.6292935586349053,48.094152451872553],[-1.6293288857817931,48.094132616119055],[-1.6293879401302493,48.094180431311848],[-1.6293528725964894,48.094200433244644],[-1.6292935586349053,48.094152451872553]],[[-1.6292924285542902,48.094210453707831],[-1.6292499328514647,48.094176603362065],[-1.6292744460789266,48.094163458132471],[-1.6292922318232592,48.094177626348682],[-1.6292984849959546,48.094174038395614],[-1.6293223541313644,48.094193392339584],[-1.6292924285542902,48.094210453707831]],[[-1.6291794025252553,48.094206046168246],[-1.6292243443406105,48.094180769107389],[-1.6292624050608657,48.094213658263698],[-1.6292191835192857,48.09423793032277],[-1.6291794025252553,48.094206046168246]],[[-1.6291493323194151,48.094299245210451],[-1.6291745165884088,48.094284906030346],[-1.6291853888983128,48.094293637696943],[-1.6291597914042877,48.09430770147889],[-1.6291493323194151,48.094299245210451]]],[[[-1.6292610917239092,48.0942702296513],[-1.629288246896635,48.094291994922152],[-1.6292562021938413,48.094266273910144],[-1.6292610602828776,48.094270204451661],[-1.6292610917239092,48.0942702296513]]]]},"properties":{"OBJECTID":26,"FID_Tour_3eme":-1,"Salle":"","Etage":0,"Hauteur":0,"Typologie":"","Shape_Length":788.61965931713223,"Shape_Area":521.77897365537865}}]}