{
"type": "FeatureCollection",
"name": "TOUR_4EME",
"features": [
{ "type": "Feature", "id": 1, "properties": { "OBJECTID": 1, "FID": 0, "FID_TOUR_4": -1, "Shape_Leng": 0.0, "Salle": null, "Etage": 4, "Hauteur": 0, "Typologie": null, "FID_BATIME": 963794, "Shape_Length": 0.0075591714310718578, "Shape_Area": 3.4881106728778446e-08 }, "geometry": { "type": "Polygon", "coordinates": [ [ [ -1.628952473999959, 48.094486964000055 ], [ -1.629048636999926, 48.094432705000031 ], [ -1.629321269999934, 48.09427325300004 ], [ -1.629573941999979, 48.094131713000081 ], [ -1.62963326299996, 48.094102338000027 ], [ -1.629520012999933, 48.094007637000061 ], [ -1.629357588999937, 48.094104163000054 ], [ -1.62890232999996, 48.094360036000069 ], [ -1.628835594999941, 48.094396912000036 ], [ -1.628952473999959, 48.094486964000055 ] ], [ [ -1.628929193999966, 48.094466372000056 ], [ -1.628964760999963, 48.094446309000034 ], [ -1.62897578999997, 48.09444043700006 ], [ -1.628997410999943, 48.094457702000057 ], [ -1.628952024999933, 48.094484356000066 ], [ -1.628929193999966, 48.094466372000056 ], [ -1.62891411399994, 48.094454105000068 ], [ -1.628900621999946, 48.094443026000079 ], [ -1.628933544999938, 48.094424351000043 ], [ -1.628947230999927, 48.09443535500003 ], [ -1.628962595999951, 48.094447443000035 ], [ -1.628929193999966, 48.094466372000056 ] ], [ [ -1.628962563999949, 48.094428109000035 ], [ -1.62906811199997, 48.094367770000076 ], [ -1.629103125999961, 48.094396246000031 ], [ -1.628998268999965, 48.094456089000062 ], [ -1.628962563999949, 48.094428109000035 ] ], [ [ -1.629058568999938, 48.094275783000057 ], [ -1.629097363999961, 48.094306803000052 ], [ -1.629065741999966, 48.094324810000046 ], [ -1.629067660999965, 48.094326594000052 ], [ -1.628921429999934, 48.09440661800005 ], [ -1.628924275999964, 48.094409144000053 ], [ -1.628936794999959, 48.094418816000029 ], [ -1.628897919999929, 48.094441442000061 ], [ -1.628843119999942, 48.094396184000061 ], [ -1.628872798999964, 48.09437940600003 ], [ -1.628914047999956, 48.094412283000054 ], [ -1.628915911999968, 48.094411086000036 ], [ -1.628915022999934, 48.094410095000057 ], [ -1.628875663999963, 48.094378755000037 ], [ -1.62902803999998, 48.094292913000061 ], [ -1.629058568999938, 48.094275783000057 ], [ -1.62918061299996, 48.09420700700008 ], [ -1.629217885999935, 48.094237201000055 ], [ -1.629187977999948, 48.094254041000056 ], [ -1.629190628999936, 48.094257301000027 ], [ -1.629099390999954, 48.094308043000069 ], [ -1.629058568999938, 48.094275783000057 ] ], [ [ -1.629213078999953, 48.09429521900006 ], [ -1.629240954999943, 48.094318098000031 ], [ -1.629134277999981, 48.094378493000079 ], [ -1.629104501999961, 48.094354744000043 ], [ -1.629213078999953, 48.09429521900006 ] ], [ [ -1.629260474999967, 48.094271382000045 ], [ -1.62928712799993, 48.094292156000051 ], [ -1.629241647999947, 48.094317897000053 ], [ -1.629215944999942, 48.094296858000064 ], [ -1.629260474999967, 48.094271382000045 ], [ -1.629230127999961, 48.094288471000027 ], [ -1.629204608999942, 48.094267846000037 ], [ -1.629235132999952, 48.094250498000065 ], [ -1.629260474999967, 48.094271382000045 ] ], [ [ -1.629183870999952, 48.09429358400007 ], [ -1.629160229999968, 48.094306966000033 ], [ -1.629150596999978, 48.094299333000038 ], [ -1.629174299999931, 48.094285855000066 ], [ -1.629183870999952, 48.09429358400007 ] ], [ [ -1.629237063999938, 48.094249915000034 ], [ -1.629262850999964, 48.094235369000046 ], [ -1.629274302999931, 48.094244564000064 ], [ -1.62929550299998, 48.094232472000044 ], [ -1.629335391999973, 48.094264542000076 ], [ -1.62928807399993, 48.094291394000038 ], [ -1.629237063999938, 48.094249915000034 ] ], [ [ -1.62922006499997, 48.094236052000042 ], [ -1.629182452999942, 48.09420575200005 ], [ -1.629219201999945, 48.094184974000029 ], [ -1.629250485999933, 48.094210564000036 ], [ -1.629240054999968, 48.094216989000074 ], [ -1.629245583999932, 48.094221497000035 ], [ -1.62922006499997, 48.094236052000042 ] ], [ [ -1.629268886999967, 48.094191711000065 ], [ -1.629253049999932, 48.094179137000026 ], [ -1.629275139999947, 48.094166919000031 ], [ -1.629290685999933, 48.094179399000041 ], [ -1.629291981999927, 48.09418047500003 ], [ -1.629297849999944, 48.094177064000064 ], [ -1.629317534999927, 48.094192974000066 ], [ -1.629290326999978, 48.094208758000036 ], [ -1.629270575999954, 48.094192920000069 ], [ -1.629268886999967, 48.094191711000065 ] ], [ [ -1.629297470999973, 48.094153604000041 ], [ -1.62933015599998, 48.094135334000043 ], [ -1.629385811999953, 48.094180247000054 ], [ -1.629352169999947, 48.094199066000044 ], [ -1.629336026999965, 48.094185649000053 ], [ -1.629336802999944, 48.094184996000081 ], [ -1.629297470999973, 48.094153604000041 ] ], [ [ -1.629321901999958, 48.094126722000055 ], [ -1.629341809999971, 48.094115477000059 ], [ -1.629393396999944, 48.09415712200007 ], [ -1.629399217999946, 48.094153934000076 ], [ -1.629412912999953, 48.094164866000028 ], [ -1.629387220999945, 48.094179454000027 ], [ -1.629321901999958, 48.094126722000055 ] ], [ [ -1.629342657999928, 48.094114850000039 ], [ -1.629388203999952, 48.094089111000073 ], [ -1.629416427999956, 48.094111914000052 ], [ -1.629394114999968, 48.094124553000029 ], [ -1.62939784699995, 48.094127619000062 ], [ -1.629374852999945, 48.094140751000054 ], [ -1.629342657999928, 48.094114850000039 ] ], [ [ -1.629388970999969, 48.094088501000044 ], [ -1.629487190999953, 48.094032958000071 ], [ -1.629515558999969, 48.094056192000039 ], [ -1.629416919999926, 48.094110890000081 ], [ -1.629388970999969, 48.094088501000044 ] ], [ [ -1.629504444999952, 48.094085799000027 ], [ -1.629534056999944, 48.094069438000076 ], [ -1.629514404999952, 48.094053607000035 ], [ -1.629488118999973, 48.094032433000052 ], [ -1.629518918999963, 48.094014775000062 ], [ -1.629599457999973, 48.094079516000079 ], [ -1.62962526299998, 48.094100239000056 ], [ -1.629473803999929, 48.09418611500007 ], [ -1.629449485999942, 48.094166587000075 ], [ -1.629505948999963, 48.094134591000056 ], [ -1.629502131999971, 48.094131815000026 ], [ -1.629536771999938, 48.094112497000026 ], [ -1.629525547999947, 48.094103031000031 ], [ -1.629504444999952, 48.094085799000027 ] ], [ [ -1.629472933999978, 48.094186740000055 ], [ -1.629427980999935, 48.094212026000037 ], [ -1.629404474999944, 48.094193066000059 ], [ -1.629449273999967, 48.094167578000054 ], [ -1.629472933999978, 48.094186740000055 ] ], [ [ -1.629427027999952, 48.094212689000074 ], [ -1.629397387999973, 48.094229407000057 ], [ -1.629373861999966, 48.094210414000031 ], [ -1.62940340199998, 48.094193572000052 ], [ -1.629427027999952, 48.094212689000074 ] ], [ [ -1.629396260999954, 48.094230124000035 ], [ -1.629336634999959, 48.094263890000036 ], [ -1.629312003999928, 48.094244398000058 ], [ -1.629372681999939, 48.094210776000068 ], [ -1.629396260999954, 48.094230124000035 ] ], [ [ -1.629417988999933, 48.094140743000025 ], [ -1.629398848999926, 48.094124900000054 ], [ -1.629417622999938, 48.094114328000046 ], [ -1.62943697299994, 48.094130030000031 ], [ -1.629417988999933, 48.094140743000025 ] ], [ [ -1.629429585999958, 48.094120463000081 ], [ -1.629451078999978, 48.094108668000047 ], [ -1.629471631999934, 48.094125129000076 ], [ -1.629450386999963, 48.094136970000079 ], [ -1.629429585999958, 48.094120463000081 ] ], [ [ -1.629474155999958, 48.09410230900005 ], [ -1.629503064999938, 48.094085803000041 ], [ -1.629524237999931, 48.094102882000072 ], [ -1.629495324999937, 48.09411932900008 ], [ -1.629474155999958, 48.09410230900005 ] ], [ [ -1.629133291999949, 48.094379118000063 ], [ -1.629104127999938, 48.09439556600006 ], [ -1.629051690999972, 48.094353776000048 ], [ -1.62908230599993, 48.094337298000028 ], [ -1.629133291999949, 48.094379118000063 ] ], [ [ -1.628992058999927, 48.094389467000042 ], [ -1.629015632999938, 48.094375995000064 ], [ -1.62902506699993, 48.094383532000052 ], [ -1.629001504999962, 48.094397015000027 ], [ -1.628992058999927, 48.094389467000042 ] ] ] } },
{ "type": "Feature", "id": 2, "properties": { "OBJECTID": 2, "FID": 1, "FID_TOUR_4": 1, "Shape_Leng": 30.976142169, "Salle": "Escaliers", "Etage": 4, "Hauteur": 1, "Typologie": "Accès", "FID_BATIME": 963794, "Shape_Length": 0.00023335566189824569, "Shape_Area": 2.4725096964157748e-09 }, "geometry": { "type": "Polygon", "coordinates": [ [ [ -1.628915022999934, 48.094410095000057 ], [ -1.628915911999968, 48.094411086000036 ], [ -1.628914047999956, 48.094412283000054 ], [ -1.628872798999964, 48.09437940600003 ], [ -1.628843119999942, 48.094396184000061 ], [ -1.628897919999929, 48.094441442000061 ], [ -1.628936794999959, 48.094418816000029 ], [ -1.628924275999964, 48.094409144000053 ], [ -1.628921429999934, 48.09440661800005 ], [ -1.628915022999934, 48.094410095000057 ] ] ] } },
{ "type": "Feature", "id": 3, "properties": { "OBJECTID": 3, "FID": 2, "FID_TOUR_4": 2, "Shape_Leng": 14.4057502188, "Salle": "Espace repro", "Etage": 4, "Hauteur": 1, "Typologie": "Autre", "FID_BATIME": 963794, "Shape_Length": 0.00011092633542467827, "Shape_Area": 6.1887449231954668e-10 }, "geometry": { "type": "Polygon", "coordinates": [ [ [ -1.628947230999927, 48.09443535500003 ], [ -1.628933544999938, 48.094424351000043 ], [ -1.628900621999946, 48.094443026000079 ], [ -1.62891411399994, 48.094454105000068 ], [ -1.628947230999927, 48.09443535500003 ] ] ] } },
{ "type": "Feature", "id": 4, "properties": { "OBJECTID": 4, "FID": 3, "FID_TOUR_4": 3, "Shape_Leng": 14.997375330100001, "Salle": "Atelier 4.1", "Etage": 4, "Hauteur": 1, "Typologie": "Atelier", "FID_BATIME": 963794, "Shape_Length": 0.0001154385232823429, "Shape_Area": 6.9180185064197012e-10 }, "geometry": { "type": "Polygon", "coordinates": [ [ [ -1.62891411399994, 48.094454105000068 ], [ -1.628929193999966, 48.094466372000056 ], [ -1.628962595999951, 48.094447443000035 ], [ -1.628947230999927, 48.09443535500003 ], [ -1.62891411399994, 48.094454105000068 ] ] ] } },
{ "type": "Feature", "id": 5, "properties": { "OBJECTID": 5, "FID": 4, "FID_TOUR_4": 4, "Shape_Leng": 21.1613996241, "Salle": "Atelier 4.2", "Etage": 4, "Hauteur": 1, "Typologie": "Atelier", "FID_BATIME": 963794, "Shape_Length": 0.00016269600453907521, "Shape_Area": 1.4012026382299334e-09 }, "geometry": { "type": "Polygon", "coordinates": [ [ [ -1.628929193999966, 48.094466372000056 ], [ -1.628952024999933, 48.094484356000066 ], [ -1.628997410999943, 48.094457702000057 ], [ -1.62897578999997, 48.09444043700006 ], [ -1.628964760999963, 48.094446309000034 ], [ -1.628929193999966, 48.094466372000056 ] ] ] } },
{ "type": "Feature", "id": 6, "properties": { "OBJECTID": 6, "FID": 5, "FID_TOUR_4": 6, "Shape_Leng": 58.692103296699997, "Salle": "Comptabilité", "Etage": 4, "Hauteur": 1, "Typologie": "Service", "FID_BATIME": 963794, "Shape_Length": 0.00045119452245861069, "Shape_Area": 8.3069156605052401e-09 }, "geometry": { "type": "Polygon", "coordinates": [ [ [ -1.62902803999998, 48.094292913000061 ], [ -1.628875663999963, 48.094378755000037 ], [ -1.628915022999934, 48.094410095000057 ], [ -1.628921429999934, 48.09440661800005 ], [ -1.629067660999965, 48.094326594000052 ], [ -1.629065741999966, 48.094324810000046 ], [ -1.62902803999998, 48.094292913000061 ] ] ] } },
{ "type": "Feature", "id": 7, "properties": { "OBJECTID": 7, "FID": 6, "FID_TOUR_4": 7, "Shape_Leng": 22.5743377716, "Salle": "O.Sion", "Etage": 4, "Hauteur": 1, "Typologie": "Bureau", "FID_BATIME": 963794, "Shape_Length": 0.00017045278040237291, "Shape_Area": 1.6495573879619432e-09 }, "geometry": { "type": "Polygon", "coordinates": [ [ [ -1.62902803999998, 48.094292913000061 ], [ -1.629065741999966, 48.094324810000046 ], [ -1.629097363999961, 48.094306803000052 ], [ -1.629058568999938, 48.094275783000057 ], [ -1.62902803999998, 48.094292913000061 ] ] ] } },
{ "type": "Feature", "id": 8, "properties": { "OBJECTID": 8, "FID": 7, "FID_TOUR_4": 8, "Shape_Leng": 43.088060488899998, "Salle": "Service Généraux", "Etage": 4, "Hauteur": 1, "Typologie": "Service", "FID_BATIME": 963794, "Shape_Length": 0.00033280348464117632, "Shape_Area": 5.0944438838154818e-09 }, "geometry": { "type": "Polygon", "coordinates": [ [ [ -1.628962563999949, 48.094428109000035 ], [ -1.628998268999965, 48.094456089000062 ], [ -1.629103125999961, 48.094396246000031 ], [ -1.62906811199997, 48.094367770000076 ], [ -1.628962563999949, 48.094428109000035 ] ] ] } },
{ "type": "Feature", "id": 9, "properties": { "OBJECTID": 9, "FID": 8, "FID_TOUR_4": 9, "Shape_Leng": 26.702618990200001, "Salle": "Atelier 4.3", "Etage": 4, "Hauteur": 1, "Typologie": "Atelier", "FID_BATIME": 963794, "Shape_Length": 0.00020124588736484102, "Shape_Area": 2.1008569723656502e-09 }, "geometry": { "type": "Polygon", "coordinates": [ [ [ -1.629051690999972, 48.094353776000048 ], [ -1.629104127999938, 48.09439556600006 ], [ -1.629133291999949, 48.094379118000063 ], [ -1.62908230599993, 48.094337298000028 ], [ -1.629051690999972, 48.094353776000048 ] ] ] } },
{ "type": "Feature", "id": 10, "properties": { "OBJECTID": 10, "FID": 9, "FID_TOUR_4": 10, "Shape_Leng": 10.1846052019, "Salle": "Box 4.1", "Etage": 4, "Hauteur": 1, "Typologie": "Bureau", "FID_BATIME": 963794, "Shape_Length": 7.846527131695057e-05, "Shape_Area": 3.0498923955741239e-10 }, "geometry": { "type": "Polygon", "coordinates": [ [ [ -1.628992058999927, 48.094389467000042 ], [ -1.629001504999962, 48.094397015000027 ], [ -1.62902506699993, 48.094383532000052 ], [ -1.629015632999938, 48.094375995000064 ], [ -1.628992058999927, 48.094389467000042 ] ] ] } },
{ "type": "Feature", "id": 11, "properties": { "OBJECTID": 11, "FID": 10, "FID_TOUR_4": 11, "Shape_Leng": 41.283543237799996, "Salle": "Intrasipa : direction - RSE - RH", "Etage": 4, "Hauteur": 1, "Typologie": "Service", "FID_BATIME": 963794, "Shape_Length": 0.00032055988042564915, "Shape_Area": 4.2376228385755548e-09 }, "geometry": { "type": "Polygon", "coordinates": [ [ [ -1.629104501999961, 48.094354744000043 ], [ -1.629134277999981, 48.094378493000079 ], [ -1.629240954999943, 48.094318098000031 ], [ -1.629213078999953, 48.09429521900006 ], [ -1.629104501999961, 48.094354744000043 ] ] ] } },
{ "type": "Feature", "id": 12, "properties": { "OBJECTID": 12, "FID": 11, "FID_TOUR_4": 12, "Shape_Leng": 10.2505479363, "Salle": "Box 4.2", "Etage": 4, "Hauteur": 1, "Typologie": "Bureau", "FID_BATIME": 963794, "Shape_Length": 7.9025313453130269e-05, "Shape_Area": 3.1077949151593921e-10 }, "geometry": { "type": "Polygon", "coordinates": [ [ [ -1.629150596999978, 48.094299333000038 ], [ -1.629160229999968, 48.094306966000033 ], [ -1.629183870999952, 48.09429358400007 ], [ -1.629174299999931, 48.094285855000066 ], [ -1.629150596999978, 48.094299333000038 ] ] ] } },
{ "type": "Feature", "id": 13, "properties": { "OBJECTID": 13, "FID": 12, "FID_TOUR_4": 13, "Shape_Leng": 49.527484021399999, "Salle": "Contrôle de gestion", "Etage": 4, "Hauteur": 1, "Typologie": "Service", "FID_BATIME": 963794, "Shape_Length": 0.00038301107473946765, "Shape_Area": 6.6358556944037271e-09 }, "geometry": { "type": "Polygon", "coordinates": [ [ [ -1.629058568999938, 48.094275783000057 ], [ -1.629099390999954, 48.094308043000069 ], [ -1.629190628999936, 48.094257301000027 ], [ -1.629187977999948, 48.094254041000056 ], [ -1.629217885999935, 48.094237201000055 ], [ -1.62918061299996, 48.09420700700008 ], [ -1.629058568999938, 48.094275783000057 ] ] ] } },
{ "type": "Feature", "id": 14, "properties": { "OBJECTID": 14, "FID": 13, "FID_TOUR_4": 14, "Shape_Leng": 22.248519990999998, "Salle": "C.Scordia - C.Cheve", "Etage": 4, "Hauteur": 1, "Typologie": "Bureau", "FID_BATIME": 963794, "Shape_Length": 0.00017057010184783289, "Shape_Area": 1.6112763453644043e-09 }, "geometry": { "type": "Polygon", "coordinates": [ [ [ -1.629260474999967, 48.094271382000045 ], [ -1.629215944999942, 48.094296858000064 ], [ -1.629241647999947, 48.094317897000053 ], [ -1.62928712799993, 48.094292156000051 ], [ -1.629260474999967, 48.094271382000045 ] ] ] } },
{ "type": "Feature", "id": 15, "properties": { "OBJECTID": 15, "FID": 14, "FID_TOUR_4": 16, "Shape_Leng": 17.819949366199999, "Salle": "Réserve 4", "Etage": 4, "Hauteur": 1, "Typologie": "Autre", "FID_BATIME": 963794, "Shape_Length": 0.00013558725201913218, "Shape_Area": 1.0695486484280657e-09 }, "geometry": { "type": "Polygon", "coordinates": [ [ [ -1.629260474999967, 48.094271382000045 ], [ -1.629235132999952, 48.094250498000065 ], [ -1.629204608999942, 48.094267846000037 ], [ -1.629230127999961, 48.094288471000027 ], [ -1.629260474999967, 48.094271382000045 ] ] ] } },
{ "type": "Feature", "id": 16, "properties": { "OBJECTID": 16, "FID": 15, "FID_TOUR_4": 17, "Shape_Leng": 31.661548632399999, "Salle": "F.Bakhouche", "Etage": 4, "Hauteur": 1, "Typologie": "Bureau", "FID_BATIME": 963794, "Shape_Length": 0.00024003357961235617, "Shape_Area": 2.9845929347933462e-09 }, "geometry": { "type": "Polygon", "coordinates": [ [ [ -1.629237063999938, 48.094249915000034 ], [ -1.62928807399993, 48.094291394000038 ], [ -1.629335391999973, 48.094264542000076 ], [ -1.62929550299998, 48.094232472000044 ], [ -1.629274302999931, 48.094244564000064 ], [ -1.629262850999964, 48.094235369000046 ], [ -1.629237063999938, 48.094249915000034 ] ] ] } },
{ "type": "Feature", "id": 17, "properties": { "OBJECTID": 17, "FID": 16, "FID_TOUR_4": 18, "Shape_Leng": 25.887782004799998, "Salle": "Sherwood", "Etage": 4, "Hauteur": 1, "Typologie": "Salles de réunion", "FID_BATIME": 963794, "Shape_Length": 0.00019980508240345949, "Shape_Area": 1.9803457090666485e-09 }, "geometry": { "type": "Polygon", "coordinates": [ [ [ -1.629312003999928, 48.094244398000058 ], [ -1.629336634999959, 48.094263890000036 ], [ -1.629396260999954, 48.094230124000035 ], [ -1.629372681999939, 48.094210776000068 ], [ -1.629312003999928, 48.094244398000058 ] ] ] } },
{ "type": "Feature", "id": 18, "properties": { "OBJECTID": 18, "FID": 17, "FID_TOUR_4": 19, "Shape_Leng": 16.881950036500001, "Salle": "Borneo", "Etage": 4, "Hauteur": 1, "Typologie": "Salles de réunion", "FID_BATIME": 963794, "Shape_Length": 0.00012866102212061938, "Shape_Area": 9.5944273004315681e-10 }, "geometry": { "type": "Polygon", "coordinates": [ [ [ -1.629373861999966, 48.094210414000031 ], [ -1.629397387999973, 48.094229407000057 ], [ -1.629427027999952, 48.094212689000074 ], [ -1.62940340199998, 48.094193572000052 ], [ -1.629373861999966, 48.094210414000031 ] ] ] } },
{ "type": "Feature", "id": 19, "properties": { "OBJECTID": 19, "FID": 18, "FID_TOUR_4": 20, "Shape_Leng": 21.3358415163, "Salle": "Amazonie", "Etage": 4, "Hauteur": 1, "Typologie": "Salles de réunion", "FID_BATIME": 963794, "Shape_Length": 0.00016376465979881186, "Shape_Area": 1.454083057001176e-09 }, "geometry": { "type": "Polygon", "coordinates": [ [ [ -1.629404474999944, 48.094193066000059 ], [ -1.629427980999935, 48.094212026000037 ], [ -1.629472933999978, 48.094186740000055 ], [ -1.629449273999967, 48.094167578000054 ], [ -1.629404474999944, 48.094193066000059 ] ] ] } },
{ "type": "Feature", "id": 20, "properties": { "OBJECTID": 20, "FID": 19, "FID_TOUR_4": 23, "Shape_Leng": 29.176507204899998, "Salle": "Escaliers", "Etage": 4, "Hauteur": 1, "Typologie": "Accès", "FID_BATIME": 963794, "Shape_Length": 0.00021983868948709985, "Shape_Area": 2.4967911031125119e-09 }, "geometry": { "type": "Polygon", "coordinates": [ [ [ -1.629297470999973, 48.094153604000041 ], [ -1.629336802999944, 48.094184996000081 ], [ -1.629336026999965, 48.094185649000053 ], [ -1.629352169999947, 48.094199066000044 ], [ -1.629385811999953, 48.094180247000054 ], [ -1.62933015599998, 48.094135334000043 ], [ -1.629297470999973, 48.094153604000041 ] ] ] } },
{ "type": "Feature", "id": 23, "properties": { "OBJECTID": 23, "FID": 22, "FID_TOUR_4": 26, "Shape_Leng": 12.282636889200001, "Salle": "Ascenseur", "Etage": 4, "Hauteur": 1, "Typologie": "Accès", "FID_BATIME": 963794, "Shape_Length": 9.3109891517654451e-05, "Shape_Area": 5.0258393980629375e-10 }, "geometry": { "type": "Polygon", "coordinates": [ [ [ -1.629398848999926, 48.094124900000054 ], [ -1.629417988999933, 48.094140743000025 ], [ -1.62943697299994, 48.094130030000031 ], [ -1.629417622999938, 48.094114328000046 ], [ -1.629398848999926, 48.094124900000054 ] ] ] } },
{ "type": "Feature", "id": 24, "properties": { "OBJECTID": 24, "FID": 23, "FID_TOUR_4": 27, "Shape_Leng": 30.285069912099999, "Salle": "Sanitaires hommes", "Etage": 4, "Hauteur": 1, "Typologie": "Toilettes", "FID_BATIME": 963794, "Shape_Length": 0.00022681560026917519, "Shape_Area": 1.8922471493838926e-09 }, "geometry": { "type": "Polygon", "coordinates": [ [ [ -1.629387220999945, 48.094179454000027 ], [ -1.629412912999953, 48.094164866000028 ], [ -1.629399217999946, 48.094153934000076 ], [ -1.629393396999944, 48.09415712200007 ], [ -1.629341809999971, 48.094115477000059 ], [ -1.629321901999958, 48.094126722000055 ], [ -1.629387220999945, 48.094179454000027 ] ] ] } },
{ "type": "Feature", "id": 25, "properties": { "OBJECTID": 25, "FID": 24, "FID_TOUR_4": 28, "Shape_Leng": 24.4663466007, "Salle": "Sanitaires femmes", "Etage": 4, "Hauteur": 1, "Typologie": "Toilettes", "FID_BATIME": 963794, "Shape_Length": 0.00018687435000200873, "Shape_Area": 1.8859094681046369e-09 }, "geometry": { "type": "Polygon", "coordinates": [ [ [ -1.629342657999928, 48.094114850000039 ], [ -1.629374852999945, 48.094140751000054 ], [ -1.62939784699995, 48.094127619000062 ], [ -1.629394114999968, 48.094124553000029 ], [ -1.629416427999956, 48.094111914000052 ], [ -1.629388203999952, 48.094089111000073 ], [ -1.629342657999928, 48.094114850000039 ] ] ] } },
{ "type": "Feature", "id": 26, "properties": { "OBJECTID": 26, "FID": 25, "FID_TOUR_4": 29, "Shape_Leng": 15.844883146400001, "Salle": "Atelier 4.6", "Etage": 4, "Hauteur": 1, "Typologie": "Atelier", "FID_BATIME": 963794, "Shape_Length": 0.00012091821252440673, "Shape_Area": 8.417420765941897e-10 }, "geometry": { "type": "Polygon", "coordinates": [ [ [ -1.629474155999958, 48.09410230900005 ], [ -1.629495324999937, 48.09411932900008 ], [ -1.629524237999931, 48.094102882000072 ], [ -1.629503064999938, 48.094085803000041 ], [ -1.629474155999958, 48.09410230900005 ] ] ] } },
{ "type": "Feature", "id": 27, "properties": { "OBJECTID": 27, "FID": 26, "FID_TOUR_4": 32, "Shape_Leng": 38.453047299399998, "Salle": "Cybersécurité", "Etage": 4, "Hauteur": 1, "Typologie": "Service", "FID_BATIME": 963794, "Shape_Length": 0.00029810583167309108, "Shape_Area": 3.7974351385763534e-09 }, "geometry": { "type": "Polygon", "coordinates": [ [ [ -1.629388970999969, 48.094088501000044 ], [ -1.629416919999926, 48.094110890000081 ], [ -1.629515558999969, 48.094056192000039 ], [ -1.629487190999953, 48.094032958000071 ], [ -1.629388970999969, 48.094088501000044 ] ] ] } },
{ "type": "Feature", "id": 28, "properties": { "OBJECTID": 28, "FID": 27, "FID_TOUR_4": 33, "Shape_Leng": 13.3450441953, "Salle": "Espace repro", "Etage": 4, "Hauteur": 1, "Typologie": "Autre", "FID_BATIME": 963794, "Shape_Length": 0.00010172594773058712, "Shape_Area": 5.9660738237409044e-10 }, "geometry": { "type": "Polygon", "coordinates": [ [ [ -1.629429585999958, 48.094120463000081 ], [ -1.629450386999963, 48.094136970000079 ], [ -1.629471631999934, 48.094125129000076 ], [ -1.629451078999978, 48.094108668000047 ], [ -1.629429585999958, 48.094120463000081 ] ] ] } },
{ "type": "Feature", "id": 29, "properties": { "OBJECTID": 29, "FID": 28, "FID_TOUR_4": 34, "Shape_Leng": 81.296828560700007, "Salle": "Juridique", "Etage": 4, "Hauteur": 1, "Typologie": "Service", "FID_BATIME": 963794, "Shape_Length": 0.00062125987007909491, "Shape_Area": 1.0148258403129357e-08 }, "geometry": { "type": "Polygon", "coordinates": [ [ [ -1.629488118999973, 48.094032433000052 ], [ -1.629514404999952, 48.094053607000035 ], [ -1.629534056999944, 48.094069438000076 ], [ -1.629504444999952, 48.094085799000027 ], [ -1.629525547999947, 48.094103031000031 ], [ -1.629536771999938, 48.094112497000026 ], [ -1.629502131999971, 48.094131815000026 ], [ -1.629505948999963, 48.094134591000056 ], [ -1.629449485999942, 48.094166587000075 ], [ -1.629473803999929, 48.09418611500007 ], [ -1.62962526299998, 48.094100239000056 ], [ -1.629599457999973, 48.094079516000079 ], [ -1.629518918999963, 48.094014775000062 ], [ -1.629488118999973, 48.094032433000052 ] ] ] } },
{ "type": "Feature", "id": 30, "properties": { "OBJECTID": 30, "FID": 29, "FID_TOUR_4": 36, "Shape_Leng": 23.712555050199999, "Salle": "Tisanerie", "Etage": 4, "Hauteur": 1, "Typologie": "Pause", "FID_BATIME": 963794, "Shape_Length": 0.00017969473199016045, "Shape_Area": 1.7979703311962841e-09 }, "geometry": { "type": "Polygon", "coordinates": [ [ [ -1.629182452999942, 48.09420575200005 ], [ -1.62922006499997, 48.094236052000042 ], [ -1.629245583999932, 48.094221497000035 ], [ -1.629240054999968, 48.094216989000074 ], [ -1.629250485999933, 48.094210564000036 ], [ -1.629219201999945, 48.094184974000029 ], [ -1.629182452999942, 48.09420575200005 ] ] ] } },
{ "type": "Feature", "id": 33, "properties": { "OBJECTID": 33, "FID": 30, "FID_TOUR_4": 37, "Shape_Leng": null, "Salle": "Ascenseurs", "Etage": 4, "Hauteur": 1, "Typologie": "Accès", "FID_BATIME": null, "Shape_Length": 0.00015802651597757053, "Shape_Area": 1.2561908631466022e-09 }, "geometry": { "type": "Polygon", "coordinates": [ [ [ -1.629291981999927, 48.09418047500003 ], [ -1.629275139999947, 48.094166920000077 ], [ -1.629253050999978, 48.094179137000026 ], [ -1.629290326999978, 48.094208758000036 ], [ -1.629317534999927, 48.094192974000066 ], [ -1.629297849999944, 48.094177064000064 ], [ -1.629291981999927, 48.09418047500003 ] ] ] } }
]
}
